33837,2024,01,01,00,00,AAXX 01001 33837 32962 02402 10065 20045 30139 40191 58009 555 1/001=
33837,2024,01,01,03,00,AAXX 01031 33837 41/04 92103 10068 20068 30126 40178 57013 74741 89/// 333 55034==
33837,2024,01,01,06,00,AAXX 01061 33837 31218 81803 10074 20067 30113 40165 57013 72841 886// 333 20064 88706 555 11006=
33837,2024,01,01,09,00,AAXX 01091 33837 41150 81904 10080 20066 30097 40149 57016 71022 886// 333 88703==
33837,2024,01,01,12,00,AAXX 01121 33837 31259 82102 10086 20072 30066 40117 58031 71022 886// 333 88704 555 1/008=
33837,2024,01,01,15,00,AAXX 01151 33837 41256 82302 10085 20066 30049 40100 56017 71022 886// 333 88704==
33837,2024,01,01,18,00,AAXX 01181 33837 31250 62302 10077 20065 30041 40092 56008 71022 85501 333 10089 85704 555 1/005=
33837,2024,01,01,21,00,AAXX 01211 33837 42/67 52403 10081 20047 30026 40077 58015 83031==
33837,2024,01,02,00,00,AAXX 02001 33837 32964 82805 10058 20028 30035 40087 53009 83031 555 1/003=
33837,2024,01,02,03,00,AAXX 02031 33837 42/64 82801 10062 20025 30047 40099 52012 86071 333 55000==
33837,2024,01,02,06,00,AAXX 02061 33837 32574 82701 10064 20015 30062 40114 52015 82531 333 20057 555 11004=
33837,2024,01,02,09,00,AAXX 02091 33837 42582 72702 10086 20017 30069 40120 56007 85571==
33837,2024,01,02,12,00,AAXX 02121 33837 32584 82702 10093 20007 30054 40105 58015 86530 555 1/009=
33837,2024,01,02,15,00,AAXX 02151 33837 42/83 82701 10077 20009 30055 40106 53001 88050==
33837,2024,01,02,18,00,AAXX 02181 33837 32981 82701 10073 20009 30056 40108 52001 8805/ 333 10097 555 1/004=
33837,2024,01,02,21,00,AAXX 02211 33837 42/83 62801 10062 21001 30058 40110 52002 86050==
33837,2024,01,03,00,00,AAXX 03001 33837 32983 32802 10039 21015 30055 40107 58003 83030 555 1/000=
33837,2024,01,03,03,00,AAXX 03031 33837 42/84 32702 10031 21020 30053 40105 57002 83030 333 55000==
33837,2024,01,03,06,00,AAXX 03061 33837 32981 52401 10040 21020 30049 40101 57004 83051 333 20026 555 10001=
33837,2024,01,03,09,00,AAXX 03091 33837 42570 82103 10075 20048 30023 40074 58026 8353/==
33837,2024,01,03,12,00,AAXX 03121 33837 32579 82203 10086 20042 39983 40034 58040 8353/ 555 1/011=
33837,2024,01,03,15,00,AAXX 03151 33837 42680 82302 10087 20045 39968 40019 56015 8555/ 333 85642==
33837,2024,01,03,18,00,AAXX 03181 33837 11583 82604 10074 20029 39960 40011 56008 69902 72582 8635/ 333 10090 86931 555 1/005=
33837,2024,01,03,21,00,AAXX 03211 33837 42/80 52802 10058 20024 39958 40009 56002 85030==
33837,2024,01,04,00,00,AAXX 04001 33837 32979 32802 10055 20018 39962 40013 53004 83030 555 1/002=
33837,2024,01,04,03,00,AAXX 04031 33837 42/82 22703 10060 20017 39967 40018 52005 82030 333 55002==
33837,2024,01,04,06,00,AAXX 04061 33837 32584 72703 10065 20014 39975 40026 52008 82009 333 20052 555 10003=
33837,2024,01,04,09,00,AAXX 04091 33837 42581 82604 10094 20025 39973 40024 58002 83551==
33837,2024,01,04,12,00,AAXX 04121 33837 32983 82302 10149 20037 39956 40006 58017 82059 555 1/016=
33837,2024,01,04,15,00,AAXX 04151 33837 42580 62402 10097 20039 39954 40005 56002 82554==
33837,2024,01,04,18,00,AAXX 04181 33837 32582 82504 10086 20042 39956 40007 53002 82551 333 10152 555 1/005=
33837,2024,01,04,21,00,AAXX 04211 33837 41480 82802 10080 20044 39959 40010 52003 78022 8635/==
33837,2024,01,05,00,00,AAXX 05001 33837 /1474 82802 10070 20048 39970 40021 53011 72582 85351 555 1/004 60011=
33837,2024,01,05,03,00,AAXX 05031 33837 42975 22803 10061 20033 39986 40037 53016 80001 333 55016==
33837,2024,01,05,06,00,AAXX 05061 33837 12980 22702 10055 20025 30016 40068 53030 60012 82050 333 20052 555 11002=
33837,2024,01,05,09,00,AAXX 05091 33837 42577 63102 10092 20036 30042 40093 52026 82531==
33837,2024,01,05,12,00,AAXX 05121 33837 32584 53202 10096 20025 30057 40108 51015 82501 555 1/010=
33837,2024,01,05,15,00,AAXX 05151 33837 42583 62901 10067 20006 30091 40143 53034 82501==
33837,2024,01,05,18,00,AAXX 05181 33837 32984 23201 10058 21007 30117 40169 51026 80001 333 10101 555 1/001=
33837,2024,01,05,21,00,AAXX 05211 33837 42984 00000 10030 21019 30125 40178 51008==
33837,2024,01,06,00,00,AAXX 06001 33837 32984 01302 10044 20002 30132 40184 52007 555 1/100=
33837,2024,01,06,03,00,AAXX 06031 33837 42983 51302 10053 20027 30123 40175 58009 80001 333 55028==
33837,2024,01,06,06,00,AAXX 06061 33837 32475 81504 10069 20044 30111 40163 57012 85504 333 20024 85711 555 11005=
33837,2024,01,06,09,00,AAXX 06091 33837 42161 81804 10084 20072 30095 40146 57016 8657/ 333 86703==
33837,2024,01,06,12,00,AAXX 06121 33837 32962 81904 10089 20070 30067 40118 58028 8807/ 555 1/009=
33837,2024,01,06,15,00,AAXX 06151 33837 42/63 82004 10090 20066 30053 40104 56014 8807/==
33837,2024,01,06,18,00,AAXX 06181 33837 32564 82303 10089 20065 30045 40096 56008 82531 333 10093 555 1/005=
33837,2024,01,06,21,00,AAXX 06211 33837 41/58 82301 10082 20067 30037 40088 57008 71022 83034==
33837,2024,01,07,00,00,AAXX 07001 33837 31941 83201 10078 20064 30028 40079 57009 71022 85054 555 1/004=
33837,2024,01,07,03,00,AAXX 07031 33837 41/02 93602 10062 20062 30024 40076 56004 74742 89/// 333 55000==
33837,2024,01,07,06,00,AAXX 07061 33837 31/02 90704 10069 20069 30027 40078 53003 74542 333 20062 555 11006=
33837,2024,01,07,09,00,AAXX 07091 33837 41/04 90905 10072 20072 30015 40066 58012 76164 89///==
33837,2024,01,07,12,00,AAXX 07121 33837 /1/07 90903 10074 20074 39998 40049 57017 76164 333 96047 555 1/007 60031=
33837,2024,01,07,15,00,AAXX 07151 33837 41/03 90602 10078 20078 39993 40044 56005 76164 89///==
33837,2024,01,07,18,00,AAXX 07181 33837 11150 80904 10075 20069 39991 40042 57002 60082 71064 886// 333 10079 88703 555 1/007=
33837,2024,01,07,21,00,AAXX 07211 33837 41156 80808 10057 20051 39994 40045 53003 71022 886//==
33837,2024,01,08,00,00,AAXX 08001 33837 /1211 80707 10052 20045 39991 40043 58003 76186 8872/ 555 1/005 69931=
33837,2024,01,08,03,00,AAXX 08031 33837 41218 80710 10055 20049 39986 40037 57005 76164 8872/ 333 55000==
33837,2024,01,08,06,00,AAXX 08061 33837 11218 80510 10033 20027 30004 40056 53018 60112 76364 8872/ 333 20032 555 11004=
33837,2024,01,08,09,00,AAXX 08091 33837 41319 80411 10010 20001 30021 40074 52017 76166 8872/==
33837,2024,01,08,12,00,AAXX 08121 33837 /1341 80307 11013 21024 30034 40087 52013 76666 8872/ 333 93402 555 1/000 60081=
33837,2024,01,08,15,00,AAXX 08151 33837 41331 80105 11046 21057 30065 40119 53031 77976 8872/==
33837,2024,01,08,18,00,AAXX 08181 33837 11/08 90106 11060 21071 30097 40151 52032 60162 78687 333 10033 555 1/104=
33837,2024,01,08,21,00,AAXX 08211 33837 41312 80205 11063 21074 30125 40180 52028 78688 883//==
33837,2024,01,09,00,00,AAXX 09001 33837 /1311 80206 11067 21079 30151 40206 52026 78683 883// 333 92982 555 1/107 60051=
33837,2024,01,09,03,00,AAXX 09031 33837 41482 83504 11080 21095 30179 40234 52028 72683 8555/ 333 55000 85711==
33837,2024,01,09,06,00,AAXX 09061 33837 11479 63604 11096 21112 30214 40270 53035 60052 70283 85531 333 21098 47006 85711 92980 555 17113=
33837,2024,01,09,09,00,AAXX 09091 33837 42578 33604 11078 21100 30242 40298 51028 82501==
33837,2024,01,09,12,00,AAXX 09121 33837 32983 03403 11069 21132 30251 40306 51009 555 1/106=
33837,2024,01,09,15,00,AAXX 09151 33837 42984 03202 11081 21133 30257 40313 52006==
33837,2024,01,09,18,00,AAXX 09181 33837 32484 83303 11079 21112 30268 40324 52011 886// 333 11066 88714 555 1/109=
33837,2024,01,09,21,00,AAXX 09211 33837 41484 83502 11060 21083 30260 40315 58008 72072 886// 333 88710==
33837,2024,01,10,00,00,AAXX 10001 33837 /1484 83404 11054 21077 30252 40307 57008 70272 886// 333 88711 555 1/106 69901=
33837,2024,01,10,03,00,AAXX 10031 33837 42484 33202 11060 21089 30233 40288 58019 83600 333 55042==
33837,2024,01,10,06,00,AAXX 10061 33837 12984 03202 11084 21122 30226 40282 56007 69902 333 21085 47006 555 17113=
33837,2024,01,10,09,00,AAXX 10091 33837 42980 23204 11065 21124 30218 40273 57008 80001==
33837,2024,01,10,12,00,AAXX 10121 33837 32978 23203 11037 21097 30206 40261 57012 80001 555 1/102=
33837,2024,01,10,15,00,AAXX 10151 33837 42982 03302 11050 21094 30217 40272 53011==
33837,2024,01,10,18,00,AAXX 10181 33837 32464 63302 11055 21084 30217 40272 54000 86600 333 11033 86711 555 1/108=
33837,2024,01,10,21,00,AAXX 10211 33837 42461 83001 11052 21075 30213 40268 58004 886// 333 88711==
33837,2024,01,11,00,00,AAXX 11001 33837 32466 22801 11071 21100 30194 40249 58019 82600 555 1/111=
33837,2024,01,11,03,00,AAXX 11031 33837 42970 03001 11076 21108 30173 40228 57021 333 55037==
33837,2024,01,11,06,00,AAXX 11061 33837 32971 22902 11064 21104 30155 40210 57018 82030 333 21077 47005 555 17109=
33837,2024,01,11,09,00,AAXX 11091 33837 42978 02803 11017 21095 30130 40184 58025==
33837,2024,01,11,12,00,AAXX 11121 33837 32582 62805 10017 21118 30094 40147 58036 82551 555 1/101=
33837,2024,01,11,15,00,AAXX 11151 33837 42584 82702 10010 21077 30071 40124 58023 82551==
33837,2024,01,11,18,00,AAXX 11181 33837 32683 83003 10013 21067 30061 40114 56010 8555/ 333 10024 85637 555 1/102=
33837,2024,01,11,21,00,AAXX 11211 33837 41458 83005 11006 21040 30061 40114 54000 78582 8635/==
33837,2024,01,12,00,00,AAXX 12001 33837 /1432 83102 11015 21029 30060 40113 58001 78582 883// 555 1/102 69931=
33837,2024,01,12,03,00,AAXX 12031 33837 41562 83002 11011 21041 30058 40111 57002 70282 8655/ 333 55032 86625==
33837,2024,01,12,06,00,AAXX 12061 33837 11584 83406 11032 21110 30092 40146 53034 69962 70282 86551 333 21034 47006 86628 555 17106=
33837,2024,01,12,09,00,AAXX 12091 33837 42583 33406 11063 21130 30124 40179 52032 82501==
33837,2024,01,12,12,00,AAXX 12121 33837 32583 53405 11058 21123 30136 40191 51012 82501 555 1/104=
33837,2024,01,12,15,00,AAXX 12151 33837 42584 33102 11075 21131 30157 40212 53021 82501==
33837,2024,01,12,18,00,AAXX 12181 33837 32983 33102 11082 21132 30161 40216 51004 80001 333 11032 555 1/114=
33837,2024,01,12,21,00,AAXX 12211 33837 42981 63101 11091 21136 30162 40217 52001 80001==
33837,2024,01,13,00,00,AAXX 13001 33837 32980 22801 11111 21145 30158 40214 58004 80001 555 1/115=
33837,2024,01,13,03,00,AAXX 13031 33837 42983 02701 11109 21140 30137 40193 58021 333 55038==
33837,2024,01,13,06,00,AAXX 13061 33837 32584 52603 11084 21134 30123 40178 56014 82501 333 21114 47006 555 17112=
33837,2024,01,13,09,00,AAXX 13091 33837 42580 82604 11048 21112 30108 40162 57015 83574==
33837,2024,01,13,12,00,AAXX 13121 33837 /1431 82603 11041 21074 30089 40143 57019 78582 883// 555 1/103 69921=
33837,2024,01,13,15,00,AAXX 13151 33837 41464 82804 11034 21049 30086 40140 56003 78588 883//==
33837,2024,01,13,18,00,AAXX 13181 33837 11562 82803 11026 21043 30088 40142 53002 69962 70282 8255/ 333 11025 555 1/105=
33837,2024,01,13,21,00,AAXX 13211 33837 42666 82802 11019 21044 30090 40144 52002 8655/ 333 86638==
33837,2024,01,14,00,00,AAXX 14001 33837 /1470 82801 11016 21044 30083 40136 58007 72622 8635/ 555 1/104 69901=
33837,2024,01,14,03,00,AAXX 14031 33837 42/71 82601 11012 21058 30070 40123 58013 8805/ 333 55002==
33837,2024,01,14,06,00,AAXX 14061 33837 12573 62502 11019 21068 30057 40110 57013 69902 82551 333 21026 47007 555 17109=
33837,2024,01,14,09,00,AAXX 14091 33837 42/77 62502 10009 21056 30044 40097 57013 83051==
33837,2024,01,14,12,00,AAXX 14121 33837 32568 62403 11003 21051 30017 40070 58027 82574 555 1/101=
33837,2024,01,14,15,00,AAXX 14151 33837 42465 62602 11019 21051 30016 40069 56001 82574==
33837,2024,01,14,18,00,AAXX 14181 33837 32561 62802 11029 21055 30018 40071 53002 82574 333 10031 555 1/105=
33837,2024,01,14,21,00,AAXX 14211 33837 42961 52703 11035 21066 30023 40077 52005 80001==
33837,2024,01,15,00,00,AAXX 15001 33837 32965 52802 11026 21069 30023 40076 54000 80001 555 1/108=
33837,2024,01,15,03,00,AAXX 15031 33837 42961 32702 11035 21069 30022 40075 58001 80001 333 55031==
33837,2024,01,15,06,00,AAXX 15061 33837 32969 52702 11021 21066 30020 40073 57002 82031 333 21040 47005 555 17108=
33837,2024,01,15,09,00,AAXX 15091 33837 42/77 72502 10017 21066 30017 40069 57003 82034==
33837,2024,01,15,12,00,AAXX 15121 33837 32983 52403 10052 21033 30000 40052 58017 80001 555 1/000=
33837,2024,01,15,15,00,AAXX 15151 33837 42/77 82403 10039 21017 39989 40041 56011 8807/==
33837,2024,01,15,18,00,AAXX 15181 33837 32961 82202 10053 20030 39979 40031 57010 8805/ 333 10055 555 1/100=
33837,2024,01,15,21,00,AAXX 15211 33837 41258 62403 10054 20041 39953 40004 58026 71082 86601 333 86705==
33837,2024,01,16,00,00,AAXX 16001 33837 /1963 82401 10052 20024 39937 49988 56016 70282 8807/ 555 1/000 69901=
33837,2024,01,16,03,00,AAXX 16031 33837 41321 82703 10030 20015 39935 49987 56002 76362 8872/ 333 55022==
33837,2024,01,16,06,00,AAXX 16061 33837 11359 83203 10010 21000 39947 49999 53012 60082 76176 8872/ 333 20008 42001 555 12101=
33837,2024,01,16,09,00,AAXX 16091 33837 41/81 23202 10031 21011 39985 40037 53038 70261 82030==
33837,2024,01,16,12,00,AAXX 16121 33837 /1978 23102 10038 21020 30016 40068 51031 70261 82030 555 1/000 69901=
33837,2024,01,16,15,00,AAXX 16151 33837 42979 02901 10015 21042 30053 40106 53037==
33837,2024,01,16,18,00,AAXX 16181 33837 12967 02502 10016 21023 30079 40132 51026 69902 333 10041 555 1/102=
33837,2024,01,16,21,00,AAXX 16211 33837 42980 02703 10001 21038 30102 40155 52023==
33837,2024,01,17,00,00,AAXX 17001 33837 32984 02802 11011 21055 30113 40166 51011 555 1/104=
33837,2024,01,17,03,00,AAXX 17031 33837 42984 02802 11006 21054 30117 40170 51004 333 55039==
33837,2024,01,17,06,00,AAXX 17061 33837 32982 32601 11004 21060 30131 40184 53014 83030 333 21011 41998 555 14104=
33837,2024,01,17,09,00,AAXX 17091 33837 42983 22601 10032 21060 30137 40190 51006 80001==
33837,2024,01,17,12,00,AAXX 17121 33837 32982 01803 10043 21047 30123 40176 58014 555 1/007=
33837,2024,01,17,15,00,AAXX 17151 33837 42/84 21902 10029 21030 30118 40171 56005 82030==
33837,2024,01,17,18,00,AAXX 17181 33837 32984 01804 10047 21003 30111 40163 57007 333 10053 555 1/100=
33837,2024,01,17,21,00,AAXX 17211 33837 42470 71903 10062 20042 30093 40145 58018 87500 333 87719==
33837,2024,01,18,00,00,AAXX 18001 33837 32464 82103 10065 20048 30063 40115 58030 886// 333 88716 555 1/004=
33837,2024,01,18,03,00,AAXX 18031 33837 42460 82104 10070 20052 30033 40084 57030 886// 333 55043 88711==
33837,2024,01,18,06,00,AAXX 18061 33837 31358 81903 10073 20058 30017 40068 56016 71022 8653/ 333 20045 84707 555 11005=
33837,2024,01,18,09,00,AAXX 18091 33837 41250 82103 10082 20065 30002 40053 57015 71022 885// 333 88704==
33837,2024,01,18,12,00,AAXX 18121 33837 /1132 82206 10075 20064 39972 40023 58030 72052 886// 333 88703 555 1/008 69901=
33837,2024,01,18,15,00,AAXX 18151 33837 41150 82203 10074 20062 39960 40011 56012 71022 885// 333 88703==
33837,2024,01,18,18,00,AAXX 18181 33837 11256 82303 10077 20065 39951 40002 57009 69912 72162 8852/ 333 10083 88704 555 1/006=
33837,2024,01,18,21,00,AAXX 18211 33837 41259 82502 10086 20066 39942 49993 57009 71022 8555/ 333 85706==
33837,2024,01,19,00,00,AAXX 19001 33837 32978 62405 10092 20056 39936 49987 57006 80001 555 1/005=
33837,2024,01,19,03,00,AAXX 19031 33837 42976 52403 10086 20055 39938 49989 53002 80001 333 55000==
33837,2024,01,19,06,00,AAXX 19061 33837 32567 82503 10079 20054 39944 49995 52006 82551 333 20071 555 11004=
33837,2024,01,19,09,00,AAXX 19091 33837 42568 62902 10093 20057 39961 40012 53017 82550==
33837,2024,01,19,12,00,AAXX 19121 33837 32463 83203 10081 20047 39984 40035 53023 8555/ 333 85711 555 1/011=
33837,2024,01,19,15,00,AAXX 19151 33837 41357 83403 10052 20029 30010 40062 52026 71022 885// 333 88708==
33837,2024,01,19,18,00,AAXX 19181 33837 32471 83401 10043 20020 30030 40082 51020 8555/ 333 10105 85711 555 1/005=
33837,2024,01,19,21,00,AAXX 19211 33837 41456 83205 10027 20014 30052 40104 52022 76162 8872/==
33837,2024,01,20,00,00,AAXX 20001 33837 /1482 83303 10004 21021 30080 40133 53028 70262 8555/ 333 85715 555 1/001 60011=
33837,2024,01,20,03,00,AAXX 20031 33837 42584 83404 10004 21026 30103 40156 51023 8355/ 333 55025==
33837,2024,01,20,06,00,AAXX 20061 33837 12483 83303 10004 21032 30137 40190 53034 60012 8257/ 333 20003 555 11000=
33837,2024,01,20,09,00,AAXX 20091 33837 42470 83404 10002 21037 30164 40218 51027 8367/ 333 83716==
33837,2024,01,20,12,00,AAXX 20121 33837 32469 83406 10003 21041 30175 40229 51011 8557/ 333 85717 555 1/002=
33837,2024,01,20,15,00,AAXX 20151 33837 42576 83402 11005 21053 30198 40252 53023 86531 333 86621==
33837,2024,01,20,18,00,AAXX 20181 33837 32570 63302 11015 21063 30211 40265 51013 85531 333 10007 85620 555 1/102=
33837,2024,01,20,21,00,AAXX 20211 33837 42962 32901 11029 21057 30220 40274 52009 80001==
33837,2024,01,21,00,00,AAXX 21001 33837 32963 02701 11039 21065 30223 40278 51003 555 1/104=
33837,2024,01,21,03,00,AAXX 21031 33837 42965 02803 11032 21067 30220 40274 58003 333 55000==
33837,2024,01,21,06,00,AAXX 21061 33837 32980 62902 11028 21068 30241 40296 53021 85031 333 21042 555 14103=
33837,2024,01,21,09,00,AAXX 21091 33837 41572 52903 10008 21046 30245 40299 51004 70282 81530==
33837,2024,01,21,12,00,AAXX 21121 33837 /1578 53105 10030 21036 30248 40301 52003 70282 85500 333 85624 555 1/005 69901=
33837,2024,01,21,15,00,AAXX 21151 33837 42680 73103 10018 21035 30265 40319 53017 87500 333 87642==
33837,2024,01,21,18,00,AAXX 21181 33837 12572 63403 10008 21035 30292 40346 53027 69902 86500 333 10038 86632 555 1/101=
33837,2024,01,21,21,00,AAXX 21211 33837 42564 53103 11001 21033 30300 40354 51008 83530==
33837,2024,01,22,00,00,AAXX 22001 33837 32461 83402 10001 21024 30306 40360 52006 885// 333 88719 555 1/101=
33837,2024,01,22,03,00,AAXX 22031 33837 41459 83402 11007 21029 30311 40365 52005 71022 885// 333 55032 88711==
33837,2024,01,22,06,00,AAXX 22061 33837 31457 80202 11006 21028 30323 40377 53012 71022 885// 333 21012 88710 555 14101=
33837,2024,01,22,09,00,AAXX 22091 33837 41459 80802 10010 21019 30327 40381 51004 78782 883//==
33837,2024,01,22,12,00,AAXX 22121 33837 /1469 81303 10007 21029 30316 40370 58011 70282 8655/ 333 86715 555 1/100 69901=
33837,2024,01,22,15,00,AAXX 22151 33837 42481 71303 10006 21028 30309 40363 57007 85531 333 85717==
33837,2024,01,22,18,00,AAXX 22181 33837 12584 61506 10011 21032 30299 40353 57010 69902 86500 333 10013 86620 555 1/101=
33837,2024,01,22,21,00,AAXX 22211 33837 42582 71605 10016 21043 30288 40342 57011 86501 333 86627==
33837,2024,01,23,00,00,AAXX 23001 33837 32584 61804 10021 21042 30267 40321 58021 85501 333 85628 555 1/101=
33837,2024,01,23,03,00,AAXX 23031 33837 42470 81508 10016 21008 30250 40304 56017 885// 333 55000 88711==
33837,2024,01,23,06,00,AAXX 23061 33837 32473 81509 10019 21008 30239 40293 58011 85531 333 20009 85712 555 14100=
33837,2024,01,23,09,00,AAXX 23091 33837 41468 81607 10031 20011 30235 40288 58004 72582 8635/ 333 86912==
33837,2024,01,23,12,00,AAXX 23121 33837 /1558 81505 10037 20017 30219 40272 58016 78082 8635/ 555 1/004 69901=
33837,2024,01,23,15,00,AAXX 23151 33837 41584 82002 10043 21001 30217 40270 56002 70282 8655/ 333 86625==
33837,2024,01,23,18,00,AAXX 23181 33837 11478 82301 10035 20006 30228 40281 53011 69952 78082 8637/ 333 10048 555 1/001=
33837,2024,01,23,21,00,AAXX 23211 33837 41570 82801 10028 20009 30232 40285 51004 78082 8635/==
33837,2024,01,24,00,00,AAXX 24001 33837 /1482 81604 10037 20014 30228 40281 58004 70282 885// 333 88712 555 1/002 69961=
33837,2024,01,24,03,00,AAXX 24031 33837 41482 81603 10036 20015 30223 40276 57005 70282 885// 333 55002 88711==
33837,2024,01,24,06,00,AAXX 24061 33837 11481 61702 10038 20017 30223 40276 54000 69962 70282 85550 333 20025 85711 555 11003=
33837,2024,01,24,09,00,AAXX 24091 33837 42584 82501 10045 20012 30219 40272 58004 8557/==
33837,2024,01,24,12,00,AAXX 24121 33837 32574 62002 10055 20003 30188 40241 58031 82551 555 1/010=
33837,2024,01,24,15,00,AAXX 24151 33837 41156 82001 10012 21001 30167 40220 56021 71022 85551 333 85703==
33837,2024,01,24,18,00,AAXX 24181 33837 31237 82503 11005 21024 30148 40202 57019 71011 886// 333 10066 88704 555 1/000=
33837,2024,01,24,21,00,AAXX 24211 33837 41256 82402 10010 21008 30115 40168 58033 71022 886// 333 88705==
33837,2024,01,25,00,00,AAXX 25001 33837 32562 82603 10012 21029 30083 40136 57032 83551 555 1/000=
33837,2024,01,25,03,00,AAXX 25031 33837 41450 82703 10008 21008 30062 40115 56021 76162 8872/ 333 55021==
33837,2024,01,25,06,00,AAXX 25061 33837 11460 82702 10011 21007 30052 40105 56010 69992 72162 8355/ 333 21007 555 11000=
33837,2024,01,25,09,00,AAXX 25091 33837 41467 82902 10054 20022 30050 40102 56002 78082 883//==
33837,2024,01,25,12,00,AAXX 25121 33837 /1482 63005 10075 20028 30037 40088 58013 72582 85350 555 1/010 69941=
33837,2024,01,25,15,00,AAXX 25151 33837 42584 62901 10056 20019 30042 40094 53005 82452==
33837,2024,01,25,18,00,AAXX 25181 33837 11583 82903 10057 20016 30049 40101 52007 69942 72580 883// 333 10081 88928 555 1/004=
33837,2024,01,25,21,00,AAXX 25211 33837 41480 82802 10046 20021 30048 40100 58001 78082 86354==
33837,2024,01,26,00,00,AAXX 26001 33837 /1463 82901 10041 20026 30048 40100 54000 78082 883// 555 1/003 69961=
33837,2024,01,26,03,00,AAXX 26031 33837 41581 82902 10029 20013 30057 40109 53009 70282 82574 333 55008==
33837,2024,01,26,06,00,AAXX 26061 33837 11584 83006 10021 21010 30071 40124 52014 69992 70282 83554 333 20019 555 11001=
33837,2024,01,26,09,00,AAXX 26091 33837 41484 83104 10032 21004 30080 40132 52009 70282 8655/ 333 86719==
33837,2024,01,26,12,00,AAXX 26121 33837 /1582 83104 10029 20006 30077 40129 58003 78082 8637/ 555 1/006 69941=
33837,2024,01,26,15,00,AAXX 26151 33837 41459 83103 10021 20006 30090 40143 53013 78088 883//==
33837,2024,01,26,18,00,AAXX 26181 33837 11483 83204 10021 20002 30105 40158 52015 60022 72582 883// 333 10039 88910 555 1/002=
33837,2024,01,26,21,00,AAXX 26211 33837 41481 83203 10018 21003 30108 40161 51003 72582 883// 333 88911==
33837,2024,01,27,00,00,AAXX 27001 33837 /1459 83103 10016 21005 30113 40166 52005 78082 883// 555 1/001 69901=
33837,2024,01,27,03,00,AAXX 27031 33837 41484 83002 10017 21009 30111 40164 58002 70282 885// 333 55000 88717==
33837,2024,01,27,06,00,AAXX 27061 33837 11582 73102 10014 21013 30116 40169 53005 69902 70282 83550 333 20014 555 11001=
33837,2024,01,27,09,00,AAXX 27091 33837 42480 73301 10029 21007 30122 40175 52006 86550 333 86714==
33837,2024,01,27,12,00,AAXX 27121 33837 32482 83201 10034 21006 30123 40176 51001 86551 333 86717 555 1/005=
33837,2024,01,27,15,00,AAXX 27151 33837 42580 83101 10028 21012 30136 40189 53013 8555/==
33837,2024,01,27,18,00,AAXX 27181 33837 32582 83401 10023 21011 30156 40209 53020 8655/ 333 10037 86720 555 1/001=
33837,2024,01,27,21,00,AAXX 27211 33837 41467 83302 10017 21007 30170 40223 51014 78082 883//==
33837,2024,01,28,00,00,AAXX 28001 33837 /1461 83103 10012 21007 30181 40234 52011 78082 883// 555 1/001 69901=
33837,2024,01,28,03,00,AAXX 28031 33837 41565 83202 10013 21008 30191 40244 52010 70282 885// 333 55000 88721==
33837,2024,01,28,06,00,AAXX 28061 33837 11460 83201 10014 21007 30210 40263 53019 69902 70282 8555/ 333 20012 85714 555 11001=
33837,2024,01,28,09,00,AAXX 28091 33837 41464 83403 10020 21007 30224 40277 51014 72582 8535/ 333 85713==
33837,2024,01,28,12,00,AAXX 28121 33837 /1478 70203 10028 20002 30233 40286 51009 72582 85550 333 85714 555 1/003 69901=
33837,2024,01,28,15,00,AAXX 28151 33837 42462 83603 10030 20006 30262 40315 53029 8555/ 333 85715==
33837,2024,01,28,18,00,AAXX 28181 33837 12564 83502 10027 21007 30277 40331 51015 69902 8555/ 333 10032 85628 555 1/002=
33837,2024,01,28,21,00,AAXX 28211 33837 42464 83503 10022 21007 30284 40338 51007 885// 333 88716==
33837,2024,01,29,00,00,AAXX 29001 33837 31457 83502 10017 21005 30289 40343 52005 71022 885// 333 88713 555 1/001=
33837,2024,01,29,03,00,AAXX 29031 33837 41456 80105 10017 21005 30294 40348 52005 71022 885// 333 55000 88711==
33837,2024,01,29,06,00,AAXX 29061 33837 11458 80204 10016 21008 30309 40363 53015 69902 78782 883// 333 20015 555 11001=
33837,2024,01,29,09,00,AAXX 29091 33837 41462 80305 10029 21009 30322 40376 52013 70282 85571 333 85715==
33837,2024,01,29,12,00,AAXX 29121 33837 /1461 80407 10027 21004 30322 40376 54000 70282 8655/ 333 86713 555 1/003 69901=
33837,2024,01,29,15,00,AAXX 29151 33837 42664 70104 10026 21012 30331 40385 53009 85531 333 85638==
33837,2024,01,29,18,00,AAXX 29181 33837 12561 80204 10016 21011 30350 40404 53019 69902 8655/ 333 10046 86622 555 1/001=
33837,2024,01,29,21,00,AAXX 29211 33837 42461 60207 10010 21014 30359 40413 51009 85501 333 85711==
33837,2024,01,30,00,00,AAXX 30001 33837 31457 60203 11005 21022 30360 40415 51001 71022 85601 333 85710 555 1/101=
33837,2024,01,30,03,00,AAXX 30031 33837 41257 80303 11006 21022 30359 40414 58001 71022 886// 333 55017 88706==
33837,2024,01,30,06,00,AAXX 30061 33837 31130 80503 11014 21027 30361 40416 53002 71022 886// 333 21015 88703 555 14101=
33837,2024,01,30,09,00,AAXX 30091 33837 41/04 90201 11023 21023 30361 40416 54000 74542 89///==
33837,2024,01,30,12,00,AAXX 30121 33837 31219 80102 11017 21027 30345 40400 58016 71042 886// 333 88704 555 1/004=
33837,2024,01,30,15,00,AAXX 30151 33837 41128 80000 11019 21030 30341 40396 56004 71022 886// 333 88702==
33837,2024,01,30,18,00,AAXX 30181 33837 31920 52601 11032 21042 30334 40389 57007 71022 85050 333 11014 555 1/102=
33837,2024,01,30,21,00,AAXX 30211 33837 41/17 32701 11040 21050 30326 40381 57008 71011 83030==
33837,2024,01,31,00,00,AAXX 31001 33837 31959 02601 11037 21048 30320 40375 57006 71000 555 1/104=
33837,2024,01,31,03,00,AAXX 31031 33837 41939 02801 11031 21044 30309 40364 57011 71000 333 55000==
33837,2024,01,31,06,00,AAXX 31061 33837 31944 32701 11026 21039 30307 40362 56002 71000 83030 333 21045 555 14104=
33837,2024,01,31,09,00,AAXX 31091 33837 42967 22801 10040 21010 30301 40354 57006 80002==
33837,2024,01,31,12,00,AAXX 31121 33837 32970 22302 10058 21038 30282 40335 58019 80001 555 1/012=
33837,2024,01,31,15,00,AAXX 31151 33837 42/80 22401 10034 21028 30273 40326 56009 82030==
33837,2024,01,31,18,00,AAXX 31181 33837 32977 02701 10013 21023 30268 40322 57005 333 10066 555 1/102=
33837,2024,01,31,21,00,AAXX 31211 33837 42981 02601 10008 21031 30254 40308 58014==
33837,2024,02,01,00,00,AAXX 01001 33837 32979 02802 10000 21037 30237 40291 57017 555 1/103=
33837,2024,02,01,03,00,AAXX 01031 33837 42961 02802 11001 21030 30220 40274 57017 333 55047==
33837,2024,02,01,06,00,AAXX 01061 33837 31957 22602 11013 21030 30210 40264 56010 71000 82030 333 21016 555 14103=
33837,2024,02,01,09,00,AAXX 01091 33837 42965 02702 10044 21016 30195 40248 58015==
33837,2024,02,01,12,00,AAXX 01121 33837 32961 01804 10047 20008 30164 40217 58031 555 1/012=
33837,2024,02,01,15,00,AAXX 01151 33837 42962 22402 10049 21005 30144 40196 58020 80004==
33837,2024,02,01,18,00,AAXX 01181 33837 32960 02702 10028 21021 30141 40194 56003 333 10069 555 1/101=
33837,2024,02,01,21,00,AAXX 01211 33837 42960 02804 10020 21020 30132 40185 58009==
33837,2024,02,02,00,00,AAXX 02001 33837 32960 52802 10016 21027 30129 40182 56003 85050 555 1/101=
33837,2024,02,02,03,00,AAXX 02031 33837 42564 83103 10026 21017 30131 40184 53002 8555/ 333 55051==
33837,2024,02,02,06,00,AAXX 02061 33837 32964 83003 10024 21007 30142 40195 53011 86054 333 20013 555 14101=
33837,2024,02,02,09,00,AAXX 02091 33837 42/66 53104 10054 20000 30150 40202 52008 82031==
33837,2024,02,02,12,00,AAXX 02121 33837 32580 63202 10060 21028 30146 40198 58004 85550 555 1/008=
33837,2024,02,02,15,00,AAXX 02151 33837 42582 63203 10051 21037 30155 40208 53009 82531==
33837,2024,02,02,18,00,AAXX 02181 33837 32980 33103 10032 21040 30169 40222 52014 82031 333 10070 555 1/101=
33837,2024,02,02,21,00,AAXX 02211 33837 42/72 62802 10009 21036 30170 40223 51001 86030==
33837,2024,02,03,00,00,AAXX 03001 33837 32577 72802 10012 21029 30163 40216 58007 82550 555 1/101=
33837,2024,02,03,03,00,AAXX 03031 33837 42576 82702 10000 21035 30150 40203 58013 8255/ 333 55042==
33837,2024,02,03,06,00,AAXX 03061 33837 32983 52501 10008 21037 30135 40188 57015 82031 333 21006 555 14102=
33837,2024,02,03,09,00,AAXX 03091 33837 42576 72404 10057 21029 30111 40163 58024 82531==
33837,2024,02,03,12,00,AAXX 03121 33837 32971 82504 10057 21010 30083 40135 57028 8807/ 555 1/009=
33837,2024,02,03,15,00,AAXX 03151 33837 41568 82502 10052 21002 30073 40125 56010 72582 8535/ 333 85923==
33837,2024,02,03,18,00,AAXX 03181 33837 11569 82604 10060 20008 30073 40125 54000 69902 70282 8655/ 333 10061 86621 555 1/004=
33837,2024,02,03,21,00,AAXX 03211 33837 42681 82604 10064 20017 30065 40117 58008 8655/ 333 86643==
33837,2024,02,04,00,00,AAXX 04001 33837 32984 82702 10064 20015 30061 40113 57004 8807/ 555 1/004=
33837,2024,02,04,03,00,AAXX 04031 33837 42/84 82803 10065 20012 30061 40113 54000 8807/ 333 55018==
33837,2024,02,04,06,00,AAXX 04061 33837 32684 72703 10068 20017 30065 40117 53004 83551 333 20060 555 11004=
33837,2024,02,04,09,00,AAXX 04091 33837 42581 73002 10105 20021 30063 40114 58002 82531==
33837,2024,02,04,12,00,AAXX 04121 33837 32684 82801 10109 20020 30050 40101 58013 8555/ 333 85648 555 1/010=
33837,2024,02,04,15,00,AAXX 04151 33837 42584 73202 10105 20016 30050 40101 54000 83551==
33837,2024,02,04,18,00,AAXX 04181 33837 11584 82806 10080 20018 30057 40108 53007 69912 72522 8535/ 333 10125 555 1/005=
33837,2024,02,04,21,00,AAXX 04211 33837 41/84 52703 10062 20023 30045 40097 58012 70282 82051==
33837,2024,02,05,00,00,AAXX 05001 33837 /1584 82703 10058 20026 30035 40087 57010 78082 8635/ 555 1/004 69911=
33837,2024,02,05,03,00,AAXX 05031 33837 41481 82802 10054 20026 30014 40066 58021 78082 883// 333 55023==
33837,2024,02,05,06,00,AAXX 05061 33837 11583 72702 10052 20032 30006 40058 56008 69952 70282 83350 333 20046 555 11004=
33837,2024,02,05,09,00,AAXX 05091 33837 42/82 62802 10093 20035 39994 40045 57012 86030==
33837,2024,02,05,12,00,AAXX 05121 33837 32684 72804 10112 20040 39976 40026 58018 85504 333 85638 555 1/013=
33837,2024,02,05,15,00,AAXX 05151 33837 41584 83005 10110 20035 39980 40030 53004 72582 8335/==
33837,2024,02,05,18,00,AAXX 05181 33837 11984 83006 10098 20031 39997 40048 53017 69902 70282 8805/ 333 10130 555 1/007=
33837,2024,02,05,21,00,AAXX 05211 33837 41478 82905 10089 20037 30010 40061 52013 78082 8635/==
33837,2024,02,06,00,00,AAXX 06001 33837 /1684 82905 10082 20037 30036 40087 53026 70282 8655/ 333 86643 555 1/006 69911=
33837,2024,02,06,03,00,AAXX 06031 33837 41583 82702 10072 20055 30040 40091 51004 78082 8635/ 333 55031==
33837,2024,02,06,06,00,AAXX 06061 33837 11464 82703 10076 20061 30043 40094 52003 60012 78082 883// 333 20071 555 11006=
33837,2024,02,06,09,00,AAXX 06091 33837 41483 82703 10093 20051 30043 40094 54000 72582 8635/==
33837,2024,02,06,12,00,AAXX 06121 33837 /1980 53006 10151 20033 30032 40082 58011 70282 83051 555 1/014 69931=
33837,2024,02,06,15,00,AAXX 06151 33837 42977 82001 10125 20037 30027 40077 56005 80004==
33837,2024,02,06,18,00,AAXX 06181 33837 12981 62501 10083 20039 30024 40075 57003 69932 80001 333 10154 555 1/004=
33837,2024,02,06,21,00,AAXX 06211 33837 42984 32802 10083 20005 30024 40075 54000 80001==
33837,2024,02,07,00,00,AAXX 07001 33837 32981 23302 10070 20021 30024 40075 54000 80001 555 1/003=
33837,2024,02,07,03,00,AAXX 07031 33837 42983 02201 10075 20018 30015 40066 58009 333 55014==
33837,2024,02,07,06,00,AAXX 07061 33837 32979 32101 10091 20013 30008 40059 57007 80001 333 20055 555 10002=
33837,2024,02,07,09,00,AAXX 07091 33837 42/76 52704 10137 20029 30000 40050 57008 82031==
33837,2024,02,07,12,00,AAXX 07121 33837 32979 62809 10178 20005 39984 40033 58016 82034 555 1/020=
33837,2024,02,07,15,00,AAXX 07151 33837 42/84 72705 10151 20005 39977 40027 56007 83054==
33837,2024,02,07,18,00,AAXX 07181 33837 32982 32503 10108 20013 39986 40037 53009 80001 333 10182 555 1/005=
33837,2024,02,07,21,00,AAXX 07211 33837 42969 02702 10090 20028 39983 40034 58003==
33837,2024,02,08,00,00,AAXX 08001 33837 32974 02701 10084 20022 39983 40034 54000 555 1/004=
33837,2024,02,08,03,00,AAXX 08031 33837 42983 22703 10073 20016 39989 40040 53006 80001 333 55057==
33837,2024,02,08,06,00,AAXX 08061 33837 32981 72802 10082 20016 30000 40051 53011 82054 333 20071 555 10004=
33837,2024,02,08,09,00,AAXX 08091 33837 42/74 61001 10105 20031 30014 40065 52014 84055==
33837,2024,02,08,12,00,AAXX 08121 33837 32978 50401 10101 20034 30009 40060 58005 82051 555 1/026=
33837,2024,02,08,15,00,AAXX 08151 33837 42/84 60302 10071 20035 30021 40072 53012 84052==
33837,2024,02,08,18,00,AAXX 08181 33837 32984 50704 10049 20019 30027 40079 51006 85050 333 10142 555 1/004=
33837,2024,02,08,21,00,AAXX 08211 33837 42383 30904 10041 20018 30028 40080 51001 82650 333 82709==
33837,2024,02,09,00,00,AAXX 09001 33837 32381 50905 10041 20023 30019 40071 58009 85600 333 85707 555 1/003=
33837,2024,02,09,03,00,AAXX 09031 33837 41256 81402 10039 20027 30002 40054 58017 71022 886// 333 55041 88706==
33837,2024,02,09,06,00,AAXX 09061 33837 31967 62404 10062 20045 39996 40047 56006 72842 82052 333 20038 555 10005=
33837,2024,02,09,09,00,AAXX 09091 33837 42/72 82502 10108 20034 39991 40042 57005 82035==
33837,2024,02,09,12,00,AAXX 09121 33837 32980 82603 10166 20040 39988 40038 57003 83034 555 1/025=
33837,2024,02,09,15,00,AAXX 09151 33837 42/70 62101 10098 20046 39988 40039 54000 82034==
33837,2024,02,09,18,00,AAXX 09181 33837 32973 82403 10121 20043 39990 40040 53002 85034 333 10173 555 1/008=
33837,2024,02,09,21,00,AAXX 09211 33837 42/73 82602 10112 20037 39995 40046 52005 86034==
33837,2024,02,10,00,00,AAXX 10001 33837 32980 82704 10105 20035 39995 40046 54000 8805/ 555 1/007=
33837,2024,02,10,03,00,AAXX 10031 33837 42980 32703 10090 20034 39991 40042 58004 80001 333 55055==
33837,2024,02,10,06,00,AAXX 10061 33837 32976 62301 10084 20035 30003 40054 53012 86030 333 20073 555 10006=
33837,2024,02,10,09,00,AAXX 10091 33837 42/62 82401 10089 20047 30011 40062 52008 83055==
33837,2024,02,10,12,00,AAXX 10121 33837 32567 81902 10112 20053 30004 40055 58007 8255/ 555 1/014=
33837,2024,02,10,15,00,AAXX 10151 33837 42/61 82002 10070 20052 30009 40060 53005 86051==
33837,2024,02,10,18,00,AAXX 10181 33837 32972 62402 10088 20054 30014 40065 52005 85051 333 10123 555 1/005=
33837,2024,02,10,21,00,AAXX 10211 33837 42/78 82602 10105 20044 30018 40069 52004 83051==
33837,2024,02,11,00,00,AAXX 11001 33837 32978 82402 10117 20040 30019 40070 51001 80004 555 1/004=
33837,2024,02,11,03,00,AAXX 11031 33837 42/65 62401 10087 20056 30012 40063 58007 82054 333 55004==
33837,2024,02,11,06,00,AAXX 11061 33837 32967 82603 10084 20060 30016 40067 53004 8007/ 333 20066 555 10006=
33837,2024,02,11,09,00,AAXX 11091 33837 42470 82303 10104 20067 30017 40068 52001 82671==
33837,2024,02,11,12,00,AAXX 11121 33837 32964 82102 10111 20068 30010 40061 58007 83054 555 1/017=
33837,2024,02,11,15,00,AAXX 11151 33837 42/62 82203 10097 20066 30008 40059 56002 85054==
33837,2024,02,11,18,00,AAXX 11181 33837 32964 82203 10093 20064 30014 40065 53006 85054 333 10147 555 1/008=
33837,2024,02,11,21,00,AAXX 11211 33837 42962 32202 10085 20060 30018 40069 52004 80001==
33837,2024,02,12,00,00,AAXX 12001 33837 32964 22304 10099 20066 30016 40067 58002 80001 555 1/007=
33837,2024,02,12,03,00,AAXX 12031 33837 42963 82202 10091 20062 30016 40067 54000 80004 333 55014==
33837,2024,02,12,06,00,AAXX 12061 33837 32965 82204 10091 20058 30019 40070 53003 85074 333 20080 555 10007=
33837,2024,02,12,09,00,AAXX 12091 33837 42572 82307 10124 20067 30026 40076 52007 8355/==
33837,2024,02,12,12,00,AAXX 12121 33837 NIL=
33837,2024,02,12,15,00,AAXX 12151 33837 42974 72003 10094 20054 30013 40064 53002 80004==
33837,2024,02,12,18,00,AAXX 12181 33837 32965 52007 10084 20055 30015 40066 52002 80001 333 10130 555 1/006=
33837,2024,02,12,21,00,AAXX 12211 33837 42/65 82103 10084 20053 30022 40073 53007 8805/==
33837,2024,02,13,00,00,AAXX 13001 33837 32981 62203 10100 20056 30015 40066 58007 86030 555 1/007=
33837,2024,02,13,03,00,AAXX 13031 33837 42/82 82202 10087 20056 30014 40065 56001 8805/ 333 55005==
33837,2024,02,13,06,00,AAXX 13061 33837 11463 82003 10077 20058 30023 40074 53009 69902 78082 8535/ 333 20070 555 11007=
33837,2024,02,13,09,00,AAXX 13091 33837 41460 82002 10074 20060 30027 40078 51004 78082 8635/==
33837,2024,02,13,12,00,AAXX 13121 33837 /1156 81601 10072 20060 30020 40071 58007 72582 8635/ 333 86303 555 1/011 69951=
33837,2024,02,13,15,00,AAXX 13151 33837 41259 82101 10070 20059 30029 40080 53009 71022 8655/ 333 86305==
33837,2024,02,13,18,00,AAXX 13181 33837 11527 81501 10081 20069 30038 40089 52009 69952 71082 8535/ 333 10089 85929 555 1/007=
33837,2024,02,13,21,00,AAXX 13211 33837 41614 82701 10073 20064 30043 40094 52005 72582 8635/ 333 86943==
33837,2024,02,14,00,00,AAXX 14001 33837 /1414 82901 10068 20061 30049 40101 52006 72582 8635/ 333 86910 555 1/006 60011=
33837,2024,02,14,03,00,AAXX 14031 33837 41216 83601 10071 20064 30055 40107 52006 72842 8665/ 333 55000 86704==
33837,2024,02,14,06,00,AAXX 14061 33837 11214 80000 10075 20068 30073 40125 53018 60012 71042 8665/ 333 20058 86703 555 11007=
33837,2024,02,14,09,00,AAXX 14091 33837 42262 83102 10095 20087 30086 40137 52013 885// 333 88706==
33837,2024,02,14,12,00,AAXX 14121 33837 32483 83101 10102 20071 30086 40137 54000 8655/ 333 86714 555 1/012=
33837,2024,02,14,15,00,AAXX 14151 33837 42466 83203 10086 20064 30101 40152 53015 885// 333 88710==
33837,2024,02,14,18,00,AAXX 14181 33837 32470 83203 10069 20047 30115 40167 52014 885// 333 10107 88711 555 1/007=
33837,2024,02,14,21,00,AAXX 14211 33837 42366 83303 10060 20040 30124 40176 52009 886// 333 88708==
33837,2024,02,15,00,00,AAXX 15001 33837 31258 83302 10049 20037 30128 40180 52004 71022 886// 333 88706 555 1/005=
33837,2024,02,15,03,00,AAXX 15031 33837 41459 83203 10047 20032 30127 40179 58001 78082 883// 333 55001==
33837,2024,02,15,06,00,AAXX 15061 33837 11358 83405 10048 20033 30137 40189 53010 69912 76186 8872/ 333 20046 555 11005=
33837,2024,02,15,09,00,AAXX 15091 33837 41357 83404 10053 20040 30143 40195 52006 76162 8872/==
33837,2024,02,15,12,00,AAXX 15121 33837 /1380 83502 10067 20049 30140 40192 58003 70262 885// 333 88708 555 1/008 69911=
33837,2024,02,15,15,00,AAXX 15151 33837 41356 80204 10065 20050 30150 40202 53010 71022 885// 333 88707==
33837,2024,02,15,18,00,AAXX 15181 33837 11456 80305 10061 20039 30168 40220 53018 69912 71022 885// 333 10069 88712 555 1/006=
33837,2024,02,15,21,00,AAXX 15211 33837 41450 80406 10055 20035 30172 40224 51004 71022 886// 333 88711==
33837,2024,02,16,00,00,AAXX 16001 33837 32460 80706 10046 20020 30178 40231 52006 886// 333 88710 555 1/004=
33837,2024,02,16,03,00,AAXX 16031 33837 42460 80507 10039 20013 30185 40238 52007 886// 333 55000 88711==
33837,2024,02,16,06,00,AAXX 16061 33837 32461 80706 10023 20002 30200 40253 53015 885// 333 20022 88710 555 11003=
33837,2024,02,16,09,00,AAXX 16091 33837 42464 80608 10016 21008 30211 40264 52011 886// 333 88712==
33837,2024,02,16,12,00,AAXX 16121 33837 32461 80607 10013 21011 30208 40261 58003 886// 333 88711 555 1/002=
33837,2024,02,16,15,00,AAXX 16151 33837 42460 80607 10010 21011 30214 40268 53006 886// 333 88710==
33837,2024,02,16,18,00,AAXX 16181 33837 32361 80505 10002 21017 30227 40281 53013 886// 333 10024 88709 555 1/001=
33837,2024,02,16,21,00,AAXX 16211 33837 41358 80505 10007 21015 30227 40281 54000 71022 886// 333 88709==
33837,2024,02,17,00,00,AAXX 17001 33837 31256 80505 11003 21017 30230 40284 53003 71022 886// 333 88705 555 1/001=
33837,2024,02,17,03,00,AAXX 17031 33837 41256 80203 11007 21023 30233 40287 52003 71022 886// 333 55000 88706==
33837,2024,02,17,06,00,AAXX 17061 33837 31359 80302 11003 21022 30235 40289 52002 71022 886// 333 21008 88709 555 11001=
33837,2024,02,17,09,00,AAXX 17091 33837 42362 80502 10002 21023 30241 40295 52006 886// 333 88709==
33837,2024,02,17,12,00,AAXX 17121 33837 32361 80502 10009 21018 30235 40289 58006 886// 333 88709 555 1/006=
33837,2024,02,17,15,00,AAXX 17151 33837 42462 80701 10010 21019 30232 40286 57003 886// 333 88711==
33837,2024,02,17,18,00,AAXX 17181 33837 32461 80000 10005 21019 30235 40289 53003 8567/ 333 10014 85711 555 1/001=
33837,2024,02,17,21,00,AAXX 17211 33837 41350 82701 10007 21015 30235 40289 54000 71022 886// 333 88709==
33837,2024,02,18,00,00,AAXX 18001 33837 31125 80000 11001 21015 30230 40284 58005 71022 886// 333 88703 555 1/001=
33837,2024,02,18,03,00,AAXX 18031 33837 41112 82901 11001 21011 30221 40275 57009 71022 886// 333 55000 88703==
33837,2024,02,18,06,00,AAXX 18061 33837 31236 80000 10010 20001 30223 40277 53002 71022 886// 333 21003 88703 555 11002=
33837,2024,02,18,09,00,AAXX 18091 33837 41357 80000 10034 20019 30223 40276 54000 71022 886// 333 88708==
33837,2024,02,18,12,00,AAXX 18121 33837 /1357 83001 10046 20025 30216 40269 58007 72582 8635/ 333 86907 555 1/007 69901=
33837,2024,02,18,15,00,AAXX 18151 33837 41458 80000 10057 20040 30221 40274 53005 71022 885// 333 88714==
33837,2024,02,18,18,00,AAXX 18181 33837 11459 83602 10054 20034 30228 40281 52007 69902 78082 8635/ 333 10064 555 1/004=
33837,2024,02,18,21,00,AAXX 18211 33837 41484 83403 10042 20014 30233 40286 52005 70282 885// 333 88713==
33837,2024,02,19,00,00,AAXX 19001 33837 /1584 80204 10028 21016 30236 40289 52003 70282 8655/ 333 86628 555 1/002 69901=
33837,2024,02,19,03,00,AAXX 19031 33837 42684 80203 10017 21026 30237 40291 52001 8655/ 333 55000 86634==
33837,2024,02,19,06,00,AAXX 19061 33837 12684 80204 10012 21037 30239 40293 52002 69902 8655/ 333 20011 86642 555 11001=
33837,2024,02,19,09,00,AAXX 19091 33837 42584 80202 10018 21054 30241 40295 52002 8657/ 333 86629==
33837,2024,02,19,12,00,AAXX 19121 33837 32684 80503 10020 21061 30229 40283 58012 8557/ 333 85635 555 1/006=
33837,2024,02,19,15,00,AAXX 19151 33837 42684 80404 10014 21062 30225 40279 56004 8555/ 333 85634==
33837,2024,02,19,18,00,AAXX 19181 33837 32584 80803 10010 21061 30230 40284 53005 8553/ 333 10025 85633 555 1/001=
33837,2024,02,19,21,00,AAXX 19211 33837 42684 80901 10010 21073 30226 40280 58004 8553/ 333 85636==
33837,2024,02,20,00,00,AAXX 20001 33837 32684 80101 10009 21056 30218 40272 57008 8653/ 333 86637 555 1/100=
33837,2024,02,20,03,00,AAXX 20031 33837 42484 80000 10008 21040 30209 40263 57009 8653/ 333 55000 86717==
33837,2024,02,20,06,00,AAXX 20061 33837 32680 80000 10009 21032 30213 40267 53004 86531 333 20006 86635 555 11001=
33837,2024,02,20,09,00,AAXX 20091 33837 42581 80701 10024 21029 30215 40268 52002 8655/ 333 86333==
33837,2024,02,20,12,00,AAXX 20121 33837 32669 50903 10038 21035 30203 40256 58012 83651 333 83737 555 1/017=
33837,2024,02,20,15,00,AAXX 20151 33837 42684 61503 10025 21034 30204 40257 53001 83551 333 83637==
33837,2024,02,20,18,00,AAXX 20181 33837 32984 51703 10026 21031 30208 40261 52004 83051 333 10042 555 1/002=
33837,2024,02,20,21,00,AAXX 20211 33837 42/84 51702 10028 21023 30205 40258 58003 83051==
33837,2024,02,21,00,00,AAXX 21001 33837 32584 52001 10029 21016 30200 40253 57005 83550 555 1/000=
33837,2024,02,21,03,00,AAXX 21031 33837 42584 62101 10031 21009 30194 40247 57006 85550 333 55036 85629==
33837,2024,02,21,06,00,AAXX 21061 33837 32984 81802 10038 21002 30199 40252 53005 8805/ 333 20021 555 10003=
33837,2024,02,21,09,00,AAXX 21091 33837 42/83 81704 10051 20005 30202 40255 52003 82034==
33837,2024,02,21,12,00,AAXX 21121 33837 32983 61804 10056 20006 30187 40240 58015 82034 555 1/018=
33837,2024,02,21,15,00,AAXX 21151 33837 42/80 81902 10047 20014 30183 40236 56004 83054==
33837,2024,02,21,18,00,AAXX 21181 33837 32979 82001 10042 20012 30185 40238 53002 86054 333 10060 555 1/002=
33837,2024,02,21,21,00,AAXX 21211 33837 42/73 80000 10039 20009 30176 40229 58009 8805/==
33837,2024,02,22,00,00,AAXX 22001 33837 32972 82301 10039 20016 30171 40224 57005 8805/ 555 1/001=
33837,2024,02,22,03,00,AAXX 22031 33837 41/50 80000 10033 20020 30167 40220 57004 71022 8805/ 333 55051==
33837,2024,02,22,06,00,AAXX 22061 33837 31158 52501 10042 20032 30163 40216 57004 71022 85600 333 20029 85702 555 10003=
33837,2024,02,22,09,00,AAXX 22091 33837 41212 51701 10037 20022 30166 40219 53003 72842 85600 333 85704==
33837,2024,02,22,12,00,AAXX 22121 33837 31467 51804 10056 20039 30150 40202 58016 70242 85600 333 85710 555 1/020=
33837,2024,02,22,15,00,AAXX 22151 33837 42162 51803 10057 20045 30142 40194 56008 85600 333 85703==
33837,2024,02,22,18,00,AAXX 22181 33837 32270 81805 10054 20045 30138 40190 57004 84605 333 10069 84703 555 1/004=
33837,2024,02,22,21,00,AAXX 22211 33837 42469 81803 10054 20042 30128 40180 58010 82607==
33837,2024,02,23,00,00,AAXX 23001 33837 32974 81903 10054 20042 30119 40171 57009 80007 555 1/003=
33837,2024,02,23,03,00,AAXX 23031 33837 42360 81805 10058 20046 30113 40165 57006 886// 333 55069 88707==
33837,2024,02,23,06,00,AAXX 23061 33837 31250 71803 10064 20054 30116 40168 53003 71022 86630 333 20053 86703 555 10006=
33837,2024,02,23,09,00,AAXX 23091 33837 41357 81805 10073 20054 30117 40169 52001 71022 86630 333 86707==
33837,2024,02,23,12,00,AAXX 23121 33837 31258 71806 10077 20057 30116 40168 58001 71022 85630 333 85704 555 1/015=
33837,2024,02,23,15,00,AAXX 23151 33837 41357 51804 10070 20053 30115 40167 57001 71022 82631==
33837,2024,02,23,18,00,AAXX 23181 33837 31559 71706 10073 20054 30123 40175 53008 71022 85530 333 10078 85629 555 1/007=
33837,2024,02,23,21,00,AAXX 23211 33837 41559 81804 10072 20052 30129 40181 52006 71022 885// 333 88632==
33837,2024,02,24,00,00,AAXX 24001 33837 31559 81903 10073 20053 30128 40180 58001 71022 8357/ 555 1/005=
33837,2024,02,24,03,00,AAXX 24031 33837 41/58 51803 10070 20052 30126 40178 57002 71022 82031 333 55017==
33837,2024,02,24,06,00,AAXX 24061 33837 31959 71805 10078 20056 30139 40191 53013 71022 82031 333 20070 555 10007=
33837,2024,02,24,09,00,AAXX 24091 33837 42560 61805 10083 20058 30145 40197 51006 83551 333 83620==
33837,2024,02,24,12,00,AAXX 24121 33837 32560 81805 10080 20060 30147 40199 52002 8655/ 333 86623 555 1/013=
33837,2024,02,24,15,00,AAXX 24151 33837 41557 81803 10074 20057 30150 40202 52003 71022 84554 333 84624==
33837,2024,02,24,18,00,AAXX 24181 33837 31357 81706 10071 20057 30159 40211 53009 71022 85554 333 10087 82708 555 1/006=
33837,2024,02,24,21,00,AAXX 24211 33837 41256 81603 10068 20057 30163 40215 51004 71022 886// 333 88705==
33837,2024,02,25,00,00,AAXX 25001 33837 31359 81604 10070 20055 30163 40215 54000 71022 86504 333 84709 555 1/005=
33837,2024,02,25,03,00,AAXX 25031 33837 41559 81605 10068 20048 30163 40215 54000 71022 8655/ 333 55020==
33837,2024,02,25,06,00,AAXX 25061 33837 32563 81507 10068 20043 30173 40225 53010 82556 333 20066 555 10006=
33837,2024,02,25,09,00,AAXX 25091 33837 42/61 81404 10063 20038 30179 40231 52006 83057==
33837,2024,02,25,12,00,AAXX 25121 33837 32562 81204 10065 20038 30168 40220 58011 82574 555 1/017=
33837,2024,02,25,15,00,AAXX 25151 33837 42563 81403 10061 20034 30161 40213 57007 83554==
33837,2024,02,25,18,00,AAXX 25181 33837 32460 81104 10051 20028 30166 40219 53005 8565/ 333 10069 85712 555 1/005=
33837,2024,02,25,21,00,AAXX 25211 33837 42360 81206 10045 20028 30153 40206 58013 86604 333 86708==
33837,2024,02,26,00,00,AAXX 26001 33837 31257 81204 10041 20025 30148 40201 56005 71022 886// 333 88706 555 1/004=
33837,2024,02,26,03,00,AAXX 26031 33837 41258 81203 10046 20031 30141 40193 57007 71022 886// 333 55010 88705==
33837,2024,02,26,06,00,AAXX 26061 33837 31258 70803 10052 20037 30142 40194 53001 71022 85630 333 20039 85705 555 10008=
33837,2024,02,26,09,00,AAXX 26091 33837 42262 70803 10056 20029 30145 40197 52003 86601 333 86706==
33837,2024,02,26,12,00,AAXX 26121 33837 32974 70702 10055 20030 30137 40189 58008 80008 555 1/019=
33837,2024,02,26,15,00,AAXX 26151 33837 42973 80301 10063 20028 30136 40188 56001 80004==
33837,2024,02,26,18,00,AAXX 26181 33837 32970 80904 10068 20038 30141 40193 53005 80004 333 10072 555 1/005=
33837,2024,02,26,21,00,AAXX 26211 33837 42/74 70906 10045 20003 30152 40205 53011 82031==
33837,2024,02,27,00,00,AAXX 27001 33837 32966 70304 10033 20000 30155 40208 51003 82031 555 1/001=
33837,2024,02,27,03,00,AAXX 27031 33837 42/81 80606 10024 21014 30157 40210 52002 82031 333 55036==
33837,2024,02,27,06,00,AAXX 27061 33837 32967 80706 10019 21008 30166 40219 53009 83034 333 20015 555 10003=
33837,2024,02,27,09,00,AAXX 27091 33837 42463 71004 10041 20008 30175 40228 52009 85650 333 85712==
33837,2024,02,27,12,00,AAXX 27121 33837 32967 50602 10050 20008 30179 40232 51004 82034 555 1/023=
33837,2024,02,27,15,00,AAXX 27151 33837 42977 50701 10061 21008 30180 40232 52001 80001==
33837,2024,02,27,18,00,AAXX 27181 33837 32973 31502 10056 20011 30187 40240 53007 80001 333 10067 555 1/002=
33837,2024,02,27,21,00,AAXX 27211 33837 42979 31206 10043 20008 30195 40248 52008 80001==
33837,2024,02,28,00,00,AAXX 28001 33837 32463 51203 10039 20018 30196 40249 51001 83601 333 83710 555 1/002=
33837,2024,02,28,03,00,AAXX 28031 33837 42364 60903 10037 20017 30198 40251 52002 85650 333 55059 85707==
33837,2024,02,28,06,00,AAXX 28061 33837 32263 61005 10041 20023 30207 40260 53009 86650 333 20033 86706 555 10006=
33837,2024,02,28,09,00,AAXX 28091 33837 42361 81104 10045 20027 30213 40266 52006 886// 333 88707==
33837,2024,02,28,12,00,AAXX 28121 33837 32562 31304 10060 20026 30210 40263 58003 83500 555 1/020=
33837,2024,02,28,15,00,AAXX 28151 33837 42364 61703 10053 20032 30206 40259 57004 86500 333 86707==
33837,2024,02,28,18,00,AAXX 28181 33837 32460 61502 10051 20038 30207 40260 53001 86600 333 10063 86710 555 1/005=
33837,2024,02,28,21,00,AAXX 28211 33837 42467 51403 10049 20026 30207 40260 54000 82601==
33837,2024,02,29,00,00,AAXX 29001 33837 32463 81102 10043 20022 30204 40257 58003 86601 333 86710 555 1/003=
33837,2024,02,29,03,00,AAXX 29031 33837 42361 81002 10036 20018 30202 40255 57002 886// 333 55042 88707==
33837,2024,02,29,06,00,AAXX 29061 33837 31259 80602 10027 20012 30211 40264 53009 71022 886// 333 20026 88706 555 10004=
33837,2024,02,29,09,00,AAXX 29091 33837 41156 80403 10018 20003 30213 40266 51002 71022 885// 333 88702==
33837,2024,02,29,12,00,AAXX 29121 33837 31159 81301 10031 20015 30205 40258 58008 71022 885// 333 88702 555 1/013=
33837,2024,02,29,15,00,AAXX 29151 33837 42463 81902 10043 20023 30200 40253 57005 85651 333 85715==
33837,2024,02,29,18,00,AAXX 29181 33837 31959 82001 10046 20033 30198 40251 57002 71022 83055 333 10047 555 1/003=
33837,2024,02,29,21,00,AAXX 29211 33837 41127 80000 10043 20033 30196 40249 57002 71022 886// 333 88702==
33837,2024,03,01,00,00,AAXX 01001 33837 31450 80601 10051 20042 30187 40240 58009 71022 886// 333 88710 555 1/005=
33837,2024,03,01,03,00,AAXX 01031 33837 42462 81204 10055 20040 30177 40229 57010 886// 333 55000 88710==
33837,2024,03,01,06,00,AAXX 01061 33837 32461 81004 10055 20038 30182 40235 53005 886// 333 20041 88710 555 10006=
33837,2024,03,01,09,00,AAXX 01091 33837 42461 80904 10056 20038 30180 40232 58002 8265/==
33837,2024,03,01,12,00,AAXX 01121 33837 32261 80802 10054 20032 30170 40222 58010 886// 333 88704 555 1/012=
33837,2024,03,01,15,00,AAXX 01151 33837 42/66 71002 10056 20008 30162 40214 57008 82074==
33837,2024,03,01,18,00,AAXX 01181 33837 32964 80503 10054 20026 30156 40208 57006 85074 333 10063 555 1/004=
33837,2024,03,01,21,00,AAXX 01211 33837 42/63 80604 10054 20024 30153 40205 57003 82054==
33837,2024,03,02,00,00,AAXX 02001 33837 32963 80704 10047 20017 30140 40192 58013 85054 555 1/004=
33837,2024,03,02,03,00,AAXX 02031 33837 42/64 80604 10038 20008 30130 40183 57010 85054 333 55009==
33837,2024,03,02,06,00,AAXX 02061 33837 32963 80504 10039 20004 30124 40177 57006 8805/ 333 20036 555 10004=
33837,2024,03,02,09,00,AAXX 02091 33837 42/69 80302 10057 20009 30124 40176 54000 86071==
33837,2024,03,02,12,00,AAXX 02121 33837 32971 80602 10066 20015 30114 40166 58010 8807/ 555 1/012=
33837,2024,03,02,15,00,AAXX 02151 33837 42/65 80505 10061 20016 30108 40160 57006 8807/==
33837,2024,03,02,18,00,AAXX 02181 33837 32965 80605 10058 20015 30110 40162 53002 8807/ 333 10067 555 1/005=
33837,2024,03,02,21,00,AAXX 02211 33837 42/67 80804 10050 20008 30106 40158 58004 8807/==
33837,2024,03,03,00,00,AAXX 03001 33837 32561 80203 10039 20001 30099 40151 57007 8357/ 555 1/003=
33837,2024,03,03,03,00,AAXX 03031 33837 41/57 80203 10014 21008 30099 40152 54000 71022 8807/ 333 55000==
33837,2024,03,03,06,00,AAXX 03061 33837 31558 70103 10004 21018 30103 40156 53004 71022 83551 333 21002 555 10004=
33837,2024,03,03,09,00,AAXX 03091 33837 42963 60302 10052 21006 30108 40160 52005 80004==
33837,2024,03,03,12,00,AAXX 03121 33837 32962 70902 10062 20009 30102 40154 58006 80004 555 1/023=
33837,2024,03,03,15,00,AAXX 03151 33837 42963 71501 10061 21006 30107 40159 53005 80006==
33837,2024,03,03,18,00,AAXX 03181 33837 32962 30201 10041 20001 30113 40165 52006 80005 333 10069 555 1/003=
33837,2024,03,03,21,00,AAXX 03211 33837 42962 00000 10038 20008 30119 40172 52006==
33837,2024,03,04,00,00,AAXX 04001 33837 31958 63401 10019 20004 30118 40171 58001 71011 80001 555 1/000=
33837,2024,03,04,03,00,AAXX 04031 33837 41957 20101 10016 20003 30123 40176 53005 71011 80001 333 55071==
33837,2024,03,04,06,00,AAXX 04061 33837 32967 20302 10023 21008 30128 40181 52005 80001 333 20008 555 10002=
33837,2024,03,04,09,00,AAXX 04091 33837 42261 70603 10041 20010 30133 40186 52005 86601 333 86706==
33837,2024,03,04,12,00,AAXX 04121 33837 31358 81002 10045 20022 30126 40178 58007 71022 86501 333 86709 555 1/012=
33837,2024,03,04,15,00,AAXX 04151 33837 42261 61603 10043 20022 30118 40170 57008 85601 333 85706==
33837,2024,03,04,18,00,AAXX 04181 33837 32461 81203 10044 20019 30117 40169 56001 885// 333 10055 88711 555 1/005=
33837,2024,03,04,21,00,AAXX 04211 33837 41457 81501 10041 20026 30112 40164 57005 71022 885// 333 88712==
33837,2024,03,05,00,00,AAXX 05001 33837 31456 80201 10042 20027 30105 40157 57007 71022 885// 333 88711 555 1/004=
33837,2024,03,05,03,00,AAXX 05031 33837 41232 80503 10028 20018 30104 40157 56001 71022 886// 333 55066 88706==
33837,2024,03,05,06,00,AAXX 05061 33837 31/03 90703 10027 20027 30105 40158 53001 74742 333 20024 555 10004=
33837,2024,03,05,09,00,AAXX 05091 33837 41114 80703 10034 20027 30104 40157 58001 71042 886// 333 88702==
33837,2024,03,05,12,00,AAXX 05121 33837 /1137 80802 10039 20027 30097 40149 58007 71052 886// 333 88702 555 1/007 69901=
33837,2024,03,05,15,00,AAXX 05151 33837 41156 80902 10044 20029 30093 40145 57004 71022 886// 333 88703==
33837,2024,03,05,18,00,AAXX 05181 33837 11556 80000 10036 20024 30096 40148 53003 69902 71022 885// 333 10045 88628 555 1/003=
33837,2024,03,05,21,00,AAXX 05211 33837 41559 83201 10049 20031 30097 40149 52001 71022 885// 333 88629==
33837,2024,03,06,00,00,AAXX 06001 33837 32660 83603 10058 20028 30097 40149 54000 885// 333 88639 555 1/004=
33837,2024,03,06,03,00,AAXX 06031 33837 42662 83401 10055 20012 30101 40153 53004 885// 333 55000 88639==
33837,2024,03,06,06,00,AAXX 06061 33837 32665 83401 10048 21008 30108 40160 52007 8655/ 333 20036 86642 555 10006=
33837,2024,03,06,09,00,AAXX 06091 33837 42660 80203 10057 20003 30116 40168 52008 885// 333 88637==
33837,2024,03,06,12,00,AAXX 06121 33837 32580 70000 10078 21022 30112 40164 58004 82550 555 1/020=
33837,2024,03,06,15,00,AAXX 06151 33837 42/83 60304 10081 21020 30114 40166 53002 85031==
33837,2024,03,06,18,00,AAXX 06181 33837 32980 70304 10063 21031 30128 40180 53014 87050 333 10091 555 1/005=
33837,2024,03,06,21,00,AAXX 06211 33837 42/64 50406 10040 21014 30142 40195 52014 85030==
33837,2024,03,07,00,00,AAXX 07001 33837 32560 60303 10018 21023 30149 40202 51007 82530 555 1/000=
33837,2024,03,07,03,00,AAXX 07031 33837 42460 50203 10010 21029 30151 40204 52002 85500 333 55017 85719==
33837,2024,03,07,06,00,AAXX 07061 33837 32460 60305 10010 21029 30161 40214 53010 85530 333 20008 85716 555 10002=
33837,2024,03,07,09,00,AAXX 07091 33837 42462 70605 10020 21027 30172 40225 52011 86550 333 86717==
33837,2024,03,07,12,00,AAXX 07121 33837 32565 80703 10033 21029 30171 40224 58001 8555/ 555 1/013=
33837,2024,03,07,15,00,AAXX 07151 33837 42/66 80802 10039 21017 30168 40221 57003 86051==
33837,2024,03,07,18,00,AAXX 07181 33837 32968 80605 10045 21019 30174 40227 53006 86051 333 10047 555 1/004=
33837,2024,03,07,21,00,AAXX 07211 33837 42/67 80305 10039 21021 30176 40229 52002 8805/==
33837,2024,03,08,00,00,AAXX 08001 33837 32569 80303 10021 21036 30176 40229 54000 8255/ 555 1/002=
33837,2024,03,08,03,00,AAXX 08031 33837 42668 80202 10006 21044 30174 40227 58002 86551 333 55013 86643==
33837,2024,03,08,06,00,AAXX 08061 33837 32666 80302 10008 21039 30178 40231 53004 85551 333 20002 85644 555 10002=
33837,2024,03,08,09,00,AAXX 08091 33837 42565 80303 10018 21043 30178 40231 54000 8655/==
33837,2024,03,08,12,00,AAXX 08121 33837 32667 60701 10029 21037 30166 40219 58012 84530 333 84636 555 1/015=
33837,2024,03,08,15,00,AAXX 08151 33837 42677 83302 10039 21051 30156 40209 57010 8655/ 333 86638==
33837,2024,03,08,18,00,AAXX 08181 33837 32568 53401 10023 21053 30158 40211 53002 82530 333 10043 555 1/101=
33837,2024,03,08,21,00,AAXX 08211 33837 42/62 53001 11003 21057 30157 40211 58001 82031==
33837,2024,03,09,00,00,AAXX 09001 33837 32962 02901 11014 21063 30151 40205 58006 555 1/104=
33837,2024,03,09,03,00,AAXX 09031 33837 42963 02703 11018 21067 30144 40198 57007 333 55011==
33837,2024,03,09,06,00,AAXX 09061 33837 32963 22802 11001 21061 30147 40200 53003 80001 333 21021 555 10002=
33837,2024,03,09,09,00,AAXX 09091 33837 42966 01002 10046 21029 30151 40204 52004==
33837,2024,03,09,12,00,AAXX 09121 33837 32965 21804 10061 20000 30142 40194 58009 80004 555 1/024=
33837,2024,03,09,15,00,AAXX 09151 33837 42965 02003 10056 20008 30138 40190 56004==
33837,2024,03,09,18,00,AAXX 09181 33837 32969 22602 10051 21042 30142 40194 53004 80001 333 10076 555 1/001=
33837,2024,03,09,21,00,AAXX 09211 33837 42961 02602 10038 21004 30144 40197 52002==
33837,2024,03,10,00,00,AAXX 10001 33837 32960 02802 10025 21011 30142 40195 58002 555 1/101=
33837,2024,03,10,03,00,AAXX 10031 33837 42963 02701 10019 21036 30141 40194 57001 333 55102==
33837,2024,03,10,06,00,AAXX 10061 33837 32960 00000 10058 21011 30147 40199 53006 333 20014 555 10005=
33837,2024,03,10,09,00,AAXX 10091 33837 41438 31904 10052 20029 30149 40201 52002 71000 83600==
33837,2024,03,10,12,00,AAXX 10121 33837 31259 51804 10062 20042 30136 40188 58013 71011 85600 333 85705 555 1/025=
33837,2024,03,10,15,00,AAXX 10151 33837 42971 22202 10083 20034 30136 40188 54000 80001==
33837,2024,03,10,18,00,AAXX 10181 33837 32967 02503 10066 20034 30142 40194 53006 333 10093 555 1/004=
33837,2024,03,10,21,00,AAXX 10211 33837 42960 02502 10060 20038 30153 40205 52011==
33837,2024,03,11,00,00,AAXX 11001 33837 31958 02402 10056 20039 30159 40211 52006 71000 555 1/002=
33837,2024,03,11,03,00,AAXX 11031 33837 41350 70704 10051 20039 30173 40226 53014 71011 87600 333 55103 87709==
33837,2024,03,11,06,00,AAXX 11061 33837 31256 70806 10038 20028 30187 40240 52014 71011 87600 333 20036 87704 555 10006=
33837,2024,03,11,09,00,AAXX 11091 33837 41/02 90906 10038 20038 30201 40254 52014 74742 89///==
33837,2024,03,11,12,00,AAXX 11121 33837 31157 81205 10050 20043 30202 40255 51001 71042 886// 333 88703 555 1/009=
33837,2024,03,11,15,00,AAXX 11151 33837 41257 81204 10053 20040 30193 40246 58009 71022 8367/ 333 83704==
33837,2024,03,11,18,00,AAXX 11181 33837 31559 81301 10056 20042 30197 40250 53004 71022 8337/ 333 10056 555 1/005=
33837,2024,03,11,21,00,AAXX 11211 33837 41565 81308 10057 20023 30184 40236 58013 70282 8255/==
33837,2024,03,12,00,00,AAXX 12001 33837 /1460 81306 10050 20022 30170 40223 57014 78082 8635/ 555 1/004 69901=
33837,2024,03,12,03,00,AAXX 12031 33837 41461 81209 10049 20028 30156 40208 57014 78082 8635/ 333 55000==
33837,2024,03,12,06,00,AAXX 12061 33837 11358 81208 10046 20026 30154 40207 56002 69942 71082 8655/ 333 20045 86707 555 11005=
33837,2024,03,12,09,00,AAXX 12091 33837 41358 81110 10051 20028 30138 40190 58016 71022 8655/ 333 86708==
33837,2024,03,12,12,00,AAXX 12121 33837 /1450 81205 10057 20037 30138 40190 54000 78082 883// 555 1/007 60011=
33837,2024,03,12,15,00,AAXX 12151 33837 41458 80907 10061 20038 30112 40164 58026 76186 8872/==
33837,2024,03,12,18,00,AAXX 12181 33837 11458 81009 10058 20030 30110 40162 56002 60022 76186 8872/ 333 10063 555 1/005=
33837,2024,03,12,21,00,AAXX 12211 33837 41445 81007 10046 20028 30101 40153 58009 76162 8872/==
33837,2024,03,13,00,00,AAXX 13001 33837 /1450 81006 10052 20039 30089 40141 57012 76162 8872/ 555 1/005 60061=
33837,2024,03,13,03,00,AAXX 13031 33837 41450 81008 10048 20035 30076 40128 57013 76162 8872/ 333 55000==
33837,2024,03,13,06,00,AAXX 13061 33837 11448 81010 10044 20032 30074 40126 56002 60222 76362 8872/ 333 20043 555 11004=
33837,2024,03,13,09,00,AAXX 13091 33837 41356 80805 10043 20028 30074 40126 54000 76166 8872/==
33837,2024,03,13,12,00,AAXX 13121 33837 /1356 80904 10046 20031 30070 40122 58004 76166 8872/ 555 1/005 60051=
33837,2024,03,13,15,00,AAXX 13151 33837 41459 80707 10048 20030 30066 40118 57004 76162 8872/==
33837,2024,03,13,18,00,AAXX 13181 33837 11459 80806 10047 20027 30074 40126 53008 60072 76162 8872/ 333 10051 555 1/004=
33837,2024,03,13,21,00,AAXX 13211 33837 41459 80505 10048 20025 30069 40121 58005 76166 8872/==
33837,2024,03,14,00,00,AAXX 14001 33837 /1460 80506 10045 20020 30067 40119 56002 76162 8872/ 555 1/004 69911=
33837,2024,03,14,03,00,AAXX 14031 33837 41447 80303 10030 20018 30068 40120 53001 76166 8872/ 333 55000==
33837,2024,03,14,06,00,AAXX 14061 33837 11457 80303 10027 20014 30080 40133 53012 60052 76166 8872/ 333 20026 555 11003=
33837,2024,03,14,09,00,AAXX 14091 33837 41463 80202 10048 20025 30093 40145 52013 72162 8655/ 333 86710==
33837,2024,03,14,12,00,AAXX 14121 33837 /1460 80103 10060 20038 30098 40150 51005 72162 8655/ 333 86710 555 1/012 69991=
33837,2024,03,14,15,00,AAXX 14151 33837 41256 83502 10048 20031 30102 40154 52004 71022 886// 333 88706==
33837,2024,03,14,18,00,AAXX 14181 33837 11322 83402 10038 20026 30111 40163 53009 60022 76162 8872/ 333 10061 555 1/005=
33837,2024,03,14,21,00,AAXX 14211 33837 41318 83102 10037 20028 30109 40161 58002 76166 8872/==
33837,2024,03,15,00,00,AAXX 15001 33837 /1/08 93001 10042 20035 30105 40157 57004 76164 333 96047 555 1/004 69941=
33837,2024,03,15,03,00,AAXX 15031 33837 41/06 90805 10053 20053 30106 40158 53001 76164 89/// 333 55000==
33837,2024,03,15,06,00,AAXX 15061 33837 11313 80402 10051 20044 30115 40167 53009 60062 76164 8872/ 333 20036 96028 555 11005 31004=
33837,2024,03,15,09,00,AAXX 15091 33837 41/04 90302 10054 20054 30120 40172 52005 76164 89///==
33837,2024,03,15,12,00,AAXX 15121 33837 /1342 80603 10057 20050 30122 40174 52002 75165 886// 555 1/008 60031=
33837,2024,03,15,15,00,AAXX 15151 33837 41/02 90502 10060 20060 30125 40177 52003 76165 89///==
33837,2024,03,15,18,00,AAXX 15181 33837 11/04 90202 10062 20062 30136 40188 53011 60042 75165 333 10062 96045 555 1/006=
33837,2024,03,15,21,00,AAXX 15211 33837 41326 80302 10063 20057 30137 40189 51001 71054 886// 333 88707==
33837,2024,03,16,00,00,AAXX 16001 33837 /1328 80302 10060 20054 30141 40193 52004 71054 886// 333 88706 555 1/006 69901=
33837,2024,03,16,03,00,AAXX 16031 33837 41316 80403 10058 20051 30144 40196 52003 71062 886// 333 55000 88707==
33837,2024,03,16,06,00,AAXX 16061 33837 11/09 90503 10058 20058 30153 40205 53009 69912 74564 333 20057 555 11007=
33837,2024,03,16,09,00,AAXX 16091 33837 41217 80802 10062 20055 30161 40213 52008 71042 886// 333 88706==
33837,2024,03,16,12,00,AAXX 16121 33837 31256 81302 10064 20057 30162 40214 51001 71042 886// 333 88704 555 1/011=
33837,2024,03,16,15,00,AAXX 16151 33837 41659 81902 10064 20049 30161 40213 58001 71022 85531 333 85639==
33837,2024,03,16,18,00,AAXX 16181 33837 32665 72201 10064 20042 30163 40215 53002 82531 333 10067 555 1/006=
33837,2024,03,16,21,00,AAXX 16211 33837 41558 80000 10060 20043 30164 40216 52001 71022 85531 333 85622==
33837,2024,03,17,00,00,AAXX 17001 33837 31624 80000 10053 20043 30160 40212 58004 71022 8553/ 555 1/004=
33837,2024,03,17,03,00,AAXX 17031 33837 41217 80000 10053 20044 30156 40208 57004 71022 886// 333 55000 88705==
33837,2024,03,17,06,00,AAXX 17061 33837 31/03 91901 10055 20055 30157 40209 53001 74742 333 20047 555 11008=
33837,2024,03,17,09,00,AAXX 17091 33837 41156 61803 10070 20056 30157 40209 54000 71042 85654 333 85702==
33837,2024,03,17,12,00,AAXX 17121 33837 31008 51803 10057 20056 30144 40196 58013 74642 85600 333 85701 555 1/015=
33837,2024,03,17,15,00,AAXX 17151 33837 41175 62002 10058 20044 30133 40185 57011 70242 85501 333 85702==
33837,2024,03,17,18,00,AAXX 17181 33837 31156 61901 10060 20050 30130 40182 56003 71042 85501 333 10087 85703 555 1/004=
33837,2024,03,17,21,00,AAXX 17211 33837 41156 82203 10071 20060 30118 40170 58012 71022 885// 333 88703==
33837,2024,03,18,00,00,AAXX 18001 33837 31157 82003 10072 20058 30100 40152 58018 71022 885// 333 88703 555 1/006=
33837,2024,03,18,03,00,AAXX 18031 33837 41247 82201 10073 20059 30081 40133 57019 71022 886// 333 55054 88704==
33837,2024,03,18,06,00,AAXX 18061 33837 11356 83203 10053 20041 30087 40139 53006 60032 76162 8672/ 333 20050 555 11006 31004=
33837,2024,03,18,09,00,AAXX 18091 33837 41484 73101 10065 20033 30089 40141 52002 70262 85531 333 85711==
33837,2024,03,18,12,00,AAXX 18121 33837 /1582 73401 10088 20019 30084 40135 58005 70262 83551 333 83623 555 1/015 60011=
33837,2024,03,18,15,00,AAXX 18151 33837 42681 72102 10093 21006 30077 40128 57007 83531 333 83644==
33837,2024,03,18,18,00,AAXX 18181 33837 12967 52601 10051 20021 30091 40143 53014 60012 82031 333 10102 555 1/004=
33837,2024,03,18,21,00,AAXX 18211 33837 42/80 53401 10051 20025 30095 40147 51004 82031==
33837,2024,03,19,00,00,AAXX 19001 33837 32671 63102 10050 20025 30089 40141 58006 82531 555 1/003=
33837,2024,03,19,03,00,AAXX 19031 33837 42/74 83501 10037 20002 30085 40137 57004 83031 333 55048==
33837,2024,03,19,06,00,AAXX 19061 33837 11460 83001 10041 20013 30095 40147 53010 69902 78082 8635/ 333 20030 555 11005=
33837,2024,03,19,09,00,AAXX 19091 33837 41456 83201 10030 20015 30105 40158 54000 78082 883//==
33837,2024,03,19,12,00,AAXX 19121 33837 /1581 83102 10045 20028 30098 40150 58007 72582 8635/ 333 86921 555 1/014 60041=
33837,2024,03,19,15,00,AAXX 19151 33837 42480 63401 10049 20019 30097 40149 56001 85551 333 85710==
33837,2024,03,19,18,00,AAXX 19181 33837 12680 83602 10038 20015 30110 40162 53013 60042 8655/ 333 10069 86646 555 1/005=
33837,2024,03,19,21,00,AAXX 19211 33837 41468 83403 10032 20020 30112 40165 51002 72582 8635/==
33837,2024,03,20,00,00,AAXX 20001 33837 /1384 63401 10023 20007 30109 40162 58003 70282 85550 333 85707 555 1/003 60011=
33837,2024,03,20,03,00,AAXX 20031 33837 42366 83102 10024 20008 30104 40157 57005 8655/ 333 55016 86707==
33837,2024,03,20,06,00,AAXX 20061 33837 12265 83001 10021 20006 30110 40163 53006 60012 886// 333 20020 88705 555 11004 31002=
33837,2024,03,20,09,00,AAXX 20091 33837 42481 83002 10053 20016 30112 40164 52002 885// 333 88712==
33837,2024,03,20,12,00,AAXX 20121 33837 32483 82902 10061 20012 30111 40163 58001 8655/ 333 86719 555 1/010=
33837,2024,03,20,15,00,AAXX 20151 33837 42584 62802 10066 20019 30113 40165 53002 86500 333 86621==
33837,2024,03,20,18,00,AAXX 20181 33837 32483 83202 10050 20025 30123 40175 53010 885// 333 10077 88711 555 1/005=
33837,2024,03,20,21,00,AAXX 20211 33837 42483 83202 10043 20020 30124 40176 51001 885// 333 88710==
33837,2024,03,21,00,00,AAXX 21001 33837 /1462 83202 10039 20021 30120 40173 58004 72522 885// 333 88710 555 1/004 69901=
33837,2024,03,21,03,00,AAXX 21031 33837 41481 83302 10035 20011 30113 40166 57007 70282 885// 333 55019 88715==
33837,2024,03,21,06,00,AAXX 21061 33837 11372 80000 10040 20020 30120 40172 53007 69902 72582 885// 333 20033 88708 555 11005 31003=
33837,2024,03,21,09,00,AAXX 21091 33837 42477 30801 10057 20025 30128 40180 52008 82550 333 82710==
33837,2024,03,21,12,00,AAXX 21121 33837 32580 21202 10065 20022 30132 40184 52004 82500 555 1/025=
33837,2024,03,21,15,00,AAXX 21151 33837 42/84 21802 10060 20013 30133 40185 51001 82050==
33837,2024,03,21,18,00,AAXX 21181 33837 32578 53401 10038 20015 30142 40195 53009 82401 333 10070 555 1/004=
33837,2024,03,21,21,00,AAXX 21211 33837 42966 83001 10043 20017 30140 40193 58002 80004==
33837,2024,03,22,00,00,AAXX 22001 33837 31958 60102 10042 20026 30139 40192 57001 71022 82051 555 1/001=
33837,2024,03,22,03,00,AAXX 22031 33837 41258 83402 10034 20022 30139 40192 54000 71022 885// 333 55079 88705==
33837,2024,03,22,06,00,AAXX 22061 33837 31119 83102 10035 20026 30141 40194 53002 72842 86554 333 20027 86702 555 11006 31001=
33837,2024,03,22,09,00,AAXX 22091 33837 42660 70102 10090 20048 30142 40194 52001 83531 333 83638==
33837,2024,03,22,12,00,AAXX 22121 33837 32560 61201 10094 20046 30129 40181 58013 83531 555 1/024=
33837,2024,03,22,15,00,AAXX 22151 33837 42575 73401 10111 20032 30119 40170 57010 82530==
33837,2024,03,22,18,00,AAXX 22181 33837 32964 63102 10091 20027 30122 40174 53003 86030 333 10113 555 1/006=
33837,2024,03,22,21,00,AAXX 22211 33837 42/60 60102 10070 20038 30121 40173 58001 82031==
33837,2024,03,23,00,00,AAXX 23001 33837 31358 51604 10057 20040 30120 40172 57001 71022 82630 333 82708 555 1/004=
33837,2024,03,23,03,00,AAXX 23031 33837 41250 62301 10050 20035 30113 40165 58007 71022 85630 333 55078 85704==
33837,2024,03,23,06,00,AAXX 23061 33837 31150 81803 10062 20050 30109 40161 57004 71022 86631 333 20042 86702 555 10008 30002=
33837,2024,03,23,09,00,AAXX 23091 33837 41157 71703 10073 20053 30108 40160 56001 71022 87600 333 87703==
33837,2024,03,23,12,00,AAXX 23121 33837 31257 51705 10082 20058 30093 40145 58015 71022 85600 333 85704 555 1/021=
33837,2024,03,23,15,00,AAXX 23151 33837 41259 32003 10078 20056 30077 40129 57016 71011 83600 333 83704==
33837,2024,03,23,18,00,AAXX 23181 33837 32971 32203 10071 20044 30075 40127 56002 80001 333 10087 555 1/006=
33837,2024,03,23,21,00,AAXX 23211 33837 42966 32203 10073 20049 30062 40114 58013 80001==
33837,2024,03,24,00,00,AAXX 24001 33837 32968 02102 10071 20048 30047 40099 57015 555 1/004=
33837,2024,03,24,03,00,AAXX 24031 33837 42972 02105 10073 20046 30031 40082 57016 333 55084==
33837,2024,03,24,06,00,AAXX 24061 33837 32362 22003 10087 20062 30028 40079 56003 82601 333 20070 82707 555 10009 30004=
33837,2024,03,24,09,00,AAXX 24091 33837 42263 72105 10099 20066 30027 40078 57001 87600 333 87706==
33837,2024,03,24,12,00,AAXX 24121 33837 32362 62105 10100 20063 30015 40066 58012 84601 333 84707 555 1/020=
33837,2024,03,24,15,00,AAXX 24151 33837 42362 72003 10086 20062 30001 40052 57014 82554 333 82708==
33837,2024,03,24,18,00,AAXX 24181 33837 31958 82003 10076 20059 39996 40047 56005 71022 85051 333 10104 555 1/006=
33837,2024,03,24,21,00,AAXX 24211 33837 41358 62102 10080 20061 39995 40046 57001 71022 82630 333 82708==
33837,2024,03,25,00,00,AAXX 25001 33837 /1460 81702 10076 20057 39975 40026 58020 72582 8555/ 333 85713 555 1/007 69901=
33837,2024,03,25,03,00,AAXX 25031 33837 41350 81101 10071 20059 39956 40007 57019 71082 8255/ 333 55078 82707==
33837,2024,03,25,06,00,AAXX 25061 33837 11341 81203 10073 20062 39944 49995 56012 60042 78182 8635/ 333 20069 555 11008=
33837,2024,03,25,09,00,AAXX 25091 33837 41456 81405 10077 20066 39928 49979 57016 71082 885// 333 88711==
33837,2024,03,25,12,00,AAXX 25121 33837 11317 70202 10080 20069 39909 49960 57019 76186 8872/ 555 1/009 60011=
33837,2024,03,25,15,00,AAXX 25151 33837 41349 83202 10046 20037 39895 49946 57014 76166 8872/==
33837,2024,03,25,18,00,AAXX 25181 33837 11350 83207 10028 20016 39892 49944 56003 60122 76566 8872/ 333 10083 555 1/003=
33837,2024,03,25,21,00,AAXX 25211 33837 41356 83209 10025 20012 39901 49953 53009 76166 8872/==
33837,2024,03,26,00,00,AAXX 26001 33837 /1349 83209 10024 20011 39927 49979 53026 76366 8872/ 333 91118 555 1/001 60091=
33837,2024,03,26,03,00,AAXX 26031 33837 41343 83207 10028 20013 39959 40011 53032 76166 8872/ 333 55000==
33837,2024,03,26,06,00,AAXX 26061 33837 11359 83209 10042 20022 39998 40050 53039 60152 76166 8872/ 333 20021 91120 555 11005 31001=
33837,2024,03,26,09,00,AAXX 26091 33837 41583 83309 10070 20027 30027 40078 51029 70262 8655/ 333 86620==
33837,2024,03,26,12,00,AAXX 26121 33837 /1582 63504 10110 20031 30047 40098 51020 70262 85550 333 85631 91120 555 1/019 69931=
33837,2024,03,26,15,00,AAXX 26151 33837 42684 53502 10106 20024 30062 40113 51015 83550 333 83643==
33837,2024,03,26,18,00,AAXX 26181 33837 12983 33402 10081 20026 30085 40137 53023 69932 83030 333 10114 555 1/004=
33837,2024,03,26,21,00,AAXX 26211 33837 42/80 23101 10053 20023 30095 40147 53010 82030==
33837,2024,03,27,00,00,AAXX 27001 33837 31958 02701 10034 20016 30105 40158 52010 71000 555 1/001=
33837,2024,03,27,03,00,AAXX 27031 33837 42/68 33301 10038 20020 30103 40155 58002 83050 333 55058==
33837,2024,03,27,06,00,AAXX 27061 33837 32969 60601 10065 20029 30109 40161 53006 83051 333 20032 555 11009 31100=
33837,2024,03,27,09,00,AAXX 27091 33837 42/77 71203 10073 20046 30114 40166 52005 83039==
33837,2024,03,27,12,00,AAXX 27121 33837 32581 71703 10081 20054 30113 40165 58001 82104 555 1/020=
33837,2024,03,27,15,00,AAXX 27151 33837 42983 61702 10077 20048 30106 40158 58007 80004==
33837,2024,03,27,18,00,AAXX 27181 33837 32980 51706 10073 20058 30100 40152 57006 80001 333 10087 555 1/006=
33837,2024,03,27,21,00,AAXX 27211 33837 42682 81605 10077 20057 30100 40152 54000 885// 333 88647==
33837,2024,03,28,00,00,AAXX 28001 33837 32679 81604 10078 20058 30087 40139 58013 885// 333 88647 555 1/007=
33837,2024,03,28,03,00,AAXX 28031 33837 42668 81606 10081 20056 30075 40126 57012 885// 333 55097 88649==
33837,2024,03,28,06,00,AAXX 28061 33837 32962 61703 10091 20055 30069 40120 56006 83059 333 20073 555 10011=
33837,2024,03,28,09,00,AAXX 28091 33837 42967 81804 10098 20063 30052 40103 58017 80009==
33837,2024,03,28,12,00,AAXX 28121 33837 32960 81806 10098 20072 30034 40085 57018 80015 555 1/018=
33837,2024,03,28,15,00,AAXX 28151 33837 42/60 82106 10101 20072 30017 40068 57017 80025==
33837,2024,03,28,18,00,AAXX 28181 33837 32961 82202 10114 20071 30028 40079 53011 80005 333 10115 555 1/009=
33837,2024,03,28,21,00,AAXX 28211 33837 42/68 82403 10130 20077 30039 40089 52011 85025==
33837,2024,03,29,00,00,AAXX 29001 33837 32976 32702 10107 20074 30049 40100 52010 80001 555 1/006=
33837,2024,03,29,03,00,AAXX 29031 33837 42983 62302 10118 20057 30051 40102 51002 80001 333 55036==
33837,2024,03,29,06,00,AAXX 29061 33837 32960 22202 10139 20065 30052 40102 52001 80001 333 20090 555 10015 30005=
33837,2024,03,29,09,00,AAXX 29091 33837 42/74 21903 10147 20084 30040 40090 58012 82030==
33837,2024,03,29,12,00,AAXX 29121 33837 32567 53005 10230 21005 30044 40093 53004 83230 555 1/036=
33837,2024,03,29,15,00,AAXX 29151 33837 42/84 23105 10188 20009 30076 40126 53032 82030==
33837,2024,03,29,18,00,AAXX 29181 33837 32983 03203 10152 20010 30105 40155 52029 333 10248 555 1/009=
33837,2024,03,29,21,00,AAXX 29211 33837 42984 03001 10121 20008 30121 40172 51016==
33837,2024,03,30,00,00,AAXX 30001 33837 32984 31801 10088 20015 30134 40186 52013 80001 555 1/004=
33837,2024,03,30,03,00,AAXX 30031 33837 42/84 52303 10115 20038 30142 40193 52008 82031 333 55105==
33837,2024,03,30,06,00,AAXX 30061 33837 32979 51904 10125 20042 30148 40199 52006 80009 333 20087 555 10016 30004=
33837,2024,03,30,09,00,AAXX 30091 33837 42/75 61804 10123 20059 30150 40201 52002 82031==
33837,2024,03,30,12,00,AAXX 30121 33837 32984 81804 10109 20068 30139 40190 58011 82034 555 1/024=
33837,2024,03,30,15,00,AAXX 30151 33837 42/67 81903 10114 20075 30126 40177 57013 82034==
33837,2024,03,30,18,00,AAXX 30181 33837 32961 51903 10095 20073 30130 40181 53004 80001 333 10131 555 1/009=
33837,2024,03,30,21,00,AAXX 30211 33837 42981 02102 10097 20068 30135 40186 52005==
33837,2024,03,31,00,00,AAXX 31001 33837 32984 02202 10110 20040 30131 40182 58004 555 1/006=
33837,2024,03,31,03,00,AAXX 31031 33837 42982 01803 10096 20056 30130 40181 57001 333 55109==
33837,2024,03,31,06,00,AAXX 31061 33837 32970 51804 10106 20077 30133 40184 53003 80001 333 20091 555 10015=
33837,2024,03,31,09,00,AAXX 31091 33837 42980 62003 10130 20083 30138 40189 52005 80001==
33837,2024,03,31,12,00,AAXX 31121 33837 32967 81703 10114 20081 30126 40177 58012 80004 555 1/028=
33837,2024,03,31,15,00,AAXX 31151 33837 42962 81803 10103 20081 30112 40163 57014 80004==
33837,2024,03,31,18,00,AAXX 31181 33837 32962 52104 10107 20081 30112 40163 54000 80001 333 10134 555 1/010=
33837,2024,03,31,21,00,AAXX 31211 33837 42960 32103 10098 20081 30106 40157 58006 80001==
33837,2024,04,01,00,00,AAXX 01001 33837 31956 51902 10090 20078 30095 40146 58011 71011 80001 555 1/008=
33837,2024,04,01,03,00,AAXX 01031 33837 41956 01802 10089 20078 30086 40137 57009 71011 333 55120==
33837,2024,04,01,06,00,AAXX 01061 33837 31958 81803 10107 20090 30085 40136 56001 71011 80005 333 20086 555 10020=
33837,2024,04,01,09,00,AAXX 01091 33837 42/62 82002 10147 20097 30087 40137 53002 85025==
33837,2024,04,01,12,00,AAXX 01121 33837 32963 81905 10125 20090 30080 40131 58007 80005 555 1/029=
33837,2024,04,01,15,00,AAXX 01151 33837 42/62 81904 10112 20086 30070 40121 57010 84024==
33837,2024,04,01,18,00,AAXX 01181 33837 31959 81903 10105 20083 30062 40113 57008 71022 80004 333 10167 555 1/011=
33837,2024,04,01,21,00,AAXX 01211 33837 42961 32003 10110 20084 30051 40102 57011 80001==
33837,2024,04,02,00,00,AAXX 02001 33837 32960 62004 10105 20084 30035 40086 58016 80001 555 1/009=
33837,2024,04,02,03,00,AAXX 02031 33837 42961 62104 10110 20084 30017 40068 57018 80001 333 55065==
33837,2024,04,02,06,00,AAXX 02061 33837 32968 72103 10126 20089 30001 40051 57016 80009 333 20099 555 10014=
33837,2024,04,02,09,00,AAXX 02091 33837 42962 82105 10133 20084 39988 40038 57013 80004==
33837,2024,04,02,12,00,AAXX 02121 33837 32961 61903 10137 20097 39967 40017 58021 82034 555 1/031=
33837,2024,04,02,15,00,AAXX 02151 33837 42/64 72102 10172 20078 39959 40008 56008 87030==
33837,2024,04,02,18,00,AAXX 02181 33837 32984 62902 10190 20006 39987 40036 53028 86030 333 10213 555 1/013=
33837,2024,04,02,21,00,AAXX 02211 33837 42/83 72903 10158 20015 30017 40067 52030 87030==
33837,2024,04,03,00,00,AAXX 03001 33837 32984 53206 10117 20019 30030 40081 51013 82031 555 1/009=
33837,2024,04,03,03,00,AAXX 03031 33837 42/84 32804 10098 20014 30047 40098 52017 83030 333 55059==
33837,2024,04,03,06,00,AAXX 03061 33837 32980 32702 10135 20024 30064 40114 52017 82031 333 20091 555 10014=
33837,2024,04,03,09,00,AAXX 03091 33837 42584 52703 10184 20019 30071 40121 51007 82101==
33837,2024,04,03,12,00,AAXX 03121 33837 32571 62103 10173 20036 30065 40115 58006 85201 555 1/034=
33837,2024,04,03,15,00,AAXX 03151 33837 41584 52705 10183 20000 30066 40116 53001 70282 82401==
33837,2024,04,03,18,00,AAXX 03181 33837 11984 32302 10159 20005 30084 40134 53018 69902 70281 82031 333 10203 555 1/010=
33837,2024,04,03,21,00,AAXX 03211 33837 42984 02602 10128 20009 30093 40144 51009==
33837,2024,04,04,00,00,AAXX 04001 33837 32484 52802 10118 20014 30093 40144 54000 82601 555 1/007=
33837,2024,04,04,03,00,AAXX 04031 33837 42/83 62703 10119 20012 30091 40142 58002 85031 333 55115==
33837,2024,04,04,06,00,AAXX 04061 33837 32983 82001 10149 20054 30097 40147 53006 82051 333 20112 555 10020=
33837,2024,04,04,09,00,AAXX 04091 33837 42/81 51805 10159 20033 30097 40147 54000 82032==
33837,2024,04,04,12,00,AAXX 04121 33837 32583 61904 10193 20018 30089 40139 58008 82151 555 1/036=
33837,2024,04,04,15,00,AAXX 04151 33837 42583 82302 10173 20025 30089 40139 54000 85451==
33837,2024,04,04,18,00,AAXX 04181 33837 32582 82502 10159 20049 30098 40148 53009 8245/ 333 10201 555 1/014=
33837,2024,04,04,21,00,AAXX 04211 33837 41483 83102 10144 20057 30115 40166 53017 78082 883// 555 1/013=
33837,2024,04,05,00,00,AAXX 05001 33837 /1984 20000 10116 20053 30111 40162 58004 70281 80001 555 1/009 69901=
33837,2024,04,05,03,00,AAXX 05031 33837 42/84 50000 10113 20064 30119 40170 53008 82051 333 55083==
33837,2024,04,05,06,00,AAXX 05061 33837 12975 33602 10139 20065 30137 40188 53018 69902 82032 333 20102 555 10021=
33837,2024,04,05,09,00,AAXX 05091 33837 42581 61101 10135 20077 30146 40197 51009 82130==
33837,2024,04,05,12,00,AAXX 05121 33837 32584 61903 10150 20075 30143 40194 58003 85230 555 1/037=
33837,2024,04,05,15,00,AAXX 05151 33837 41584 62301 10157 20062 30143 40193 54000 72582 85330==
33837,2024,04,05,18,00,AAXX 05181 33837 11984 52401 10144 20044 30151 40202 53008 69932 70282 85030 333 10161 555 1/011=
33837,2024,04,05,21,00,AAXX 05211 33837 42/84 62701 10121 20066 30156 40207 52005 86030==
33837,2024,04,06,00,00,AAXX 06001 33837 32584 82701 10128 20064 30152 40203 58004 8353/ 555 1/011=
33837,2024,04,06,03,00,AAXX 06031 33837 42584 60000 10110 20067 30148 40199 57004 82531 333 55092==
33837,2024,04,06,06,00,AAXX 06061 33837 32983 80801 10135 20077 30154 40205 53006 80005 333 20100 555 10021=
33837,2024,04,06,09,00,AAXX 06091 33837 42/83 71804 10134 20095 30151 40202 58003 82055==
33837,2024,04,06,12,00,AAXX 06121 33837 32966 81804 10118 20100 30134 40185 58017 83052 555 1/033=
33837,2024,04,06,15,00,AAXX 06151 33837 41111 81903 10103 20092 30120 40171 57014 71022 86655 333 86703==
33837,2024,04,06,18,00,AAXX 06181 33837 31/06 91804 10102 20102 30116 40167 56004 74742 333 10145 555 1/013=
33837,2024,04,06,21,00,AAXX 06211 33837 41456 80000 10114 20106 30119 40170 53003 78084 8635/==
33837,2024,04,07,00,00,AAXX 07001 33837 /1426 80000 10108 20100 30119 40170 54000 72584 85351 555 1/011 60021=
33837,2024,04,07,03,00,AAXX 07031 33837 42267 80201 10110 20102 30125 40176 53006 86451 333 55090 86705==
33837,2024,04,07,06,00,AAXX 07061 33837 11582 53602 10140 20126 30145 40196 53020 60022 70282 82201 333 20102 555 11019=
33837,2024,04,07,09,00,AAXX 07091 33837 42569 60601 10154 20110 30166 40217 52021 82201==
33837,2024,04,07,12,00,AAXX 07121 33837 32574 51803 10144 20114 30170 40221 51004 82201 555 1/033=
33837,2024,04,07,15,00,AAXX 07151 33837 42584 52001 10165 20104 30174 40224 52004 82401==
33837,2024,04,07,18,00,AAXX 07181 33837 32982 32701 10142 20092 30181 40232 52007 80001 333 10170 555 1/013=
33837,2024,04,07,21,00,AAXX 07211 33837 42982 02701 10134 20091 30186 40237 52005==
33837,2024,04,08,00,00,AAXX 08001 33837 32984 02802 10128 20089 30182 40233 58004 555 1/010=
33837,2024,04,08,03,00,AAXX 08031 33837 42983 23302 10114 20079 30186 40237 53004 80001 333 55104==
33837,2024,04,08,06,00,AAXX 08061 33837 32970 20102 10159 20091 30190 40241 52004 80001 333 20112 555 10017=
33837,2024,04,08,09,00,AAXX 08091 33837 42983 00601 10183 20083 30191 40241 52001==
33837,2024,04,08,12,00,AAXX 08121 33837 32982 51801 10205 20049 30180 40230 58011 80001 555 1/045=
33837,2024,04,08,15,00,AAXX 08151 33837 42983 02001 10204 20036 30169 40219 57011==
33837,2024,04,08,18,00,AAXX 08181 33837 32984 22702 10169 20043 30168 40218 56001 80001 333 10210 555 1/014=
33837,2024,04,08,21,00,AAXX 08211 33837 42984 02702 10152 20062 30163 40214 57005==
33837,2024,04,09,00,00,AAXX 09001 33837 32984 02701 10137 20053 30153 40204 57010 555 1/010=
33837,2024,04,09,03,00,AAXX 09031 33837 42983 00101 10123 20074 30155 40206 53002 333 55123==
33837,2024,04,09,06,00,AAXX 09061 33837 32982 30102 10184 20072 30162 40212 52007 80001 333 20116 555 10019=
33837,2024,04,09,09,00,AAXX 09091 33837 42980 81201 10186 20077 30165 40215 51003 80005==
33837,2024,04,09,12,00,AAXX 09121 33837 32981 21803 10193 20054 30151 40201 58014 80001 555 1/042=
33837,2024,04,09,15,00,AAXX 09151 33837 42984 21903 10192 20042 30137 40187 57014 80001==
33837,2024,04,09,18,00,AAXX 09181 33837 32983 02301 10174 20033 30141 40191 53004 333 10203 555 1/015=
33837,2024,04,09,21,00,AAXX 09211 33837 42984 01701 10163 20030 30142 40192 51001==
33837,2024,04,10,00,00,AAXX 10001 33837 32982 00000 10138 20062 30134 40185 58008 555 1/010=
33837,2024,04,10,03,00,AAXX 10031 33837 42983 00301 10124 20067 30138 40189 53004 333 55115==
33837,2024,04,10,06,00,AAXX 10061 33837 32969 03602 10175 20064 30148 40198 53010 333 20118 555 10017=
33837,2024,04,10,09,00,AAXX 10091 33837 42984 23602 10225 20054 30143 40192 58005 80001==
33837,2024,04,10,12,00,AAXX 10121 33837 32981 01401 10228 20070 30141 40190 57002 555 1/039=
33837,2024,04,10,15,00,AAXX 10151 33837 42981 00000 10229 20053 30140 40189 57001==
33837,2024,04,10,18,00,AAXX 10181 33837 32968 02801 10185 20064 30154 40204 53014 333 10238 555 1/015=
33837,2024,04,10,21,00,AAXX 10211 33837 42981 02801 10179 20061 30165 40215 52011==
33837,2024,04,11,00,00,AAXX 11001 33837 32982 02902 10178 20063 30171 40221 52006 555 1/013=
33837,2024,04,11,03,00,AAXX 11031 33837 42983 03002 10156 20069 30172 40223 51001 333 55122==
33837,2024,04,11,06,00,AAXX 11061 33837 32984 03502 10182 20073 30183 40233 53011 333 20149 555 10022=
33837,2024,04,11,09,00,AAXX 11091 33837 42975 00102 10245 20108 30192 40241 52009==
33837,2024,04,11,12,00,AAXX 11121 33837 32569 51804 10227 20077 30189 40238 58003 85100 555 1/042=
33837,2024,04,11,15,00,AAXX 11151 33837 42982 01902 10225 20090 30181 40230 57008==
33837,2024,04,11,18,00,AAXX 11181 33837 32977 02602 10207 20090 30185 40235 53004 333 10247 555 1/017=
33837,2024,04,11,21,00,AAXX 11211 33837 42981 03302 10197 20090 30190 40240 52005==
33837,2024,04,12,00,00,AAXX 12001 33837 32982 03405 10188 20104 30188 40238 58002 555 1/015=
33837,2024,04,12,03,00,AAXX 12031 33837 42983 03405 10170 20089 30191 40241 53003 333 55115==
33837,2024,04,12,06,00,AAXX 12061 33837 32980 33402 10172 20084 30198 40248 52007 80001 333 20156 555 10021=
33837,2024,04,12,09,00,AAXX 12091 33837 42966 23502 10220 20085 30197 40247 58001 80001==
33837,2024,04,12,12,00,AAXX 12121 33837 32984 03603 10233 20052 30184 40233 58013 555 1/044=
33837,2024,04,12,15,00,AAXX 12151 33837 42981 03302 10220 20046 30172 40222 57012==
33837,2024,04,12,18,00,AAXX 12181 33837 32982 03202 10191 20056 30177 40227 53005 333 10237 555 1/017=
33837,2024,04,12,21,00,AAXX 12211 33837 42982 93102 10164 20035 30180 40231 52003 89///==
33837,2024,04,13,00,00,AAXX 13001 33837 32983 02902 10136 20034 30176 40227 58004 555 1/011=
33837,2024,04,13,03,00,AAXX 13031 33837 42984 03002 10124 20051 30174 40225 57002 333 55114==
33837,2024,04,13,06,00,AAXX 13061 33837 32982 33102 10170 20065 30175 40225 53001 80001 333 20123 555 10021=
33837,2024,04,13,09,00,AAXX 13091 33837 42/69 63401 10202 20079 30171 40221 58004 82031==
33837,2024,04,13,12,00,AAXX 13121 33837 32584 63303 10222 20052 30156 40205 58015 82151 555 1/045=
33837,2024,04,13,15,00,AAXX 13151 33837 42584 83203 10207 20059 30142 40192 57014 85451==
33837,2024,04,13,18,00,AAXX 13181 33837 32982 80000 10187 20069 30147 40197 53005 85051 333 10229 555 1/017=
33837,2024,04,13,21,00,AAXX 13211 33837 42/83 32901 10168 20063 30148 40198 52001 82031==
33837,2024,04,14,00,00,AAXX 14001 33837 32982 82902 10159 20063 30144 40194 58004 86071 555 1/012=
33837,2024,04,14,03,00,AAXX 14031 33837 42/83 83003 10146 20072 30146 40197 53002 8805/ 333 55112==
33837,2024,04,14,06,00,AAXX 14061 33837 32971 83102 10184 20084 30150 40200 52004 80001 333 20140 555 10023=
33837,2024,04,14,09,00,AAXX 14091 33837 42581 60402 10227 20088 30145 40194 58005 82101==
33837,2024,04,14,12,00,AAXX 14121 33837 32577 61302 10203 20142 30124 40173 58021 82231 555 1/043=
33837,2024,04,14,15,00,AAXX 14151 33837 42/82 82302 10209 20092 30107 40156 57017 82054==
33837,2024,04,14,18,00,AAXX 14181 33837 32983 82403 10200 20099 30098 40147 56009 83076 333 10249 555 1/018=
33837,2024,04,14,21,00,AAXX 14211 33837 42/81 82404 10195 20110 30087 40136 57011 83076==
33837,2024,04,15,00,00,AAXX 15001 33837 32982 82902 10176 20100 30080 40130 57007 85054 555 1/015=
33837,2024,04,15,03,00,AAXX 15031 33837 42/83 82801 10170 20087 30088 40138 53008 8805/ 333 55103==
33837,2024,04,15,06,00,AAXX 15061 33837 32969 82701 10197 20107 30094 40143 52006 80005 333 20163 555 10024=
33837,2024,04,15,09,00,AAXX 15091 33837 42982 81502 10208 20088 30088 40137 58006 80005==
33837,2024,04,15,12,00,AAXX 15121 33837 32980 61904 10205 20091 30068 40117 58020 86050 555 1/036=
33837,2024,04,15,15,00,AAXX 15151 33837 42/82 62403 10215 20097 30038 40087 58030 82055==
33837,2024,04,15,18,00,AAXX 15181 33837 32982 52402 10185 20106 30021 40070 58017 82051 333 10224 555 1/017=
33837,2024,04,15,21,00,AAXX 15211 33837 42982 32405 10197 20110 30000 40049 57021 80001==
33837,2024,04,16,00,00,AAXX 16001 33837 32982 02405 10194 20107 39982 40031 57018 555 1/015=
33837,2024,04,16,03,00,AAXX 16031 33837 42/81 22603 10178 20111 39978 40027 56004 82050 333 55084==
33837,2024,04,16,06,00,AAXX 16061 33837 32963 81802 10173 20116 39979 40028 53001 83074 333 20152 555 10026=
33837,2024,04,16,09,00,AAXX 16091 33837 42/63 61902 10209 20126 39979 40028 54000 82034==
33837,2024,04,16,12,00,AAXX 16121 33837 32969 81903 10198 20128 39971 40020 58008 85014 555 1/032=
33837,2024,04,16,15,00,AAXX 16151 33837 42/66 82202 10195 20128 39964 40013 56007 83014==
33837,2024,04,16,18,00,AAXX 16181 33837 32970 62001 10181 20102 39967 40016 53003 80001 333 10225 555 1/017=
33837,2024,04,16,21,00,AAXX 16211 33837 42982 52302 10196 20089 39959 40008 58008 80001==
33837,2024,04,17,00,00,AAXX 17001 33837 32981 62303 10172 20112 39942 49991 58017 80001 555 1/015=
33837,2024,04,17,03,00,AAXX 17031 33837 42/63 82203 10142 20110 39932 49982 56010 88020 333 55081==
33837,2024,04,17,06,00,AAXX 17061 33837 32969 82802 10179 20132 39931 49980 56001 8807/ 333 20139 555 10020=
33837,2024,04,17,09,00,AAXX 17091 33837 42/61 61804 10212 20112 39938 49986 53007 83031==
33837,2024,04,17,12,00,AAXX 17121 33837 32966 51803 10157 20117 39933 49982 58005 82031 555 1/040=
33837,2024,04,17,15,00,AAXX 17151 33837 42/70 62202 10174 20123 39926 49975 57007 82034==
33837,2024,04,17,18,00,AAXX 17181 33837 11572 83501 10132 20111 39936 49986 53010 60012 72582 8335/ 333 10225 555 1/015=
33837,2024,04,17,21,00,AAXX 17211 33837 42/80 73301 10133 20108 39941 49991 52005 87050==
33837,2024,04,18,00,00,AAXX 18001 33837 /1580 80000 10131 20110 39937 49987 58004 72582 8435/ 555 1/013 69901=
33837,2024,04,18,03,00,AAXX 18031 33837 41571 82902 10116 20099 39928 49978 57009 78082 8695/ 333 55070==
33837,2024,04,18,06,00,AAXX 18061 33837 11466 80000 10119 20100 39929 49979 53001 69902 78082 8635/ 333 20113 555 11016=
33837,2024,04,18,09,00,AAXX 18091 33837 41483 83101 10114 20093 39943 49993 53014 78082 8830/==
33837,2024,04,18,12,00,AAXX 18121 33837 /1482 72901 10110 20098 39940 49990 58003 72582 85350 333 85910 555 1/022 60041=
33837,2024,04,18,15,00,AAXX 18151 33837 42583 82702 10121 20078 39952 40002 53012 86401 333 86720==
33837,2024,04,18,18,00,AAXX 18181 33837 12684 62802 10101 20057 39980 40031 53028 60042 86400 333 10134 86638 555 1/010=
33837,2024,04,18,21,00,AAXX 18211 33837 42684 62801 10082 20050 39992 40043 53012 84501 333 84637==
33837,2024,04,19,00,00,AAXX 19001 33837 32484 60000 10068 20041 30015 40066 53023 86500 333 86714 555 1/006=
33837,2024,04,19,03,00,AAXX 19031 33837 42984 52801 10059 20037 30036 40088 52021 80001 333 55017==
33837,2024,04,19,06,00,AAXX 19061 33837 32578 53102 10095 20041 30056 40107 52020 85500 333 20057 85623 555 11015 31005=
33837,2024,04,19,09,00,AAXX 19091 33837 42674 63002 10137 20029 30071 40121 52015 86500 333 86637==
33837,2024,04,19,12,00,AAXX 19121 33837 32683 72002 10118 20057 30073 40124 51002 85530 333 85638 555 1/022=
33837,2024,04,19,15,00,AAXX 19151 33837 42583 72002 10115 20062 30076 40127 52003 85550==
33837,2024,04,19,18,00,AAXX 19181 33837 32984 52301 10094 20052 30082 40133 52006 82031 333 10150 555 1/010=
33837,2024,04,19,21,00,AAXX 19211 33837 42982 02502 10088 20050 30090 40141 52008==
33837,2024,04,20,00,00,AAXX 20001 33837 32967 00000 10064 20047 30085 40137 58005 555 1/006=
33837,2024,04,20,03,00,AAXX 20031 33837 41/44 53301 10067 20055 30081 40133 57004 71011 82031 333 55101==
33837,2024,04,20,06,00,AAXX 20061 33837 32981 70606 10093 20041 30078 40129 57003 85051 333 20064 555 10013 30005=
33837,2024,04,20,09,00,AAXX 20091 33837 42683 70706 10134 20048 30062 40112 58016 82551==
33837,2024,04,20,12,00,AAXX 20121 33837 /1473 80202 10140 20068 30039 40089 58023 78082 8535/ 555 1/020 69901=
33837,2024,04,20,15,00,AAXX 20151 33837 41459 80507 10107 20085 30029 40080 56010 78182 883//==
33837,2024,04,20,18,00,AAXX 20181 33837 11450 83604 10097 20086 30012 40063 58017 60112 78088 883// 333 10145 555 1/010=
33837,2024,04,20,21,00,AAXX 20211 33837 41437 83408 10089 20078 39969 40020 58043 78288 883//==
33837,2024,04,21,00,00,AAXX 21001 33837 /1457 83408 10085 20074 39946 49997 56023 78088 883// 555 1/009 60211=
33837,2024,04,21,03,00,AAXX 21031 33837 41459 83207 10074 20063 39938 49989 56008 78088 8635/ 333 55039==
33837,2024,04,21,06,00,AAXX 21061 33837 11456 83006 10068 20057 39951 40002 53013 60312 78188 8635/ 333 20068 555 11008=
33837,2024,04,21,09,00,AAXX 21091 33837 41483 83106 10083 20047 39986 40037 53035 72582 8335/ 333 83618==
33837,2024,04,21,12,00,AAXX 21121 33837 /1683 83007 10098 20046 30023 40074 52037 70282 8527/ 333 85633 555 1/012 60011=
33837,2024,04,21,15,00,AAXX 21151 33837 42584 82803 10119 20041 30047 40098 51024 8347/==
33837,2024,04,21,18,00,AAXX 21181 33837 12984 62302 10106 20052 30070 40121 52023 60012 80001 333 10123 555 1/007=
33837,2024,04,21,21,00,AAXX 21211 33837 42980 32701 10083 20059 30082 40133 51012 80001==
33837,2024,04,22,00,00,AAXX 22001 33837 32981 02601 10090 20071 30093 40144 52011 555 1/005=
33837,2024,04,22,03,00,AAXX 22031 33837 41950 60000 10073 20059 30101 40153 52008 71011 80001 333 55019==
33837,2024,04,22,06,00,AAXX 22061 33837 32475 80401 10097 20073 30116 40167 53015 8355/ 333 20071 83714 555 11010 31004=
33837,2024,04,22,09,00,AAXX 22091 33837 41456 81105 10091 20077 30126 40178 52010 78182 883//==
33837,2024,04,22,12,00,AAXX 22121 33837 /1458 80303 10089 20075 30119 40171 58007 78082 883// 555 1/011 60111=
33837,2024,04,22,15,00,AAXX 22151 33837 41459 83602 10087 20076 30128 40180 53009 78088 883//==
33837,2024,04,22,18,00,AAXX 22181 33837 11468 80102 10088 20077 30143 40195 53015 60192 72582 8535/ 333 10108 85912 555 1/009=
33837,2024,04,22,21,00,AAXX 22211 33837 42680 70000 10079 20068 30156 40208 52013 82551==
33837,2024,04,23,00,00,AAXX 23001 33837 32483 83401 10082 20070 30165 40217 52009 8555/ 333 85616 555 1/007=
33837,2024,04,23,03,00,AAXX 23031 33837 42683 83301 10085 20071 30169 40221 51004 8555/ 333 55000 85635==
33837,2024,04,23,06,00,AAXX 23061 33837 32979 60403 10113 20076 30174 40225 52005 83031 333 20076 555 11015=
33837,2024,04,23,09,00,AAXX 23091 33837 42581 80602 10124 20073 30176 40227 54000 82504==
33837,2024,04,23,12,00,AAXX 23121 33837 32580 81001 10136 20082 30161 40212 58015 82234 555 1/027=
33837,2024,04,23,15,00,AAXX 23151 33837 42/81 81401 10127 20078 30139 40190 58022 88050==
33837,2024,04,23,18,00,AAXX 23181 33837 32984 80000 10120 20088 30119 40170 57020 88050 333 10139 555 1/012=
33837,2024,04,23,21,00,AAXX 23211 33837 41483 81603 10117 20087 30100 40151 57019 72522 85350==
33837,2024,04,24,00,00,AAXX 24001 33837 /1447 81502 10109 20097 30076 40127 57024 78182 88300 555 1/011 60021=
33837,2024,04,24,03,00,AAXX 24031 33837 41/77 81003 10107 20098 30039 40090 58037 70282 88070 333 55086==
33837,2024,04,24,06,00,AAXX 24061 33837 11963 80703 10122 20108 30002 40052 57037 60032 70282 8801/ 333 20107 555 11015=
33837,2024,04,24,09,00,AAXX 24091 33837 42/64 81602 10148 20096 39992 40042 56010 82016==
33837,2024,04,24,12,00,AAXX 24121 33837 32460 81804 10134 20106 39979 40029 57013 8661/ 333 86713 555 1/023=
33837,2024,04,24,15,00,AAXX 24151 33837 42560 71902 10147 20118 39982 40032 53003 87500 333 87720==
33837,2024,04,24,18,00,AAXX 24181 33837 31943 60000 10124 20110 39995 40045 53013 71022 80001 333 10151 555 1/012=
33837,2024,04,24,21,00,AAXX 24211 33837 41944 22302 10119 20105 30006 40056 52011 71011 80001==
33837,2024,04,25,00,00,AAXX 25001 33837 31950 20000 10123 20109 30007 40057 51001 71011 80001 555 1/009=
33837,2024,04,25,03,00,AAXX 25031 33837 41415 60201 10106 20097 30010 40061 52003 71011 83601 333 55043==
33837,2024,04,25,06,00,AAXX 25061 33837 31/03 90402 10118 20118 30015 40065 52005 74741 333 20105 555 10017=
33837,2024,04,25,09,00,AAXX 25091 33837 41/04 90502 10116 20116 30018 40068 52003 74544 89///==
33837,2024,04,25,12,00,AAXX 25121 33837 31965 81602 10142 20122 30012 40062 58006 70242 85015 555 1/024=
33837,2024,04,25,15,00,AAXX 25151 33837 42/61 80000 10152 20122 39998 40048 58014 85015==
33837,2024,04,25,18,00,AAXX 25181 33837 31958 82701 10136 20118 30004 40054 53006 71022 85075 333 10153 555 1/014=
33837,2024,04,25,21,00,AAXX 25211 33837 41/42 62701 10130 20119 30010 40060 52006 71022 82031==
33837,2024,04,26,00,00,AAXX 26001 33837 31958 80000 10127 20118 30004 40054 58006 71022 83034 555 1/011=
33837,2024,04,26,03,00,AAXX 26031 33837 41/25 82601 10120 20111 30018 40068 53014 71022 85074 333 55017==
33837,2024,04,26,06,00,AAXX 26061 33837 31958 80000 10140 20131 30033 40083 52015 71022 86074 333 20120 555 10017=
33837,2024,04,26,09,00,AAXX 26091 33837 42383 82902 10173 20124 30048 40098 52015 83631 333 83709==
33837,2024,04,26,12,00,AAXX 26121 33837 32582 63003 10201 20126 30053 40102 51005 82101 555 1/030=
33837,2024,04,26,15,00,AAXX 26151 33837 42/81 82901 10177 20106 30067 40117 52014 85034==
33837,2024,04,26,18,00,AAXX 26181 33837 32983 53002 10126 20091 30093 40144 53026 82031 333 10203 555 1/012=
33837,2024,04,26,21,00,AAXX 26211 33837 42980 50000 10106 20084 30110 40161 51017 80001==
33837,2024,04,27,00,00,AAXX 27001 33837 32981 03001 10095 20076 30115 40166 51005 555 1/008=
33837,2024,04,27,03,00,AAXX 27031 33837 42982 03002 10092 20066 30134 40186 53019 333 55081==
33837,2024,04,27,06,00,AAXX 27061 33837 32969 03301 10141 20083 30150 40201 52016 333 20089 555 10024=
33837,2024,04,27,09,00,AAXX 27091 33837 42579 60102 10184 20103 30162 40212 52012 82101==
33837,2024,04,27,12,00,AAXX 27121 33837 32582 51201 10185 20098 30155 40205 58007 83201 555 1/039=
33837,2024,04,27,15,00,AAXX 27151 33837 42584 30201 10191 20078 30153 40203 56002 83200==
33837,2024,04,27,18,00,AAXX 27181 33837 32584 63301 10161 20076 30158 40208 53005 82401 333 10198 555 1/014=
33837,2024,04,27,21,00,AAXX 27211 33837 42984 33303 10160 20053 30164 40214 52006 80001==
33837,2024,04,28,00,00,AAXX 28001 33837 32983 03401 10124 20073 30170 40221 52006 555 1/010=
33837,2024,04,28,03,00,AAXX 28031 33837 42/84 33401 10115 20072 30177 40228 52007 82031 333 55135==
33837,2024,04,28,06,00,AAXX 28061 33837 32982 83501 10136 20087 30185 40236 52008 82034 333 20113 555 10018=
33837,2024,04,28,09,00,AAXX 28091 33837 42/75 83602 10171 20090 30190 40240 52005 8807/==
33837,2024,04,28,12,00,AAXX 28121 33837 32584 83601 10168 20088 30178 40228 58012 8255/ 555 1/021=
33837,2024,04,28,15,00,AAXX 28151 33837 42584 80202 10168 20082 30180 40230 53002 8355/==
33837,2024,04,28,18,00,AAXX 28181 33837 32983 80201 10147 20093 30182 40233 52002 8805/ 333 10175 555 1/014=
33837,2024,04,28,21,00,AAXX 28211 33837 42/83 80102 10151 20074 30193 40244 53011 8805/==
33837,2024,04,29,00,00,AAXX 29001 33837 32584 83401 10144 20063 30188 40239 58005 8355/ 555 1/012=
33837,2024,04,29,03,00,AAXX 29031 33837 42/80 73401 10130 20059 30190 40241 53002 87050 333 55001==
33837,2024,04,29,06,00,AAXX 29061 33837 32980 60205 10143 20085 30199 40250 53009 86030 333 20125 555 10017=
33837,2024,04,29,09,00,AAXX 29091 33837 42/82 80405 10174 20101 30204 40254 52005 82034==
33837,2024,04,29,12,00,AAXX 29121 33837 32969 80603 10181 20102 30202 40252 58002 83034 555 1/037=
33837,2024,04,29,15,00,AAXX 29151 33837 42983 80405 10177 20086 30201 40251 57001 80006==
33837,2024,04,29,18,00,AAXX 29181 33837 32984 50304 10170 20062 30209 40260 53008 80001 333 10193 555 1/015=
33837,2024,04,29,21,00,AAXX 29211 33837 42984 20203 10142 20066 30227 40278 53018 80001==
33837,2024,04,30,00,00,AAXX 30001 33837 32984 60305 10134 20063 30226 40277 58001 80001 555 1/011=
33837,2024,04,30,03,00,AAXX 30031 33837 42/84 60405 10123 20072 30232 40283 53006 86030 333 55084==
33837,2024,04,30,06,00,AAXX 30061 33837 32984 60507 10142 20084 30243 40294 53011 82031 333 20122 555 10022=
33837,2024,04,30,09,00,AAXX 30091 33837 42983 30606 10163 20088 30246 40297 51003 80001==
33837,2024,04,30,12,00,AAXX 30121 33837 32984 30603 10179 20095 30233 40283 58013 80001 555 1/040=
33837,2024,04,30,15,00,AAXX 30151 33837 42983 50703 10172 20084 30216 40267 57017 80001==
33837,2024,04,30,18,00,AAXX 30181 33837 32984 80503 10160 20087 30213 40264 56003 83031 333 10180 555 1/012=
33837,2024,04,30,21,00,AAXX 30211 33837 42984 20204 10143 20066 30209 40260 57004 80001==
33837,2024,05,01,00,00,AAXX 01001 33837 32983 00402 10121 20076 30203 40254 57006 555 1/009=
33837,2024,05,01,03,00,AAXX 01031 33837 42982 20303 10104 20062 30198 40250 57005 80001 333 55131==
33837,2024,05,01,06,00,AAXX 01061 33837 32970 00202 10165 20066 30198 40249 54000 333 20103 555 10023=
33837,2024,05,01,09,00,AAXX 01091 33837 42980 00504 10175 20073 30187 40237 58011==
33837,2024,05,01,12,00,AAXX 01121 33837 32980 20702 10201 20042 30163 40213 58024 80001 555 1/047=
33837,2024,05,01,15,00,AAXX 01151 33837 42983 30602 10203 20012 30145 40195 56018 80001==
33837,2024,05,01,18,00,AAXX 01181 33837 32984 50304 10173 20056 30134 40184 56011 80001 333 10209 555 1/015=
33837,2024,05,01,21,00,AAXX 01211 33837 42984 22601 10142 20068 30134 40185 54000 80001==
33837,2024,05,02,00,00,AAXX 02001 33837 32984 03001 10136 20069 30114 40165 58020 555 1/010=
33837,2024,05,02,03,00,AAXX 02031 33837 42984 03301 10128 20050 30104 40155 56010 333 55127==
33837,2024,05,02,06,00,AAXX 02061 33837 32983 20101 10180 20068 30098 40148 57006 80001 333 20125 555 10027=
33837,2024,05,02,09,00,AAXX 02091 33837 42977 00403 10214 20065 30090 40139 57008==
33837,2024,05,02,12,00,AAXX 02121 33837 32981 21101 10235 20012 30072 40121 58018 81031 555 1/053=
33837,2024,05,02,15,00,AAXX 02151 33837 42983 80301 10231 20014 30054 40103 57018 80001==
33837,2024,05,02,18,00,AAXX 02181 33837 32984 60203 10206 20033 30048 40097 56006 80004 333 10243 555 1/017=
33837,2024,05,02,21,00,AAXX 02211 33837 42/84 63602 10174 20057 30046 40096 57002 82034==
33837,2024,05,03,00,00,AAXX 03001 33837 32984 20000 10168 20038 30039 40089 58007 80001 555 1/012=
33837,2024,05,03,03,00,AAXX 03031 33837 42984 33301 10153 20047 30033 40083 57006 80001 333 55135==
33837,2024,05,03,06,00,AAXX 03061 33837 32980 23501 10200 20067 30036 40085 53003 80001 333 20151 555 10032=
33837,2024,05,03,09,00,AAXX 03091 33837 42581 20402 10225 20075 30036 40085 54000 82100==
33837,2024,05,03,12,00,AAXX 03121 33837 32581 31002 10227 20088 30023 40072 58013 83100 555 1/053=
33837,2024,05,03,15,00,AAXX 03151 33837 42/84 50000 10231 20041 30017 40066 56006 85030==
33837,2024,05,03,18,00,AAXX 03181 33837 32984 60000 10198 20062 30019 40068 53002 86030 333 10240 555 1/020=
33837,2024,05,03,21,00,AAXX 03211 33837 42/80 80806 10186 20126 30024 40073 52005 8805/==
33837,2024,05,04,00,00,AAXX 04001 33837 32982 60607 10156 20088 30033 40083 52009 86030 555 1/015=
33837,2024,05,04,03,00,AAXX 04031 33837 42583 60506 10139 20072 30043 40093 52010 82530 333 55136==
33837,2024,05,04,06,00,AAXX 04061 33837 32982 20609 10136 20060 30059 40109 53016 82030 333 20130 555 10024=
33837,2024,05,04,09,00,AAXX 04091 33837 42982 00707 10164 20071 30073 40123 52014==
33837,2024,05,04,12,00,AAXX 04121 33837 32980 00804 10175 20070 30078 40128 51005 555 1/044=
33837,2024,05,04,15,00,AAXX 04151 33837 42983 00604 10163 20078 30079 40129 52001==
33837,2024,05,04,18,00,AAXX 04181 33837 32983 00505 10157 20064 30092 40142 53013 333 10181 555 1/014=
33837,2024,05,04,21,00,AAXX 04211 33837 42984 00604 10141 20052 30106 40157 52014==
33837,2024,05,05,00,00,AAXX 05001 33837 32984 00604 10127 20058 30111 40162 51005 555 1/010=
33837,2024,05,05,03,00,AAXX 05031 33837 42984 00000 10084 20050 30116 40168 52005 333 55131==
33837,2024,05,05,06,00,AAXX 05061 33837 32980 01302 10143 20012 30128 40179 53012 333 20081 555 10027=
33837,2024,05,05,09,00,AAXX 05091 33837 42981 01402 10144 21017 30130 40181 51002==
33837,2024,05,05,12,00,AAXX 05121 33837 32583 31703 10148 21013 30119 40170 58011 81101 555 1/046=
33837,2024,05,05,15,00,AAXX 05151 33837 42984 02102 10150 21015 30106 40156 57013==
33837,2024,05,05,18,00,AAXX 05181 33837 32984 02503 10131 21005 30104 40155 56002 333 10156 555 1/012=
33837,2024,05,05,21,00,AAXX 05211 33837 42983 02605 10117 20024 30107 40158 53003==
33837,2024,05,06,00,00,AAXX 06001 33837 32984 02703 10114 20034 30098 40149 58009 555 1/009=
33837,2024,05,06,03,00,AAXX 06031 33837 42984 02602 10113 20021 30095 40146 56003 333 55141==
33837,2024,05,06,06,00,AAXX 06061 33837 32984 22404 10157 20038 30103 40153 53008 80001 333 20108 555 10029=
33837,2024,05,06,09,00,AAXX 06091 33837 42974 31805 10166 20113 30106 40156 51003 80001==
33837,2024,05,06,12,00,AAXX 06121 33837 32981 21904 10170 20108 30102 40152 58004 80001 555 1/046=
33837,2024,05,06,15,00,AAXX 06151 33837 42983 52202 10156 20069 30095 40145 57007 80001==
33837,2024,05,06,18,00,AAXX 06181 33837 32983 62302 10128 20079 30094 40145 56001 80001 333 10183 555 1/012=
33837,2024,05,06,21,00,AAXX 06211 33837 42979 02302 10124 20092 30087 40138 58007==
33837,2024,05,07,00,00,AAXX 07001 33837 32980 02401 10122 20096 30076 40127 57011 555 1/010=
33837,2024,05,07,03,00,AAXX 07031 33837 42/71 52403 10123 20100 30069 40120 57007 83031 333 55135==
33837,2024,05,07,06,00,AAXX 07061 33837 32480 72103 10146 20110 30070 40120 53001 85601 333 20121 555 10026=
33837,2024,05,07,09,00,AAXX 07091 33837 42976 02103 10162 20105 30066 40116 58004==
33837,2024,05,07,12,00,AAXX 07121 33837 32967 22103 10165 20108 30059 40109 57007 80001 555 1/045=
33837,2024,05,07,15,00,AAXX 07151 33837 42972 82104 10148 20112 30051 40101 57008 80004==
33837,2024,05,07,18,00,AAXX 07181 33837 32568 82503 10142 20115 30066 40116 53015 83534 333 10172 555 1/016=
33837,2024,05,07,21,00,AAXX 07211 33837 41459 83302 10134 20120 30073 40123 51007 78098 883//==
33837,2024,05,08,00,00,AAXX 08001 33837 /1461 83301 10129 30085 52012 70298 8653/ 555 1/013 69981=
33837,2024,05,08,03,00,AAXX 08031 33837 41482 80305 10118 20099 30106 40157 53021 78082 883// 333 55127 88919==
33837,2024,05,08,06,00,AAXX 08061 33837 11581 70204 10109 20076 30131 40182 52025 69982 72582 85350 333 20108 85930 555 11014=
33837,2024,05,08,09,00,AAXX 08091 33837 42/80 60403 10132 20049 30150 40201 51019 83031==
33837,2024,05,08,12,00,AAXX 08121 33837 32983 70604 10138 20052 30149 40200 58001 80004 555 1/038=
33837,2024,05,08,15,00,AAXX 08151 33837 42/83 60403 10142 20053 30150 40201 53001 85034==
33837,2024,05,08,18,00,AAXX 08181 33837 32984 50000 10115 20049 30158 40209 53008 83031 333 10150 555 1/011=
33837,2024,05,08,21,00,AAXX 08211 33837 42/84 53601 10119 20064 30160 40211 51002 85030==
33837,2024,05,09,00,00,AAXX 09001 33837 32983 60302 10119 20070 30164 40215 52004 86030 555 1/011=
33837,2024,05,09,03,00,AAXX 09031 33837 42/83 60101 10103 20066 30161 40212 58003 86030 333 55091==
33837,2024,05,09,06,00,AAXX 09061 33837 32569 60504 10126 20062 30169 40220 53008 82534 333 20098 555 10024=
33837,2024,05,09,09,00,AAXX 09091 33837 42577 60703 10158 20051 30172 40223 52003 81589==
33837,2024,05,09,12,00,AAXX 09121 33837 32983 51401 10166 20043 30161 40211 58011 82081 555 1/050=
33837,2024,05,09,15,00,AAXX 09151 33837 42984 20000 10169 20005 30150 40200 57011 80001==
33837,2024,05,09,18,00,AAXX 09181 33837 32984 60201 10146 20054 30154 40205 53004 83051 333 10177 555 1/013=
33837,2024,05,09,21,00,AAXX 09211 33837 42/84 30506 10132 20061 30168 40219 53014 82031==
33837,2024,05,10,00,00,AAXX 10001 33837 32984 00804 10136 20057 30172 40223 51004 555 1/011=
33837,2024,05,10,03,00,AAXX 10031 33837 42984 30000 10100 20069 30174 40226 52002 80001 333 55108==
33837,2024,05,10,06,00,AAXX 10061 33837 32980 00302 10144 20060 30182 40233 53008 333 20098 555 10029=
33837,2024,05,10,09,00,AAXX 10091 33837 42984 20902 10154 20069 30181 40232 58001 80001==
33837,2024,05,10,12,00,AAXX 10121 33837 32980 01502 10171 20007 30168 40218 58013 555 1/051=
33837,2024,05,10,15,00,AAXX 10151 33837 42984 00000 10175 21003 30148 40198 58020==
33837,2024,05,10,18,00,AAXX 10181 33837 32984 00000 10143 20016 30143 40194 56005 333 10181 555 1/013=
33837,2024,05,10,21,00,AAXX 10211 33837 42981 02701 10123 20038 30135 40186 57008==
33837,2024,05,11,00,00,AAXX 11001 33837 32984 02801 10111 20041 30124 40175 57011 555 1/009=
33837,2024,05,11,03,00,AAXX 11031 33837 42984 23001 10115 20047 30115 40166 57009 80001 333 55140==
33837,2024,05,11,06,00,AAXX 11061 33837 32981 33201 10191 20045 30106 40156 57009 80001 333 20110 555 10033=
33837,2024,05,11,09,00,AAXX 11091 33837 42579 53301 10232 20032 30092 40141 58014 83101==
33837,2024,05,11,12,00,AAXX 11121 33837 32581 83202 10213 20035 30082 40131 57010 82161 555 1/034=
33837,2024,05,11,15,00,AAXX 11151 33837 41483 83201 10209 20049 30074 40123 57008 78082 85361==
33837,2024,05,11,18,00,AAXX 11181 33837 11583 83302 10183 20058 30081 40131 53007 69902 70282 82451 333 10239 555 1/017=
33837,2024,05,11,21,00,AAXX 11211 33837 42/84 83001 10157 20056 30089 40139 52008 85051==
33837,2024,05,12,00,00,AAXX 12001 33837 32984 50203 10136 20050 30098 40149 52009 82031 555 1/011=
33837,2024,05,12,03,00,AAXX 12031 33837 42584 70303 10113 20028 30115 40166 53017 82451 333 55100==
33837,2024,05,12,06,00,AAXX 12061 33837 32981 50506 10123 20019 30128 40179 52013 80001 333 20108 555 10026=
33837,2024,05,12,09,00,AAXX 12091 33837 42583 70103 10169 20017 30132 40182 51004 82164==
33837,2024,05,12,12,00,AAXX 12121 33837 32580 63602 10183 20022 30129 40179 58003 82104 555 1/049=
33837,2024,05,12,15,00,AAXX 12151 33837 42583 73401 10158 20004 30124 40174 57005 85104==
33837,2024,05,12,18,00,AAXX 12181 33837 32584 30303 10127 20014 30130 40181 53006 82401 333 10183 555 1/012=
33837,2024,05,12,21,00,AAXX 12211 33837 42984 33601 10100 20028 30135 40186 52005 80001==
33837,2024,05,13,00,00,AAXX 13001 33837 32984 03302 10092 20011 30136 40188 52001 555 1/007=
33837,2024,05,13,03,00,AAXX 13031 33837 42/84 83301 10093 20019 30136 40188 54000 86051 333 55131==
33837,2024,05,13,06,00,AAXX 13061 33837 11583 83201 10098 20029 30139 40191 53003 69902 72511 83361 333 20088 555 11016=
33837,2024,05,13,09,00,AAXX 13091 33837 42582 70105 10152 20010 30133 40184 58006 83861==
33837,2024,05,13,12,00,AAXX 13121 33837 /1584 83401 10139 20022 30126 40177 57007 72522 8535/ 555 1/024 69901=
33837,2024,05,13,15,00,AAXX 13151 33837 41584 73301 10129 20019 30119 40170 57007 72582 83361==
33837,2024,05,13,18,00,AAXX 13181 33837 11584 63301 10105 20016 30125 40176 53006 69902 70282 83461 333 10157 555 1/009=
33837,2024,05,13,21,00,AAXX 13211 33837 42/84 60000 10084 20013 30123 40175 58002 86030==
33837,2024,05,14,00,00,AAXX 14001 33837 32984 33302 10078 20001 30112 40164 58011 82031 555 1/005=
33837,2024,05,14,03,00,AAXX 14031 33837 42683 73202 10065 20002 30103 40155 57009 83551 333 55044 83636==
33837,2024,05,14,06,00,AAXX 14061 33837 11663 83302 10085 20031 30105 40157 53002 69902 70281 8655/ 333 20061 86638 555 11013=
33837,2024,05,14,09,00,AAXX 14091 33837 41460 83301 10095 20062 30103 40154 58002 78082 883//==
33837,2024,05,14,12,00,AAXX 14121 33837 /1584 70303 10139 20065 30105 40156 53002 72582 86330 333 86926 555 1/026 69901=
33837,2024,05,14,15,00,AAXX 14151 33837 41682 80407 10116 20059 30121 40172 53016 70282 8533/ 333 85935==
33837,2024,05,14,18,00,AAXX 14181 33837 11584 80406 10111 20050 30137 40188 52016 69902 70282 8635/ 333 10140 86928 555 1/011=
33837,2024,05,14,21,00,AAXX 14211 33837 42584 83301 10098 20050 30145 40197 51008 8555/==
33837,2024,05,15,00,00,AAXX 15001 33837 32584 83301 10103 20024 30141 40192 58004 8655/ 555 1/009=
33837,2024,05,15,03,00,AAXX 15031 33837 42584 83203 10098 20029 30143 40195 53002 8555/ 333 55016==
33837,2024,05,15,06,00,AAXX 15061 33837 32981 23601 10139 20037 30154 40205 53011 80001 333 20095 555 10029=
33837,2024,05,15,09,00,AAXX 15091 33837 42981 23602 10179 20014 30153 40203 58001 80001==
33837,2024,05,15,12,00,AAXX 15121 33837 32582 63601 10176 20012 30152 40202 57001 82150 555 1/035=
33837,2024,05,15,15,00,AAXX 15151 33837 42584 70000 10159 20063 30153 40203 53001 82550==
33837,2024,05,15,18,00,AAXX 15181 33837 32984 70000 10124 20069 30158 40209 52005 87050 333 10191 555 1/012=
33837,2024,05,15,21,00,AAXX 15211 33837 42/84 20000 10120 20035 30163 40214 52005 82030==
33837,2024,05,16,00,00,AAXX 16001 33837 32984 60604 10120 20075 30168 40219 52005 86050 555 1/010=
33837,2024,05,16,03,00,AAXX 16031 33837 42/83 70302 10105 20074 30172 40223 52004 87050 333 55071==
33837,2024,05,16,06,00,AAXX 16061 33837 32980 60503 10124 20071 30184 40235 53012 85031 333 20105 555 10027=
33837,2024,05,16,09,00,AAXX 16091 33837 42583 51302 10150 20087 30192 40243 52008 83201==
33837,2024,05,16,12,00,AAXX 16121 33837 32580 51502 10154 20074 30187 40238 58005 83230 555 1/050=
33837,2024,05,16,15,00,AAXX 16151 33837 42584 51602 10152 20065 30182 40233 57005 85200==
33837,2024,05,16,18,00,AAXX 16181 33837 32584 61801 10129 20067 30187 40238 53005 83430 333 10157 555 1/013=
33837,2024,05,16,21,00,AAXX 16211 33837 42/84 30000 10112 20086 30183 40234 58004 83030==
33837,2024,05,17,00,00,AAXX 17001 33837 32979 00000 10098 20086 30182 40234 57001 555 1/008=
33837,2024,05,17,03,00,AAXX 17031 33837 42980 30000 10102 20090 30183 40235 53001 80001 333 55135==
33837,2024,05,17,06,00,AAXX 17061 33837 32984 00402 10141 20089 30186 40237 52003 333 20096 555 10030=
33837,2024,05,17,09,00,AAXX 17091 33837 42584 31301 10162 20089 30186 40237 54000 82230==
33837,2024,05,17,12,00,AAXX 17121 33837 32581 31803 10169 20075 30176 40226 58010 81130 555 1/049=
33837,2024,05,17,15,00,AAXX 17151 33837 42/84 21802 10168 20051 30164 40214 57012 80030==
33837,2024,05,17,18,00,AAXX 17181 33837 32984 82502 10149 20018 30162 40213 56002 80001 333 10178 555 1/014=
33837,2024,05,17,21,00,AAXX 17211 33837 42/84 52701 10120 20054 30158 40209 57004 83031==
33837,2024,05,18,00,00,AAXX 18001 33837 32984 30000 10105 20079 30151 40202 57007 80001 555 1/008=
33837,2024,05,18,03,00,AAXX 18031 33837 42/79 82401 10106 20085 30153 40204 53002 85034 333 55136==
33837,2024,05,18,06,00,AAXX 18061 33837 32981 61502 10143 20113 30155 40206 52002 83055 333 20094 555 10028=
33837,2024,05,18,09,00,AAXX 18091 33837 42584 81502 10146 20104 30164 40215 53009 8355/==
33837,2024,05,18,12,00,AAXX 18121 33837 32984 82001 10152 20096 30157 40208 58007 83059 555 1/024=
33837,2024,05,18,15,00,AAXX 18151 33837 41484 82501 10136 20082 30149 40200 57008 78082 8635/==
33837,2024,05,18,18,00,AAXX 18181 33837 11583 80000 10118 20092 30142 40193 57007 69982 70282 8345/ 333 10163 555 1/012=
33837,2024,05,18,21,00,AAXX 18211 33837 42/84 60000 10115 20084 30142 40193 54000 86050==
33837,2024,05,19,00,00,AAXX 19001 33837 32981 22601 10096 20079 30135 40186 58007 80001 555 1/007=
33837,2024,05,19,03,00,AAXX 19031 33837 42966 00000 10087 20075 30133 40185 56002 333 55028==
33837,2024,05,19,06,00,AAXX 19061 33837 32576 20601 10138 20096 30144 40195 53011 82100 333 20085 555 11026=
33837,2024,05,19,09,00,AAXX 19091 33837 42981 01302 10168 20104 30143 40193 58001==
33837,2024,05,19,12,00,AAXX 19121 33837 32581 21702 10170 20092 30139 40189 57004 81101 555 1/049=
33837,2024,05,19,15,00,AAXX 19151 33837 42584 21802 10159 20082 30127 40177 58012 81101==
33837,2024,05,19,18,00,AAXX 19181 33837 32984 22201 10139 20085 30127 40178 54000 80001 333 10172 555 1/013=
33837,2024,05,19,21,00,AAXX 19211 33837 42984 01801 10134 20098 30124 40175 58003==
33837,2024,05,20,00,00,AAXX 20001 33837 32984 02301 10131 20103 30120 40171 57004 555 1/009=
33837,2024,05,20,03,00,AAXX 20031 33837 42977 30000 10111 20092 30124 40175 53004 80001 333 55145==
33837,2024,05,20,06,00,AAXX 20061 33837 32967 30801 10155 20124 30135 40185 53011 80001 333 20111 555 10032=
33837,2024,05,20,09,00,AAXX 20091 33837 42983 31603 10182 20101 30142 40192 52007 80001==
33837,2024,05,20,12,00,AAXX 20121 33837 32982 81805 10180 20109 30144 40194 51002 80004 555 1/047=
33837,2024,05,20,15,00,AAXX 20151 33837 42983 81802 10184 20089 30135 40185 58009 80004==
33837,2024,05,20,18,00,AAXX 20181 33837 32984 60000 10163 20062 30135 40185 54000 80001 333 10193 555 1/015=
33837,2024,05,20,21,00,AAXX 20211 33837 42983 32801 10140 20068 30139 40190 53004 80001==
33837,2024,05,21,00,00,AAXX 21001 33837 32980 30000 10136 20080 30139 40190 54000 80001 555 1/010=
33837,2024,05,21,03,00,AAXX 21031 33837 42980 50000 10122 20083 30143 40194 53004 80001 333 55148==
33837,2024,05,21,06,00,AAXX 21061 33837 32975 30401 10170 20108 30151 40201 53008 80001 333 20119 555 10032=
33837,2024,05,21,09,00,AAXX 21091 33837 42984 21001 10197 20090 30154 40204 51003 80001==
33837,2024,05,21,12,00,AAXX 21121 33837 32582 61502 10220 20078 30144 40193 58010 82204 555 1/054=
33837,2024,05,21,15,00,AAXX 21151 33837 42984 31802 10203 20135 30131 40180 57013 80001==
33837,2024,05,21,18,00,AAXX 21181 33837 32984 22101 10187 20089 30123 40173 56008 80001 333 10229 555 1/017=
33837,2024,05,21,21,00,AAXX 21211 33837 42983 00000 10156 20095 30125 40175 53002==
33837,2024,05,22,00,00,AAXX 22001 33837 32963 00401 10154 20139 30119 40169 58006 555 1/012=
33837,2024,05,22,03,00,AAXX 22031 33837 42983 20301 10165 20142 30112 40162 57007 80001 333 55136==
33837,2024,05,22,06,00,AAXX 22061 33837 32982 00902 10195 20139 30117 40167 53005 333 20148 555 10032=
33837,2024,05,22,09,00,AAXX 22091 33837 42582 21001 10208 20128 30118 40167 52001 82200==
33837,2024,05,22,12,00,AAXX 22121 33837 32583 31402 10226 20114 30104 40153 58014 82101 555 1/056=
33837,2024,05,22,15,00,AAXX 22151 33837 42983 20000 10215 20124 30091 40140 57013 80001==
33837,2024,05,22,18,00,AAXX 22181 33837 32983 20000 10185 20088 30089 40139 56002 80001 333 10235 555 1/018=
33837,2024,05,22,21,00,AAXX 22211 33837 42984 00000 10168 20115 30091 40141 53002==
33837,2024,05,23,00,00,AAXX 23001 33837 32984 00000 10151 20117 30083 40133 58008 555 1/012=
33837,2024,05,23,03,00,AAXX 23031 33837 42980 00101 10157 20091 30084 40134 53001 333 55145==
33837,2024,05,23,06,00,AAXX 23061 33837 32982 50704 10189 20110 30089 40139 52005 80001 333 20143 555 10030=
33837,2024,05,23,09,00,AAXX 23091 33837 42581 50901 10208 20135 30095 40144 52006 82101==
33837,2024,05,23,12,00,AAXX 23121 33837 32579 51001 10235 20102 30094 40143 58001 82101 555 1/056=
33837,2024,05,23,15,00,AAXX 23151 33837 42983 51501 10247 20034 30085 40134 58009 80001==
33837,2024,05,23,18,00,AAXX 23181 33837 32983 30000 10193 20057 30091 40141 53006 80001 333 10256 555 1/018=
33837,2024,05,23,21,00,AAXX 23211 33837 42984 00000 10169 20049 30100 40150 52009==
33837,2024,05,24,00,00,AAXX 24001 33837 32984 00000 10173 20071 30105 40155 52005 555 1/013=
33837,2024,05,24,03,00,AAXX 24031 33837 42981 03501 10178 20078 30112 40162 52007 333 55144==
33837,2024,05,24,06,00,AAXX 24061 33837 32975 00303 10206 20110 30128 40177 53016 333 20162 555 10033=
33837,2024,05,24,09,00,AAXX 24091 33837 42580 30505 10235 20122 30135 40184 51007 82130==
33837,2024,05,24,12,00,AAXX 24121 33837 32581 50803 10252 20110 30137 40186 51002 83230 555 1/054=
33837,2024,05,24,15,00,AAXX 24151 33837 42583 81602 10237 20089 30143 40192 52006 8635/==
33837,2024,05,24,18,00,AAXX 24181 33837 11583 60703 10207 20134 30153 40203 52010 69912 70298 82550 333 10255 555 1/020=
33837,2024,05,24,21,00,AAXX 24211 33837 42/83 30506 10193 20133 30159 40209 52006 83030==
33837,2024,05,25,00,00,AAXX 25001 33837 32983 50706 10185 20103 30160 40210 51001 82031 555 1/018=
33837,2024,05,25,03,00,AAXX 25031 33837 42/81 20608 10170 20082 30161 40211 52001 82030 333 55123==
33837,2024,05,25,06,00,AAXX 25061 33837 32979 20607 10177 20063 30168 40218 53007 82030 333 20167 555 10029=
33837,2024,05,25,09,00,AAXX 25091 33837 42/71 20704 10213 20113 30163 40212 58005 82030==
33837,2024,05,25,12,00,AAXX 25121 33837 32580 20904 10226 20097 30159 40208 57004 82100 555 1/049=
33837,2024,05,25,15,00,AAXX 25151 33837 42980 01801 10221 20063 30146 40195 58013==
33837,2024,05,25,18,00,AAXX 25181 33837 32983 02002 10192 20070 30151 40201 53005 333 10229 555 1/018=
33837,2024,05,25,21,00,AAXX 25211 33837 42983 02201 10171 20090 30153 40203 52002==
33837,2024,05,26,00,00,AAXX 26001 33837 32983 02901 10141 20083 30154 40205 51001 555 1/012=
33837,2024,05,26,03,00,AAXX 26031 33837 42982 03301 10162 20039 30151 40201 58003 333 55146==
33837,2024,05,26,06,00,AAXX 26061 33837 32974 00204 10202 20072 30151 40201 54000 333 20137 555 10032=
33837,2024,05,26,09,00,AAXX 26091 33837 42969 00804 10216 20082 30149 40198 58002==
33837,2024,05,26,12,00,AAXX 26121 33837 32572 60809 10199 20059 30155 40205 53006 82550 555 1/043=
33837,2024,05,26,15,00,AAXX 26151 33837 41580 80615 10166 20061 30153 40203 58002 78082 8635/==
33837,2024,05,26,18,00,AAXX 26181 33837 11583 80308 10166 20056 30150 40200 57003 69932 70282 8345/ 333 10219 91018 91121 555 1/016=
33837,2024,05,26,21,00,AAXX 26211 33837 41/84 80205 10159 20071 30147 40197 57003 70282 8805/==
33837,2024,05,27,00,00,AAXX 27001 33837 /1583 83504 10131 20105 30145 40196 57002 78082 8635/ 555 1/013 60011=
33837,2024,05,27,03,00,AAXX 27031 33837 41/84 83302 10139 20083 30139 40190 57006 70282 8805/ 333 55106==
33837,2024,05,27,06,00,AAXX 27061 33837 11584 83501 10140 20108 30140 40191 53001 60022 78082 8535/ 333 20126 555 11015=
33837,2024,05,27,09,00,AAXX 27091 33837 41580 80304 10181 20095 30135 40185 58005 70282 8355/==
33837,2024,05,27,12,00,AAXX 27121 33837 /1580 60506 10198 20100 30127 40177 57008 70282 82551 555 1/030 69901=
33837,2024,05,27,15,00,AAXX 27151 33837 42582 60702 10194 20101 30118 40168 57009 82531==
33837,2024,05,27,18,00,AAXX 27181 33837 11562 80904 10174 20143 30116 40166 56002 69952 71798 8695/ 333 10203 86922 555 1/017=
33837,2024,05,27,21,00,AAXX 27211 33837 41665 80507 10174 20125 30113 40163 57003 70298 8655/ 333 86637==
33837,2024,05,28,00,00,AAXX 28001 33837 /1466 80706 10164 20128 30107 40157 57006 72598 883// 333 88911 555 1/015 60011=
33837,2024,05,28,03,00,AAXX 28031 33837 41568 70605 10165 20121 30106 40156 56001 70282 85561 333 55031 85628==
33837,2024,05,28,06,00,AAXX 28061 33837 11563 80805 10171 20138 30108 40158 53002 60012 70282 85531 333 20161 555 11021=
33837,2024,05,28,09,00,AAXX 28091 33837 42561 80902 10191 20146 30109 40159 52001 8553/==
33837,2024,05,28,12,00,AAXX 28121 33837 32561 80000 10207 20119 30096 40145 58013 83534 555 1/038=
33837,2024,05,28,15,00,AAXX 28151 33837 41562 80000 10217 20139 30077 40126 58019 72582 8633/==
33837,2024,05,28,18,00,AAXX 28181 33837 11561 80000 10196 20146 30072 40121 56005 69902 78082 8635/ 333 10223 555 1/020=
33837,2024,05,28,21,00,AAXX 28211 33837 41565 82601 10184 20156 30067 40116 57005 72582 8635/==
33837,2024,05,29,00,00,AAXX 29001 33837 /1524 82802 10159 20143 30064 40114 57003 79598 883// 555 1/016 60061=
33837,2024,05,29,03,00,AAXX 29031 33837 41565 83102 10150 20140 30053 40103 58011 72598 8635/ 333 55055==
33837,2024,05,29,06,00,AAXX 29061 33837 11462 80000 10175 20165 30057 40107 53004 60282 70298 8695/ 333 20149 86910 555 11021=
33837,2024,05,29,09,00,AAXX 29091 33837 41571 71803 10187 20156 30058 40107 52001 70282 86550 333 86622==
33837,2024,05,29,12,00,AAXX 29121 33837 /1581 51803 10199 20155 30054 40103 58004 70282 81260 555 1/034 69931=
33837,2024,05,29,15,00,AAXX 29151 33837 42583 22003 10181 20132 30051 40100 57003 81260==
33837,2024,05,29,18,00,AAXX 29181 33837 12582 22103 10163 20134 30055 40105 53004 69932 82400 333 10204 555 1/016=
33837,2024,05,29,21,00,AAXX 29211 33837 42480 51902 10161 20138 30052 40102 58003 85600 333 85713==
33837,2024,05,30,00,00,AAXX 30001 33837 32469 62101 10165 20147 30048 40098 57004 86500 333 86710 555 1/016=
33837,2024,05,30,03,00,AAXX 30031 33837 42467 52201 10165 20145 30049 40099 53001 85600 333 55086 85713==
33837,2024,05,30,06,00,AAXX 30061 33837 32368 81704 10184 20153 30056 40105 53007 86501 333 20160 86707 555 11024=
33837,2024,05,30,09,00,AAXX 30091 33837 41577 81704 10188 20151 30062 40111 52006 70282 84451==
33837,2024,05,30,12,00,AAXX 30121 33837 /1481 71903 10175 20140 30069 40119 52007 72582 86350 333 86910 555 1/023 69901=
33837,2024,05,30,15,00,AAXX 30151 33837 41568 61604 10176 20151 30058 40108 58011 70282 82450==
33837,2024,05,30,18,00,AAXX 30181 33837 11460 61902 10167 20151 30058 40108 54000 69912 70282 84651 333 10191 84710 555 1/017=
33837,2024,05,30,21,00,AAXX 30211 33837 41159 81803 10167 20156 30064 40114 53006 71022 886// 333 88703==
33837,2024,05,31,00,00,AAXX 31001 33837 31257 61702 10165 20154 30065 40115 51001 71022 86600 333 86703 555 1/016=
33837,2024,05,31,03,00,AAXX 31031 33837 41257 51802 10163 20150 30065 40115 54000 71022 83601 333 55061 83704==
33837,2024,05,31,06,00,AAXX 31061 33837 32264 81504 10184 20162 30079 40128 53014 8267/ 333 20159 82704 555 11028=
33837,2024,05,31,09,00,AAXX 31091 33837 42566 51704 10192 20162 30088 40137 51009 83201==
33837,2024,05,31,12,00,AAXX 31121 33837 32969 01804 10198 20161 30090 40139 51002 555 1/039=
33837,2024,05,31,15,00,AAXX 31151 33837 42983 31903 10199 20143 30084 40133 58006 80001==
33837,2024,05,31,18,00,AAXX 31181 33837 32974 62003 10179 20146 30092 40142 53008 83074 333 10202 555 1/018=
33837,2024,05,31,21,00,AAXX 31211 33837 41256 82102 10177 20164 30095 40145 51003 71022 82604 333 82706==
33837,2024,06,01,00,00,AAXX 01001 33837 31137 62001 10175 20164 30094 40144 58001 71022 86600 333 86703 555 1/016=
33837,2024,06,01,03,00,AAXX 01031 33837 41957 22001 10175 20164 30096 40146 53002 71011 80001 333 55127==
33837,2024,06,01,06,00,AAXX 01061 33837 32966 21902 10203 20167 30109 40158 53013 80001 333 20172 555 10030=
33837,2024,06,01,09,00,AAXX 01091 33837 42970 01805 10207 20169 30116 40165 51007==
33837,2024,06,01,12,00,AAXX 01121 33837 32972 21805 10211 20173 30116 40165 54000 80001 555 1/041=
33837,2024,06,01,15,00,AAXX 01151 33837 42972 32003 10206 20166 30110 40159 58006 80001==
33837,2024,06,01,18,00,AAXX 01181 33837 32972 22102 10193 20160 30107 40156 57003 80001 333 10222 555 1/019=
33837,2024,06,01,21,00,AAXX 01211 33837 42/65 32102 10188 20160 30108 40158 53001 82031==
33837,2024,06,02,00,00,AAXX 02001 33837 32966 02102 10186 20158 30106 40156 58002 555 1/017=
33837,2024,06,02,03,00,AAXX 02031 33837 42/67 52103 10193 20160 30094 40143 58012 83051 333 55140==
33837,2024,06,02,06,00,AAXX 02061 33837 32567 72203 10202 20166 30100 40149 53006 85550 333 20186 555 10023=
33837,2024,06,02,09,00,AAXX 02091 33837 42568 51804 10231 20178 30100 40149 54000 82260==
33837,2024,06,02,12,00,AAXX 02121 33837 32566 51904 10220 20180 30093 40142 58007 81104 555 1/044=
33837,2024,06,02,15,00,AAXX 02151 33837 42972 62002 10221 20173 30085 40134 57008 80004==
33837,2024,06,02,18,00,AAXX 02181 33837 32973 62301 10208 20166 30085 40134 54000 82031 333 10252 555 1/021=
33837,2024,06,02,21,00,AAXX 02211 33837 42976 22502 10204 20162 30085 40134 54000 80001==
33837,2024,06,03,00,00,AAXX 03001 33837 32982 02802 10196 20153 30084 40133 58001 555 1/017=
33837,2024,06,03,03,00,AAXX 03031 33837 42980 03201 10190 20159 30089 40138 53005 333 55113==
33837,2024,06,03,06,00,AAXX 03061 33837 32978 20101 10250 20162 30096 40144 52007 80001 333 20180 555 10035=
33837,2024,06,03,09,00,AAXX 03091 33837 42984 20302 10285 20136 30101 40149 52005 80001==
33837,2024,06,03,12,00,AAXX 03121 33837 32583 61804 10263 20160 30097 40145 58004 82104 555 1/051=
33837,2024,06,03,15,00,AAXX 03151 33837 42984 32003 10267 20108 30088 40136 58009 80001==
33837,2024,06,03,18,00,AAXX 03181 33837 32984 62203 10250 20108 30089 40138 53001 82031 333 10291 555 1/023=
33837,2024,06,03,21,00,AAXX 03211 33837 41582 82503 10230 20146 30087 40136 58002 78082 8535/==
33837,2024,06,04,00,00,AAXX 04001 33837 /1458 80301 10196 20166 30071 40120 58016 79198 8635/ 555 1/020 60021=
33837,2024,06,04,03,00,AAXX 04031 33837 41566 82002 10199 20169 30077 40126 53006 70282 8556/ 333 55142==
33837,2024,06,04,06,00,AAXX 04061 33837 11981 81703 10221 20177 30086 40135 52009 60022 70282 82034 333 20193 555 11030=
33837,2024,06,04,09,00,AAXX 04091 33837 42568 81903 10223 20183 30089 40138 51003 85534==
33837,2024,06,04,12,00,AAXX 04121 33837 /1561 81701 10209 20177 30091 40140 52002 78082 8635/ 555 1/023 60011=
33837,2024,06,04,15,00,AAXX 04151 33837 41581 81403 10212 20170 30066 40115 58025 70282 8555/==
33837,2024,06,04,18,00,AAXX 04181 33837 11583 70000 10213 20156 30072 40121 53006 60022 78082 85330 333 10231 555 1/019=
33837,2024,06,04,21,00,AAXX 04211 33837 41571 81502 10197 20175 30077 40126 52005 78082 8635/==
33837,2024,06,05,00,00,AAXX 05001 33837 /1582 51204 10209 20173 30058 40107 58019 72582 85500 555 1/018 69931=
33837,2024,06,05,03,00,AAXX 05031 33837 42/81 21602 10200 20174 30062 40111 53004 80030 333 55062==
33837,2024,06,05,06,00,AAXX 05061 33837 12578 51502 10224 20175 30064 40113 52002 69932 83101 333 20189 555 11029=
33837,2024,06,05,09,00,AAXX 05091 33837 42981 21603 10236 20159 30065 40114 52001 80001==
33837,2024,06,05,12,00,AAXX 05121 33837 32580 61704 10236 20171 30058 40106 58007 82104 555 1/046=
33837,2024,06,05,15,00,AAXX 05151 33837 42582 63102 10280 20150 30050 40098 57008 83204==
33837,2024,06,05,18,00,AAXX 05181 33837 32983 63101 10249 20135 30059 40107 53009 80001 333 10284 555 1/024=
33837,2024,06,05,21,00,AAXX 05211 33837 42/84 53101 10224 20126 30074 40123 53015 82031==
33837,2024,06,06,00,00,AAXX 06001 33837 32983 23102 10218 20132 30078 40127 51004 82030 555 1/019=
33837,2024,06,06,03,00,AAXX 06031 33837 42/84 63301 10203 20130 30087 40136 52009 83039 333 55143==
33837,2024,06,06,06,00,AAXX 06061 33837 32981 70000 10229 20142 30104 40153 53017 86054 333 20199 555 10027=
33837,2024,06,06,09,00,AAXX 06091 33837 42/82 80000 10243 20147 30112 40161 51008 85051==
33837,2024,06,06,12,00,AAXX 06121 33837 32583 61803 10231 20162 30109 40158 58003 84351 555 1/033=
33837,2024,06,06,15,00,AAXX 06151 33837 41470 82002 10240 20173 30100 40149 58009 79598 86951==
33837,2024,06,06,18,00,AAXX 06181 33837 11583 32602 10219 20166 30106 40155 53006 60052 70298 82431 333 10259 555 1/021=
33837,2024,06,06,21,00,AAXX 06211 33837 42/84 52801 10204 20168 30116 40165 52010 84051==
33837,2024,06,07,00,00,AAXX 07001 33837 32983 22802 10196 20166 30118 40167 51002 80001 555 1/017=
33837,2024,06,07,03,00,AAXX 07031 33837 42/81 32801 10193 20148 30121 40171 52003 82031 333 55078==
33837,2024,06,07,06,00,AAXX 07061 33837 32982 03501 10268 20164 30126 40174 52005 333 20186 555 10030=
33837,2024,06,07,09,00,AAXX 07091 33837 42577 21402 10270 20186 30127 40175 52001 82100==
33837,2024,06,07,12,00,AAXX 07121 33837 32577 32002 10272 20142 30117 40165 58010 83200 555 1/047=
33837,2024,06,07,15,00,AAXX 07151 33837 42583 32202 10274 20118 30104 40152 57013 82230==
33837,2024,06,07,18,00,AAXX 07181 33837 32983 62402 10250 20123 30101 40150 56003 83034 333 10283 555 1/023=
33837,2024,06,07,21,00,AAXX 07211 33837 42984 32702 10221 20152 30103 40152 53002 80001==
33837,2024,06,08,00,00,AAXX 08001 33837 32984 60000 10223 20149 30102 40151 58001 86030 555 1/021=
33837,2024,06,08,03,00,AAXX 08031 33837 41578 82902 10209 20152 30094 40143 58008 78082 8635/ 333 55140==
33837,2024,06,08,06,00,AAXX 08061 33837 11580 80302 10215 20177 30098 40147 53004 60012 70282 85364 333 20180 555 11026=
33837,2024,06,08,09,00,AAXX 08091 33837 41584 82701 10240 20147 30096 40145 58002 70282 83554==
33837,2024,06,08,12,00,AAXX 08121 33837 /1581 61002 10241 20151 30084 40133 58012 70282 82231 555 1/047 69901=
33837,2024,06,08,15,00,AAXX 08151 33837 42582 61801 10247 20145 30076 40124 57008 82234==
33837,2024,06,08,18,00,AAXX 08181 33837 11469 82702 10226 20150 30080 40129 53004 69912 79598 889// 333 10250 555 1/022=
33837,2024,06,08,21,00,AAXX 08211 33837 41584 62902 10196 20144 30076 40125 58004 70298 82531==
33837,2024,06,09,00,00,AAXX 09001 33837 /1978 33001 10184 20156 30078 40127 53002 70298 80001 555 1/016 69961=
33837,2024,06,09,03,00,AAXX 09031 33837 42/81 53101 10176 20152 30074 40124 58004 83031 333 55048==
33837,2024,06,09,06,00,AAXX 09061 33837 12982 00402 10220 20158 30068 40117 57006 69962 333 20173 555 11031=
33837,2024,06,09,09,00,AAXX 09091 33837 42981 01401 10236 20161 30072 40121 53004==
33837,2024,06,09,12,00,AAXX 09121 33837 32582 71804 10241 20185 30064 40112 58008 82204 555 1/050=
33837,2024,06,09,15,00,AAXX 09151 33837 42984 72102 10249 20150 30055 40103 57009 80004==
33837,2024,06,09,18,00,AAXX 09181 33837 32584 52101 10229 20187 30056 40105 53001 82501 333 10258 555 1/023=
33837,2024,06,09,21,00,AAXX 09211 33837 42981 52301 10225 20195 30061 40110 52005 80001==
33837,2024,06,10,00,00,AAXX 10001 33837 32981 62401 10225 20191 30053 40102 58008 82034 555 1/022=
33837,2024,06,10,03,00,AAXX 10031 33837 41/82 52101 10219 20171 30051 40100 56002 70282 82039 333 55143==
33837,2024,06,10,06,00,AAXX 10061 33837 11569 72104 10246 20197 30054 40102 53003 69932 70282 85534 333 20216 555 11034=
33837,2024,06,10,09,00,AAXX 10091 33837 42583 31804 10247 20195 30059 40107 52005 81101==
33837,2024,06,10,12,00,AAXX 10121 33837 32574 61903 10252 20186 30055 40103 58004 82101 555 1/048=
33837,2024,06,10,15,00,AAXX 10151 33837 42/79 81904 10237 20192 30050 40098 57005 85059==
33837,2024,06,10,18,00,AAXX 10181 33837 32974 82002 10222 20190 30042 40091 57008 83034 333 10260 555 1/023=
33837,2024,06,10,21,00,AAXX 10211 33837 42/76 82103 10227 20191 30045 40094 53003 86051==
33837,2024,06,11,00,00,AAXX 11001 33837 32981 52104 10223 20185 30038 40087 58007 82031 555 1/021=
33837,2024,06,11,03,00,AAXX 11031 33837 41/68 81101 10219 20179 30041 40090 53003 70282 83034 333 55119==
33837,2024,06,11,06,00,AAXX 11061 33837 11567 81804 10221 20189 30038 40087 58003 69902 70282 83534 333 20207 555 10028=
33837,2024,06,11,09,00,AAXX 11091 33837 42563 31705 10237 20194 30046 40094 53008 82530==
33837,2024,06,11,12,00,AAXX 11121 33837 32576 31804 10244 20192 30042 40090 58004 82509 555 1/048=
33837,2024,06,11,15,00,AAXX 11151 33837 42565 81904 10226 20192 30033 40081 58009 86504==
33837,2024,06,11,18,00,AAXX 11181 33837 31565 82202 10228 20192 30032 40080 56001 71711 8636/ 333 10251 555 1/024=
33837,2024,06,11,21,00,AAXX 11211 33837 41561 61902 10214 20199 30029 40078 57003 70298 85530==
33837,2024,06,12,00,00,AAXX 12001 33837 /1456 70000 10217 20202 30032 40081 53003 71098 87600 333 87711 555 1/022 60011=
33837,2024,06,12,03,00,AAXX 12031 33837 42/80 23001 10191 20178 30040 40089 53008 80030 333 55103==
33837,2024,06,12,06,00,AAXX 12061 33837 12960 53001 10228 20170 30055 40104 53015 60012 80001 333 20190 555 11031=
33837,2024,06,12,09,00,AAXX 12091 33837 42583 53104 10258 20161 30063 40111 51008 85100 333 85828==
33837,2024,06,12,12,00,AAXX 12121 33837 32583 53302 10269 20150 30066 40114 52003 85100 333 85832 555 1/051=
33837,2024,06,12,15,00,AAXX 12151 33837 42584 53202 10258 20136 30070 40118 52004 83260==
33837,2024,06,12,18,00,AAXX 12181 33837 32984 53201 10237 20136 30077 40126 52007 80001 333 10289 555 1/023=
33837,2024,06,12,21,00,AAXX 12211 33837 42983 00000 10206 20136 30095 40144 53018==
33837,2024,06,13,00,00,AAXX 13001 33837 32984 00000 10192 20138 30094 40143 58001 555 1/018=
33837,2024,06,13,03,00,AAXX 13031 33837 42984 00000 10185 20157 30101 40151 53007 333 55143==
33837,2024,06,13,06,00,AAXX 13061 33837 32979 00801 10223 20163 30106 40155 52005 333 20180 555 10033=
33837,2024,06,13,09,00,AAXX 13091 33837 42/80 51303 10244 20159 30104 40153 58002 82052==
33837,2024,06,13,12,00,AAXX 13121 33837 /1418 80000 10187 20169 30110 40160 53006 78281 883// 555 1/022 60101=
33837,2024,06,13,15,00,AAXX 13151 33837 41582 61302 10191 20167 30099 40148 58011 70298 82461==
33837,2024,06,13,18,00,AAXX 13181 33837 11484 80803 10195 20165 30089 40138 57010 60232 70298 86461 333 10247 86711 555 1/020=
33837,2024,06,13,21,00,AAXX 13211 33837 42281 80302 10184 20167 30082 40131 57007 886// 333 88705==
33837,2024,06,14,00,00,AAXX 14001 33837 32381 80402 10176 20156 30076 40126 57006 8565/ 333 85707 555 1/017=
33837,2024,06,14,03,00,AAXX 14031 33837 42384 81203 10193 20167 30064 40113 58012 886// 333 55087 88709==
33837,2024,06,14,06,00,AAXX 14061 33837 11582 80402 10200 20166 30058 40107 57006 69902 78082 883// 333 20176 555 11021=
33837,2024,06,14,09,00,AAXX 14091 33837 41566 80101 10188 20171 30057 40106 56001 72582 8636/==
33837,2024,06,14,12,00,AAXX 14121 33837 /1582 80304 10204 20166 30043 40092 58014 70282 8546/ 555 1/023 60011=
33837,2024,06,14,15,00,AAXX 14151 33837 41583 80102 10218 20172 30034 40083 57009 72582 85364==
33837,2024,06,14,18,00,AAXX 14181 33837 11583 83401 10195 20160 30032 40081 56002 60012 72582 85364 333 10219 555 1/019=
33837,2024,06,14,21,00,AAXX 14211 33837 41583 83302 10187 20161 30035 40084 53003 72582 8657/==
33837,2024,06,15,00,00,AAXX 15001 33837 /1484 83202 10180 20154 30019 40068 58016 78082 883// 555 1/017 69901=
33837,2024,06,15,03,00,AAXX 15031 33837 41435 83103 10172 20159 30015 40064 56004 78182 883// 333 55005==
33837,2024,06,15,06,00,AAXX 15061 33837 11450 83202 10177 20166 30012 40061 57003 60152 78082 883// 333 20170 555 11020=
33837,2024,06,15,09,00,AAXX 15091 33837 41444 83202 10190 20178 30016 40065 53004 78088 883//==
33837,2024,06,15,12,00,AAXX 15121 33837 /1476 83202 10215 20181 30018 40067 52002 72582 8636/ 333 86915 555 1/026 60071=
33837,2024,06,15,15,00,AAXX 15151 33837 41364 83203 10195 20180 30022 40071 52004 78082 883//==
33837,2024,06,15,18,00,AAXX 15181 33837 11577 63102 10197 20169 30026 40075 52004 60242 70282 84460 333 10217 84631 555 1/019=
33837,2024,06,15,21,00,AAXX 15211 33837 42482 53105 10189 20160 30025 40074 58001 84601 333 84716==
33837,2024,06,16,00,00,AAXX 16001 33837 32477 63102 10186 20164 30023 40072 57002 86500 333 86715 555 1/017=
33837,2024,06,16,03,00,AAXX 16031 33837 42483 73102 10184 20162 30022 40071 57001 86551 333 55003 86712==
33837,2024,06,16,06,00,AAXX 16061 33837 32482 83202 10195 20165 30027 40076 53005 8667/ 333 20182 86712 555 11020=
33837,2024,06,16,09,00,AAXX 16091 33837 41460 83102 10190 20173 30032 40081 52005 78082 883//==
33837,2024,06,16,12,00,AAXX 16121 33837 /1584 73202 10239 20179 30032 40080 54000 70282 86460 333 86624 555 1/031 69931=
33837,2024,06,16,15,00,AAXX 16151 33837 42584 53301 10239 20169 30030 40078 58002 83460==
33837,2024,06,16,18,00,AAXX 16181 33837 12584 53001 10215 20173 30040 40089 53010 69932 82460 333 10252 555 1/020=
33837,2024,06,16,21,00,AAXX 16211 33837 42982 03001 10194 20166 30050 40099 52010==
33837,2024,06,17,00,00,AAXX 17001 33837 32981 00000 10182 20160 30055 40104 52005 555 1/016=
33837,2024,06,17,03,00,AAXX 17031 33837 42968 02801 10174 20161 30066 40116 53011 333 55064==
33837,2024,06,17,06,00,AAXX 17061 33837 32983 03601 10224 20180 30073 40122 52007 333 20172 555 11025=
33837,2024,06,17,09,00,AAXX 17091 33837 42662 61502 10238 20191 30084 40133 52011 85101 333 85839==
33837,2024,06,17,12,00,AAXX 17121 33837 32684 51804 10246 20197 30083 40131 58001 83201 555 1/038=
33837,2024,06,17,15,00,AAXX 17151 33837 42683 72402 10244 20176 30088 40136 53005 85464==
33837,2024,06,17,18,00,AAXX 17181 33837 31583 62502 10227 20172 30098 40147 52010 70292 83461 333 10257 555 1/022=
33837,2024,06,17,21,00,AAXX 17211 33837 42981 32801 10207 20165 30108 40157 52010 80001==
33837,2024,06,18,00,00,AAXX 18001 33837 32984 20000 10198 20157 30114 40163 52006 80001 555 1/018=
33837,2024,06,18,03,00,AAXX 18031 33837 42984 02901 10199 20162 30120 40169 52006 333 55124==
33837,2024,06,18,06,00,AAXX 18061 33837 32980 03501 10265 20181 30132 40180 53012 333 20191 555 11034=
33837,2024,06,18,09,00,AAXX 18091 33837 42684 51502 10264 20172 30138 40186 51006 85200==
33837,2024,06,18,12,00,AAXX 18121 33837 32682 31803 10268 20176 30135 40183 58003 83200 555 1/050=
33837,2024,06,18,15,00,AAXX 18151 33837 42684 22002 10260 20165 30129 40177 57006 82201==
33837,2024,06,18,18,00,AAXX 18181 33837 32984 62402 10256 20156 30134 40183 53005 80004 333 10280 555 1/024=
33837,2024,06,18,21,00,AAXX 18211 33837 42980 30000 10217 20175 30142 40191 52008 80001==
33837,2024,06,19,00,00,AAXX 19001 33837 32983 03201 10205 20161 30138 40187 58004 555 1/018=
33837,2024,06,19,03,00,AAXX 19031 33837 42980 00000 10206 20156 30140 40189 53002 333 55149==
33837,2024,06,19,06,00,AAXX 19061 33837 32983 00401 10244 20161 30147 40196 52007 333 20201 555 10036=
33837,2024,06,19,09,00,AAXX 19091 33837 42582 11602 10273 20150 30150 40198 52003 81100==
33837,2024,06,19,12,00,AAXX 19121 33837 32582 21804 10257 20142 30139 40188 58011 81101 555 1/053=
33837,2024,06,19,15,00,AAXX 19151 33837 42984 31902 10285 20120 30129 40177 57010 80001==
33837,2024,06,19,18,00,AAXX 19181 33837 32983 32502 10264 20132 30121 40169 57008 80001 333 10286 555 1/024=
33837,2024,06,19,21,00,AAXX 19211 33837 42983 22702 10236 20154 30119 40168 56002 80001==
33837,2024,06,20,00,00,AAXX 20001 33837 32984 02703 10230 20156 30108 40157 58011 555 1/020=
33837,2024,06,20,03,00,AAXX 20031 33837 42984 22702 10226 20162 30102 40151 57006 80001 333 55150==
33837,2024,06,20,06,00,AAXX 20061 33837 32977 01803 10259 20188 30096 40144 57006 333 20219 555 10038=
33837,2024,06,20,09,00,AAXX 20091 33837 42983 01803 10277 20187 30087 40135 57009==
33837,2024,06,20,12,00,AAXX 20121 33837 32576 53202 10336 20165 30089 40136 53002 83164 555 1/058=
33837,2024,06,20,15,00,AAXX 20151 33837 42583 23403 10279 20123 30105 40153 53016 82200==
33837,2024,06,20,18,00,AAXX 20181 33837 32984 03303 10235 20076 30128 40177 53023 333 10343 555 1/022=
33837,2024,06,20,21,00,AAXX 20211 33837 42984 23301 10199 20092 30152 40202 52024 80001==
33837,2024,06,21,00,00,AAXX 21001 33837 32983 03301 10179 20093 30157 40207 51005 555 1/015=
33837,2024,06,21,03,00,AAXX 21031 33837 42982 92901 10168 20100 30160 40210 52003 89/// 333 55152==
33837,2024,06,21,06,00,AAXX 21061 33837 32980 50302 10214 20109 30164 40213 52004 80001 333 20166 555 10037=
33837,2024,06,21,09,00,AAXX 21091 33837 42977 51302 10228 20133 30159 40208 58005 80002==
33837,2024,06,21,12,00,AAXX 21121 33837 32981 71703 10227 20105 30143 40192 58016 80004 555 1/046=
33837,2024,06,21,15,00,AAXX 21151 33837 42983 32003 10232 20116 30120 40169 58023 80001==
33837,2024,06,21,18,00,AAXX 21181 33837 32984 02601 10217 20123 30111 40160 56009 333 10234 555 1/021=
33837,2024,06,21,21,00,AAXX 21211 33837 42983 02802 10193 20135 30110 40160 56001==
33837,2024,06,22,00,00,AAXX 22001 33837 32984 02802 10189 20148 30106 40156 57004 555 1/017=
33837,2024,06,22,03,00,AAXX 22031 33837 42982 02901 10180 20145 30098 40148 57008 333 55152==
33837,2024,06,22,06,00,AAXX 22061 33837 32983 20202 10240 20107 30101 40150 53003 80001 333 20177 555 10036=
33837,2024,06,22,09,00,AAXX 22091 33837 42980 21502 10237 20152 30096 40145 58005 80001==
33837,2024,06,22,12,00,AAXX 22121 33837 32981 21804 10260 20102 30082 40130 58014 80001 555 1/051=
33837,2024,06,22,15,00,AAXX 22151 33837 42983 01902 10252 20137 30070 40118 57012==
33837,2024,06,22,18,00,AAXX 22181 33837 32983 02501 10240 20107 30070 40119 54000 333 10262 555 1/023=
33837,2024,06,22,21,00,AAXX 22211 33837 42984 02802 10219 20150 30076 40125 53006==
33837,2024,06,23,00,00,AAXX 23001 33837 32984 02802 10209 20141 30061 40110 58015 555 1/019=
33837,2024,06,23,03,00,AAXX 23031 33837 42/84 52801 10199 20140 30061 40110 54000 82031 333 55153==
33837,2024,06,23,06,00,AAXX 23061 33837 32979 20000 10255 20140 30079 40127 53018 80001 333 20197 555 10037=
33837,2024,06,23,09,00,AAXX 23091 33837 42975 71803 10252 20169 30065 40113 57014 80009==
33837,2024,06,23,12,00,AAXX 23121 33837 32983 51704 10265 20164 30062 40110 56003 80001 555 1/052=
33837,2024,06,23,15,00,AAXX 23151 33837 42984 02001 10275 20111 30061 40109 57001==
33837,2024,06,23,18,00,AAXX 23181 33837 32983 22502 10253 20118 30059 40107 57002 80001 333 10285 555 1/024=
33837,2024,06,23,21,00,AAXX 23211 33837 42984 02802 10226 20137 30062 40111 53003==
33837,2024,06,24,00,00,AAXX 24001 33837 32984 33302 10235 20150 30069 40118 52007 80001 555 1/021=
33837,2024,06,24,03,00,AAXX 24031 33837 42984 23401 10215 20165 30074 40123 52005 80001 333 55137==
33837,2024,06,24,06,00,AAXX 24061 33837 32981 00302 10247 20179 30083 40131 52009 333 20212 555 10037=
33837,2024,06,24,09,00,AAXX 24091 33837 42984 30602 10296 20153 30078 40126 58005 80005==
33837,2024,06,24,12,00,AAXX 24121 33837 32584 83601 10302 20155 30078 40126 54000 82165 555 1/054=
33837,2024,06,24,15,00,AAXX 24151 33837 42583 83303 10253 20125 30080 40128 53002 82465==
33837,2024,06,24,18,00,AAXX 24181 33837 11982 33201 10227 20132 30083 40132 52003 69902 70281 80001 333 10307 555 1/024=
33837,2024,06,24,21,00,AAXX 24211 33837 42984 03202 10221 20142 30093 40142 53010==
33837,2024,06,25,00,00,AAXX 25001 33837 32984 03301 10203 20128 30102 40151 52009 555 1/018=
33837,2024,06,25,03,00,AAXX 25031 33837 42983 23301 10188 20134 30102 40152 54000 80001 333 55118==
33837,2024,06,25,06,00,AAXX 25061 33837 32982 03502 10228 20144 30107 40156 53005 333 20182 555 10036=
33837,2024,06,25,09,00,AAXX 25091 33837 42683 73402 10249 20138 30105 40154 58002 86460 333 86640==
33837,2024,06,25,12,00,AAXX 25121 33837 32677 63501 10289 20119 30098 40146 58007 85460 555 1/058=
33837,2024,06,25,15,00,AAXX 25151 33837 42683 63303 10263 20120 30097 40145 56001 86400==
33837,2024,06,25,18,00,AAXX 25181 33837 32583 23201 10244 20120 30103 40152 53006 82401 333 10295 555 1/023=
33837,2024,06,25,21,00,AAXX 25211 33837 42983 00000 10213 20135 30115 40164 53012==
33837,2024,06,26,00,00,AAXX 26001 33837 32984 00000 10191 20124 30119 40169 51004 555 1/017=
33837,2024,06,26,03,00,AAXX 26031 33837 42980 20000 10181 20128 30126 40176 52007 80001 333 55144==
33837,2024,06,26,06,00,AAXX 26061 33837 32980 20302 10224 20121 30134 40183 52008 80001 333 20180 555 10035=
33837,2024,06,26,09,00,AAXX 26091 33837 42683 51603 10245 20140 30134 40183 54000 84460 333 84842==
33837,2024,06,26,12,00,AAXX 26121 33837 32681 51804 10239 20140 30126 40175 58008 82160 555 1/048=
33837,2024,06,26,15,00,AAXX 26151 33837 42984 01804 10239 20162 30111 40160 58015==
33837,2024,06,26,18,00,AAXX 26181 33837 32984 32502 10228 20144 30105 40154 56006 80001 333 10252 555 1/023=
33837,2024,06,26,21,00,AAXX 26211 33837 42984 02802 10209 20143 30117 40166 53012==
33837,2024,06,27,00,00,AAXX 27001 33837 32976 02802 10196 20140 30106 40155 58011 555 1/018=
33837,2024,06,27,03,00,AAXX 27031 33837 42982 22901 10190 20136 30105 40155 56001 80001 333 55152==
33837,2024,06,27,06,00,AAXX 27061 33837 32982 20201 10239 20106 30107 40156 53002 80001 333 20190 555 10038=
33837,2024,06,27,09,00,AAXX 27091 33837 42580 21602 10256 20125 30103 40151 58004 82100==
33837,2024,06,27,12,00,AAXX 27121 33837 32584 21603 10259 20156 30095 40143 57008 81101 555 1/056=
33837,2024,06,27,15,00,AAXX 27151 33837 42984 21902 10270 20094 30086 40134 57009 80001 555 1/044=
33837,2024,06,27,18,00,AAXX 27181 33837 32984 32702 10244 20096 30084 40133 56002 80001 333 10272 555 1/024=
33837,2024,06,27,21,00,AAXX 27211 33837 42984 02802 10228 20115 30087 40136 53003==
33837,2024,06,28,00,00,AAXX 28001 33837 32983 03001 10209 20126 30088 40137 52001 555 1/019=
33837,2024,06,28,03,00,AAXX 28031 33837 42/84 50301 10211 20165 30088 40137 54000 83051 333 55150==
33837,2024,06,28,06,00,AAXX 28061 33837 32980 60602 10235 20156 30097 40146 53009 80001 333 20203 555 10039=
33837,2024,06,28,09,00,AAXX 28091 33837 42584 61003 10261 20146 30100 40148 51003 82101==
33837,2024,06,28,12,00,AAXX 28121 33837 32580 31602 10276 20090 30095 40143 58005 82101 555 1/058=
33837,2024,06,28,15,00,AAXX 28151 33837 42582 20000 10286 20072 30084 40132 58011 82100==
33837,2024,06,28,18,00,AAXX 28181 33837 32583 20401 10236 20092 30091 40140 53007 81460 333 10290 555 1/023=
33837,2024,06,28,21,00,AAXX 28211 33837 42984 03401 10233 20132 30102 40151 52011==
33837,2024,06,29,00,00,AAXX 29001 33837 32983 00301 10214 20123 30106 40155 51004 555 1/019=
33837,2024,06,29,03,00,AAXX 29031 33837 42983 00000 10208 20130 30110 40159 52004 333 55146==
33837,2024,06,29,06,00,AAXX 29061 33837 32981 00000 10266 20140 30118 40166 52008 333 20202 555 10040=
33837,2024,06,29,09,00,AAXX 29091 33837 42583 21101 10281 20125 30119 40167 51001 82100==
33837,2024,06,29,12,00,AAXX 29121 33837 32584 21802 10291 20133 30112 40160 58007 82160 555 1/060=
33837,2024,06,29,15,00,AAXX 29151 33837 42583 32001 10287 20149 30098 40146 58014 82461==
33837,2024,06,29,18,00,AAXX 29181 33837 32581 32801 10265 20139 30100 40148 53002 82401 333 10299 555 1/026=
33837,2024,06,29,21,00,AAXX 29211 33837 42/82 30000 10251 20136 30103 40152 52003 82051==
33837,2024,06,30,00,00,AAXX 30001 33837 32984 00000 10228 20141 30106 40155 52003 555 1/020=
33837,2024,06,30,03,00,AAXX 30031 33837 42982 03401 10219 20145 30110 40159 52004 333 55142==
33837,2024,06,30,06,00,AAXX 30061 33837 32981 00402 10251 20160 30117 40166 52007 333 20217 555 10040=
33837,2024,06,30,09,00,AAXX 30091 33837 42569 11302 10260 20201 30120 40168 52003 81100==
33837,2024,06,30,12,00,AAXX 30121 33837 32584 11705 10269 20177 30112 40160 58008 81100 555 1/056=
33837,2024,06,30,15,00,AAXX 30151 33837 42983 01802 10273 20153 30104 40152 57008==
33837,2024,06,30,18,00,AAXX 30181 33837 32984 02502 10256 20102 30095 40143 57009 333 10281 555 1/025=
33837,2024,06,30,21,00,AAXX 30211 33837 42984 02702 10238 20105 30091 40140 57004==
33837,2024,07,01,00,00,AAXX 01001 33837 32984 02801 10224 20126 30087 40136 57004 555 1/020=
33837,2024,07,01,03,00,AAXX 01031 33837 42982 00000 10217 20120 30090 40139 53003 333 55153==
33837,2024,07,01,06,00,AAXX 01061 33837 32983 00602 10241 20151 30093 40142 52003 333 20217 555 10038=
33837,2024,07,01,09,00,AAXX 01091 33837 42683 21802 10273 20117 30086 40134 58007 82100==
33837,2024,07,01,12,00,AAXX 01121 33837 32683 21803 10302 20126 30073 40121 58013 82100 555 1/058=
33837,2024,07,01,15,00,AAXX 01151 33837 42683 21902 10304 20114 30058 40106 57015 81101==
33837,2024,07,01,18,00,AAXX 01181 33837 32982 02502 10273 20105 30047 40095 57011 333 10311 555 1/026=
33837,2024,07,01,21,00,AAXX 01211 33837 42984 02603 10252 20121 30045 40093 56002==
33837,2024,07,02,00,00,AAXX 02001 33837 32984 02801 10226 20162 30034 40083 58011 555 1/020=
33837,2024,07,02,03,00,AAXX 02031 33837 42984 22801 10225 20146 30032 40081 56002 80001 333 55150==
33837,2024,07,02,06,00,AAXX 02061 33837 32980 61402 10257 20171 30030 40078 57002 83039 333 20220 555 10041=
33837,2024,07,02,09,00,AAXX 02091 33837 42984 81703 10272 20190 30022 40070 58008 80009==
33837,2024,07,02,12,00,AAXX 02121 33837 32983 01804 10285 20202 30013 40060 57009 555 1/054=
33837,2024,07,02,15,00,AAXX 02151 33837 42983 01802 10269 20198 30000 40048 57013==
33837,2024,07,02,18,00,AAXX 02181 33837 32984 22201 10254 20183 39992 40040 56008 80001 333 10285 555 1/025=
33837,2024,07,02,21,00,AAXX 02211 33837 42984 02001 10243 20196 39990 40038 56002==
33837,2024,07,03,00,00,AAXX 03001 33837 32984 01902 10239 20202 39988 40036 57002 555 1/020=
33837,2024,07,03,03,00,AAXX 03031 33837 42981 60000 10230 20203 39982 40030 57006 80004 333 55139==
33837,2024,07,03,06,00,AAXX 03061 33837 32984 61402 10255 20214 39985 40033 53003 83039 333 20227 555 10038=
33837,2024,07,03,09,00,AAXX 03091 33837 42/83 71702 10274 20200 39987 40034 52002 83039==
33837,2024,07,03,12,00,AAXX 03121 33837 32981 51703 10282 20183 39978 40025 58009 82031 555 1/057=
33837,2024,07,03,15,00,AAXX 03151 33837 42/84 61802 10270 20191 39968 40015 57010 85034==
33837,2024,07,03,18,00,AAXX 03181 33837 32984 62501 10261 20177 39973 40021 53005 86030 333 10289 555 1/026=
33837,2024,07,03,21,00,AAXX 03211 33837 42/82 52801 10243 20178 39976 40024 52003 85030==
33837,2024,07,04,00,00,AAXX 04001 33837 32982 33001 10228 20168 39969 40017 58007 82031 555 1/021=
33837,2024,07,04,03,00,AAXX 04031 33837 42/80 52801 10214 20168 39974 40022 53005 83031 333 55108==
33837,2024,07,04,06,00,AAXX 04061 33837 32980 22802 10260 20176 39981 40029 52007 80001 333 20209 555 10039=
33837,2024,07,04,09,00,AAXX 04091 33837 42/82 61502 10283 20198 39989 40036 52008 82034==
33837,2024,07,04,12,00,AAXX 04121 33837 32584 81703 10297 20165 39992 40039 51003 82164 555 1/059=
33837,2024,07,04,15,00,AAXX 04151 33837 42/84 52002 10291 20185 39990 40037 58002 82051==
33837,2024,07,04,18,00,AAXX 04181 33837 32983 83203 10270 20147 30003 40051 53013 83051 333 10325 555 1/027=
33837,2024,07,04,21,00,AAXX 04211 33837 42584 53103 10227 20143 30017 40065 52014 82501==
33837,2024,07,05,00,00,AAXX 05001 33837 32984 33202 10195 20137 30024 40073 51007 80001 555 1/020=
33837,2024,07,05,03,00,AAXX 05031 33837 42984 03103 10179 20138 30027 40076 51003 333 55130==
33837,2024,07,05,06,00,AAXX 05061 33837 32480 23203 10223 20156 30041 40090 53014 82100 333 20179 555 10034=
33837,2024,07,05,09,00,AAXX 05091 33837 42583 23202 10273 20157 30048 40096 51007 82100==
33837,2024,07,05,12,00,AAXX 05121 33837 32581 23302 10295 20133 30049 40097 51001 82100 555 1/055=
33837,2024,07,05,15,00,AAXX 05151 33837 42683 13302 10297 20103 30050 40098 52001 81100==
33837,2024,07,05,18,00,AAXX 05181 33837 32884 03202 10268 20113 30070 40118 53020 333 10312 555 1/026=
33837,2024,07,05,21,00,AAXX 05211 33837 42/84 23202 10240 20110 30091 40140 52021 82050 333 82357==
33837,2024,07,06,00,00,AAXX 06001 33837 32984 03303 10222 20104 30103 40152 51012 555 1/019=
33837,2024,07,06,03,00,AAXX 06031 33837 42982 03302 10211 20109 30118 40167 52015 333 55143==
33837,2024,07,06,06,00,AAXX 06061 33837 32984 23502 10254 20129 30129 40178 52011 80001 333 20208 555 10037=
33837,2024,07,06,09,00,AAXX 06091 33837 42981 03602 10288 20100 30129 40177 54000==
33837,2024,07,06,12,00,AAXX 06121 33837 32680 33502 10316 20098 30118 40166 58011 82101 555 1/057=
33837,2024,07,06,15,00,AAXX 06151 33837 42982 53401 10302 20080 30114 40162 56004 80001==
33837,2024,07,06,18,00,AAXX 06181 33837 32984 30201 10250 20132 30120 40169 53006 80001 333 10328 555 1/025=
33837,2024,07,06,21,00,AAXX 06211 33837 42983 00302 10231 20121 30120 40169 54000==
33837,2024,07,07,00,00,AAXX 07001 33837 32983 00705 10222 20130 30124 40173 53004 555 1/020=
33837,2024,07,07,03,00,AAXX 07031 33837 42983 03201 10198 20126 30131 40181 52007 333 55151==
33837,2024,07,07,06,00,AAXX 07061 33837 32981 03601 10249 20111 30127 40176 58004 333 20196 555 10039=
33837,2024,07,07,09,00,AAXX 07091 33837 42981 01002 10273 20133 30127 40175 54000==
33837,2024,07,07,12,00,AAXX 07121 33837 32984 01502 10295 20101 30116 40164 58011 555 1/060=
33837,2024,07,07,15,00,AAXX 07151 33837 42983 01501 10305 20099 30106 40154 57010==
33837,2024,07,07,18,00,AAXX 07181 33837 32982 00000 10264 20113 30102 40150 56004 333 10311 555 1/025=
33837,2024,07,07,21,00,AAXX 07211 33837 42983 03301 10256 20114 30106 40155 53004==
33837,2024,07,08,00,00,AAXX 08001 33837 32984 00302 10229 20142 30108 40157 52002 555 1/019=
33837,2024,07,08,03,00,AAXX 08031 33837 42984 00000 10219 20113 30103 40152 58005 333 55151==
33837,2024,07,08,06,00,AAXX 08061 33837 32981 23601 10287 20113 30108 40156 53005 80001 333 20210 555 10040=
33837,2024,07,08,09,00,AAXX 08091 33837 42981 00702 10300 20110 30106 40154 58002==
33837,2024,07,08,12,00,AAXX 08121 33837 32973 01101 10326 20088 30099 40146 58007 555 1/064=
33837,2024,07,08,15,00,AAXX 08151 33837 42980 00000 10343 20089 30086 40133 58013==
33837,2024,07,08,18,00,AAXX 08181 33837 32982 23301 10301 20091 30087 40135 53001 80001 333 10351 555 1/028=
33837,2024,07,08,21,00,AAXX 08211 33837 42984 23302 10283 20100 30096 40144 53009 80001==
33837,2024,07,09,00,00,AAXX 09001 33837 32983 00202 10247 20156 30100 40149 51004 555 1/023=
33837,2024,07,09,03,00,AAXX 09031 33837 42984 03401 10244 20136 30101 40150 52001 333 55152 555 1/022=
33837,2024,07,09,06,00,AAXX 09061 33837 32980 03201 10286 20137 30107 40155 53006 333 20238 555 10040=
33837,2024,07,09,09,00,AAXX 09091 33837 42984 00302 10331 20137 30107 40154 54000 555 1/057=
33837,2024,07,09,12,00,AAXX 09121 33837 32980 21301 10337 20132 30097 40144 58010 80001 555 1/064=
33837,2024,07,09,15,00,AAXX 09151 33837 42983 20101 10348 20113 30089 40136 57008 80060 555 1/051=
33837,2024,07,09,18,00,AAXX 09181 33837 32983 23302 10309 20123 30092 40140 53003 82051 333 10350 555 1/029=
33837,2024,07,09,21,00,AAXX 09211 33837 42983 03302 10293 20139 30097 40145 53005 555 1/026=
33837,2024,07,10,00,00,AAXX 10001 33837 32983 33302 10271 20161 30094 40142 58003 83030 555 1/025=
33837,2024,07,10,03,00,AAXX 10031 33837 42573 33302 10254 20176 30095 40143 53001 82530 333 55145 555 1/024=
33837,2024,07,10,06,00,AAXX 10061 33837 32974 23501 10309 20172 30099 40147 52004 80001 333 20253 555 10041=
33837,2024,07,10,09,00,AAXX 10091 33837 42978 30502 10327 20129 30102 40149 52003 80001 555 1/058=
33837,2024,07,10,12,00,AAXX 10121 33837 32581 60902 10352 20110 30097 40144 58005 82264 555 1/063=
33837,2024,07,10,15,00,AAXX 10151 33837 42982 61301 10356 20068 30087 40134 57010 80004 555 1/050=
33837,2024,07,10,18,00,AAXX 10184 33837 32983 61902 10299 20136 30096 40144 53009 86030 333 10362 555 1/030=
33837,2024,07,10,21,00,AAXX 10211 33837 42983 00000 10266 20140 30108 40156 52012 555 1/025=
33837,2024,07,11,00,00,AAXX 11001 33837 32980 03401 10268 20113 30100 40148 58008 555 1/022=
33837,2024,07,11,03,00,AAXX 11031 33837 42981 03501 10258 20112 30104 40152 53004 333 55142 555 1/022=
33837,2024,07,11,06,00,AAXX 11061 33837 32980 23601 10301 20125 30108 40156 52004 80001 333 20249 555 10040=
33837,2024,07,11,09,00,AAXX 11091 33837 42981 00602 10313 20122 30109 40157 51001 555 1/058=
33837,2024,07,11,12,00,AAXX 11121 33837 32573 31001 10351 20064 30097 40144 58012 82101 555 1/064=
33837,2024,07,11,15,00,AAXX 11151 33837 42580 21803 10339 20111 30091 40138 58006 82101 555 1/050=
33837,2024,07,11,18,00,AAXX 11181 33837 32981 32501 10303 20087 30090 40138 56001 82061 333 10362 555 1/028=
33837,2024,07,11,21,00,AAXX 11211 33837 42/84 20000 10281 20084 30094 40142 53004 80030==
33837,2024,07,12,00,00,AAXX 12001 33837 32979 02701 10245 20137 30089 40138 58005 555 1/023=
33837,2024,07,12,03,00,AAXX 12031 33837 42980 03301 10251 20117 30091 40140 53002 333 55146==
33837,2024,07,12,06,00,AAXX 12061 33837 32964 00000 10300 20137 30091 40139 54000 333 20241 555 10040=
33837,2024,07,12,09,00,AAXX 12091 33837 42577 20602 10331 20127 30092 40139 53001 82101==
33837,2024,07,12,12,00,AAXX 12121 33837 32579 31502 10351 20109 30082 40129 58010 82201 555 1/064=
33837,2024,07,12,15,00,AAXX 12151 33837 42582 41502 10336 20115 30075 40122 56007 81151==
33837,2024,07,12,18,00,AAXX 12181 33837 32984 32301 10298 20099 30076 40124 53001 83050 333 10357 83300 555 1/029=
33837,2024,07,12,21,00,AAXX 12211 33837 42/82 20000 10268 20125 30079 40127 53003 82030==
33837,2024,07,13,00,00,AAXX 13001 33837 32973 00000 10258 20140 30075 40123 58004 555 1/023=
33837,2024,07,13,03,00,AAXX 13031 33837 42980 23201 10248 20143 30074 40122 56001 80001 333 55133==
33837,2024,07,13,06,00,AAXX 13061 33837 32981 30402 10293 20143 30082 40130 53008 80006 333 20245 555 10040=
33837,2024,07,13,09,00,AAXX 13091 33837 42982 50901 10296 20196 30084 40132 51002 80005==
33837,2024,07,13,12,00,AAXX 13121 33837 32583 61702 10336 20076 30076 40123 58008 82161 555 1/055=
33837,2024,07,13,15,00,AAXX 13151 33837 42973 61803 10316 20129 30069 40116 57007 80006==
33837,2024,07,13,18,00,AAXX 13181 33837 32582 32701 10277 20121 30072 40120 53003 82402 333 10346 555 1/027=
33837,2024,07,13,21,00,AAXX 13211 33837 42977 22801 10255 20120 30077 40125 52005 80001==
33837,2024,07,14,00,00,AAXX 14001 33837 32981 00000 10246 20132 30079 40128 51002 555 1/021=
33837,2024,07,14,03,00,AAXX 14031 33837 42975 00000 10237 20170 30081 40130 52002 333 55132==
33837,2024,07,14,06,00,AAXX 14061 33837 32970 00402 10277 20166 30088 40136 53007 333 20233 555 10040=
33837,2024,07,14,09,00,AAXX 14091 33837 42982 61201 10297 20139 30088 40136 54000 80001==
33837,2024,07,14,12,00,AAXX 14121 33837 32980 51702 10333 20058 30079 40126 58009 80001 555 1/062=
33837,2024,07,14,15,00,AAXX 14151 33837 42980 20000 10343 20066 30067 40114 57012 80001==
33837,2024,07,14,18,00,AAXX 14181 33837 32984 00000 10294 20085 30068 40116 53001 333 10346 555 1/028=
33837,2024,07,14,21,00,AAXX 14211 33837 42972 03301 10277 20104 30073 40121 52005==
33837,2024,07,15,00,00,AAXX 15001 33837 32980 03201 10252 20140 30068 40116 58005 555 1/023=
33837,2024,07,15,03,00,AAXX 15031 33837 42976 63301 10262 20123 30078 40126 53010 80001 333 55147==
33837,2024,07,15,06,00,AAXX 15061 33837 32982 53501 10325 20146 30082 40129 51004 80001 333 20251 555 10044=
33837,2024,07,15,09,00,AAXX 15091 33837 42571 71102 10346 20150 30079 40126 58003 82201==
33837,2024,07,15,12,00,AAXX 15121 33837 32580 51601 10362 20159 30075 40122 57004 83201 555 1/065=
33837,2024,07,15,15,00,AAXX 15151 33837 42570 60202 10330 20195 30072 40119 57003 85460==
33837,2024,07,15,18,00,AAXX 15181 33837 32981 50000 10312 20164 30072 40119 54000 82031 333 10365 555 1/031=
33837,2024,07,15,21,00,AAXX 15211 33837 42/81 53301 10316 20160 30076 40123 53004 85030==
33837,2024,07,16,00,00,AAXX 16001 33837 32980 03501 10288 20180 30076 40124 54000 555 1/027=
33837,2024,07,16,03,00,AAXX 16031 33837 42/79 63301 10282 20177 30077 40125 53001 86030 333 55129==
33837,2024,07,16,06,00,AAXX 16061 33837 32976 23501 10337 20182 30084 40131 53007 82030 333 20280 555 10044=
33837,2024,07,16,09,00,AAXX 16091 33837 42570 21101 10339 20172 30086 40133 51002 82200==
33837,2024,07,16,12,00,AAXX 16121 33837 32572 51802 10363 20154 30076 40123 58010 83261 555 1/066=
33837,2024,07,16,15,00,AAXX 16151 33837 41579 80000 10357 20149 30065 40112 57011 70292 83264==
33837,2024,07,16,18,00,AAXX 16181 33837 31572 83101 10320 20163 30069 40116 53004 70292 86404 333 10376 555 1/032=
33837,2024,07,16,21,00,AAXX 16211 33837 42983 00201 10297 20200 30079 40127 53010==
33837,2024,07,17,00,00,AAXX 17001 33837 32982 03301 10282 20174 30079 40127 54000 555 1/026=
33837,2024,07,17,03,00,AAXX 17031 33837 42981 23501 10273 20172 30082 40130 53003 80001 333 55136==
33837,2024,07,17,06,00,AAXX 17061 33837 32980 03502 10323 20178 30089 40136 52007 333 20271 555 10044=
33837,2024,07,17,09,00,AAXX 17091 33837 42578 20801 10349 20148 30093 40140 52004 82100==
33837,2024,07,17,12,00,AAXX 17121 33837 32583 51603 10368 20142 30082 40129 58011 83201 555 1/066=
33837,2024,07,17,15,00,AAXX 17151 33837 42582 51801 10364 20138 30073 40120 57009 83201==
33837,2024,07,17,18,00,AAXX 17181 33837 32581 62901 10319 20154 30085 40132 53012 83401 333 10376 555 1/031=
33837,2024,07,17,21,00,AAXX 17211 33837 42/79 32902 10298 20151 30087 40135 51002 82031==
33837,2024,07,18,00,00,AAXX 18001 33837 32981 23401 10291 20149 30087 40135 54000 80001 555 1/026=
33837,2024,07,18,03,00,AAXX 18031 33837 42/80 60000 10268 20184 30091 40139 53004 83031 333 55128==
33837,2024,07,18,06,00,AAXX 18061 33837 32979 20302 10307 20184 30095 40142 52004 80001 333 20265 555 10042=
33837,2024,07,18,09,00,AAXX 18091 33837 42569 31001 10339 20158 30098 40145 52003 82160==
33837,2024,07,18,12,00,AAXX 18121 33837 32583 61702 10356 20154 30089 40136 58009 84261 555 1/058=
33837,2024,07,18,15,00,AAXX 18151 33837 42583 82801 10337 20152 30080 40127 57009 83461==
33837,2024,07,18,18,00,AAXX 18181 33837 32583 63102 10300 20164 30085 40133 53005 82460 333 10361 555 1/029=
33837,2024,07,18,21,00,AAXX 18211 33837 41580 83304 10292 20171 30089 40137 52004 71792 86961==
33837,2024,07,19,00,00,AAXX 19001 33837 31983 53302 10271 20179 30087 40135 58002 70292 83051 555 1/026=
33837,2024,07,19,03,00,AAXX 19031 33837 42983 63302 10246 20176 30088 40136 53001 80001 333 55086==
33837,2024,07,19,06,00,AAXX 19061 33837 32981 23301 10284 20188 30093 40141 53005 80001 333 20243 555 10040=
33837,2024,07,19,09,00,AAXX 19091 33837 42982 33301 10332 20174 30085 40132 58008 80001==
33837,2024,07,19,12,00,AAXX 19121 33837 32583 53602 10358 20170 30077 40124 57008 83101 555 1/063=
33837,2024,07,19,15,00,AAXX 19151 33837 42584 33401 10322 20169 30061 40108 58016 82101==
33837,2024,07,19,18,00,AAXX 19181 33837 32684 23301 10292 20157 30068 40116 53007 81401 333 10360 555 1/029=
33837,2024,07,19,21,00,AAXX 19211 33837 42/83 23302 10280 20139 30069 40117 51001 81061==
33837,2024,07,20,00,00,AAXX 20001 33837 32983 23501 10246 20150 30068 40116 58001 80001 555 1/023=
33837,2024,07,20,03,00,AAXX 20031 33837 42/82 53501 10231 20152 30066 40115 57002 82051 333 55139==
33837,2024,07,20,06,00,AAXX 20061 33837 32980 33502 10275 20162 30065 40113 57001 82031 333 20231 555 10039=
33837,2024,07,20,09,00,AAXX 20091 33837 42581 61103 10295 20145 30060 40108 57005 85201==
33837,2024,07,20,12,00,AAXX 20121 33837 32577 60603 10316 20134 30049 40096 58011 85201 555 1/056=
33837,2024,07,20,15,00,AAXX 20151 33837 42584 61801 10295 20156 30040 40087 57009 83161==
33837,2024,07,20,18,00,AAXX 20181 33837 32584 60000 10274 20118 30044 40092 53004 82461 333 10341 555 1/027=
33837,2024,07,20,21,00,AAXX 20211 33837 42/84 53201 10267 20134 30046 40094 52002 82031==
33837,2024,07,21,00,00,AAXX 21001 33837 32983 70606 10264 20166 30048 40096 52002 85031 555 1/024=
33837,2024,07,21,03,00,AAXX 21031 33837 42/84 50603 10257 20160 30043 40091 58005 83031 333 55132==
33837,2024,07,21,06,00,AAXX 21061 33837 32976 60803 10270 20151 30047 40095 53004 82031 333 20250 555 10037=
33837,2024,07,21,09,00,AAXX 21091 33837 42581 70902 10292 20161 30045 40093 58002 82161==
33837,2024,07,21,12,00,AAXX 21121 33837 32584 81601 10301 20111 30035 40082 58010 83264 555 1/044=
33837,2024,07,21,15,00,AAXX 21151 33837 42582 80000 10307 20126 30024 40071 57011 83264==
33837,2024,07,21,18,00,AAXX 21181 33837 32584 60000 10270 20119 30024 40072 54000 82461 333 10317 555 1/026=
33837,2024,07,21,21,00,AAXX 21211 33837 42/83 63001 10278 20122 30024 40072 54000 85031==
33837,2024,07,22,00,00,AAXX 22001 33837 /1582 83202 10251 20149 30023 40071 58001 78082 8536/ 555 1/025 69901=
33837,2024,07,22,03,00,AAXX 22031 33837 41581 83202 10242 20151 30021 40069 57002 70282 8346/ 333 55083==
33837,2024,07,22,06,00,AAXX 22061 33837 11576 70202 10265 20170 30025 40073 53004 69902 70282 83469 333 20241 555 10036=
33837,2024,07,22,09,00,AAXX 22091 33837 42570 50902 10280 20187 30032 40080 52007 83201==
33837,2024,07,22,12,00,AAXX 22121 33837 31577 71502 10283 20192 30026 40074 58006 71792 85361 555 1/055=
33837,2024,07,22,15,00,AAXX 22151 33837 41459 82502 10237 20220 30033 40081 53007 79598 85961==
33837,2024,07,22,18,00,AAXX 22181 33837 11574 80000 10231 20202 30039 40087 52006 60042 70298 83461 333 10287 555 1/024=
33837,2024,07,22,21,00,AAXX 22211 33837 42581 60304 10244 20192 30047 40095 52008 82461==
33837,2024,07,23,00,00,AAXX 23001 33837 /1465 83301 10242 20154 30050 40098 51003 78082 8636/ 555 1/021 69901=
33837,2024,07,23,03,00,AAXX 23031 33837 41583 83101 10230 20158 30050 40099 54000 70282 83464 333 55073==
33837,2024,07,23,06,00,AAXX 23061 33837 11980 63401 10267 20166 30054 40102 53004 69932 70282 86060 333 20216 555 11035=
33837,2024,07,23,09,00,AAXX 23091 33837 42577 20303 10310 20146 30056 40103 52002 82100==
33837,2024,07,23,12,00,AAXX 23121 33837 32584 50202 10331 20122 30050 40097 58006 85200 555 1/054=
33837,2024,07,23,15,00,AAXX 23151 33837 42583 53401 10318 20111 30043 40090 57007 85200==
33837,2024,07,23,18,00,AAXX 23181 33837 32984 23301 10285 20111 30051 40099 53008 80004 333 10347 555 1/026=
33837,2024,07,23,21,00,AAXX 23211 33837 42/84 20000 10256 20138 30055 40103 52004 82030==
33837,2024,07,24,00,00,AAXX 24001 33837 32984 03201 10232 20125 30052 40101 58003 555 1/020=
33837,2024,07,24,03,00,AAXX 24031 33837 42/83 23201 10224 20124 30049 40098 57003 82030 333 55127==
33837,2024,07,24,06,00,AAXX 24061 33837 32980 00302 10275 20127 30052 40100 53003 333 20216 555 10039=
33837,2024,07,24,09,00,AAXX 24091 33837 42584 20902 10296 20130 30046 40094 58006 82200==
33837,2024,07,24,12,00,AAXX 24121 33837 32584 61704 10282 20158 30032 40080 58014 86200 555 1/043=
33837,2024,07,24,15,00,AAXX 24151 33837 42583 52303 10299 20145 30018 40065 57014 82261==
33837,2024,07,24,18,00,AAXX 24181 33837 11570 83303 10220 20180 30034 40083 53016 60022 78082 8636/ 333 10310 555 1/024=
33837,2024,07,24,21,00,AAXX 24211 33837 41/84 60000 10236 20174 30020 40068 58014 70282 86030==
33837,2024,07,25,00,00,AAXX 25001 33837 /1584 83202 10236 20156 30021 40069 53001 70282 8536/ 555 1/021 69951=
33837,2024,07,25,03,00,AAXX 25031 33837 41583 80000 10226 20166 30008 40056 58013 70282 8355/ 333 55121==
33837,2024,07,25,06,00,AAXX 25061 33837 11475 80000 10217 20200 30013 40062 53005 60022 72582 8635/ 333 20209 86915 555 11023=
33837,2024,07,25,09,00,AAXX 25091 33837 41458 80000 10226 20190 30022 40070 52009 78082 86361==
33837,2024,07,25,12,00,AAXX 25121 33837 /1484 81402 10236 20176 30016 40064 58006 79598 889// 555 1/022 60021=
33837,2024,07,25,15,00,AAXX 25151 33837 41467 80000 10224 20198 30008 40056 57008 79598 8696/==
33837,2024,07,25,18,00,AAXX 25181 33837 11583 80000 10212 20184 30013 40062 53005 60042 70298 8545/ 333 10241 555 1/021=
33837,2024,07,25,21,00,AAXX 25211 33837 42582 82801 10214 20188 30017 40066 52004 84554==
33837,2024,07,26,00,00,AAXX 26001 33837 /1469 82801 10209 20190 30011 40060 58006 72582 84364 555 1/020 69911=
33837,2024,07,26,03,00,AAXX 26031 33837 42/81 83101 10209 20157 30009 40058 57002 86051 333 55002==
33837,2024,07,26,06,00,AAXX 26061 33837 11480 80000 10210 20158 30018 40067 53009 69912 78082 8535/ 333 20207 555 11022=
33837,2024,07,26,09,00,AAXX 26091 33837 41469 80000 10213 20177 30031 40080 51013 78082 883//==
33837,2024,07,26,12,00,AAXX 26121 33837 /1460 83301 10195 20175 30041 40090 52010 78088 883// 555 1/022 60031=
33837,2024,07,26,15,00,AAXX 26151 33837 41460 83302 10190 20173 30046 40095 51005 78088 8636/==
33837,2024,07,26,18,00,AAXX 26181 33837 11464 83201 10184 20167 30065 40114 53019 60072 78088 8636/ 333 10213 555 1/019=
33837,2024,07,26,21,00,AAXX 26211 33837 41480 83301 10185 20163 30069 40118 51004 72582 85361==
33837,2024,07,27,00,00,AAXX 27001 33837 /1683 83101 10190 20157 30070 40119 51001 70282 82461 555 1/017 69941=
33837,2024,07,27,03,00,AAXX 27031 33837 42983 53103 10199 20149 30070 40119 54000 80001 333 55000==
33837,2024,07,27,06,00,AAXX 27061 33837 12976 33602 10242 20177 30082 40130 53012 69942 80001 333 20183 555 11027=
33837,2024,07,27,09,00,AAXX 27091 33837 42976 00602 10266 20168 30098 40146 52016==
33837,2024,07,27,12,00,AAXX 27121 33837 32579 21201 10290 20172 30100 40148 51002 82100 555 1/051=
33837,2024,07,27,15,00,AAXX 27151 33837 41484 82701 10283 20152 30105 40153 52005 79198 85964==
33837,2024,07,27,18,00,AAXX 27181 33837 11983 32901 10257 20145 30113 40161 52008 69902 70298 82054 333 10299 555 1/023=
33837,2024,07,27,21,00,AAXX 27211 33837 42/82 62801 10244 20153 30123 40172 52010 83054==
33837,2024,07,28,00,00,AAXX 28001 33837 32984 23001 10234 20155 30125 40174 51002 80001 555 1/020=
33837,2024,07,28,03,00,AAXX 28031 33837 42980 02901 10216 20170 30130 40179 52005 333 55103==
33837,2024,07,28,06,00,AAXX 28061 33837 32970 03201 10283 20159 30134 40182 52004 333 20215 555 10035=
33837,2024,07,28,09,00,AAXX 28091 33837 42583 50302 10312 20168 30131 40179 58003 82101==
33837,2024,07,28,12,00,AAXX 28121 33837 32583 31803 10301 20195 30116 40164 58015 82101 555 1/056=
33837,2024,07,28,15,00,AAXX 28151 33837 42583 51902 10291 20197 30105 40153 57011 82401==
33837,2024,07,28,18,00,AAXX 28181 33837 32984 22503 10279 20186 30098 40146 57007 80001 333 10344 555 1/026=
33837,2024,07,28,21,00,AAXX 28211 33837 42984 02603 10270 20151 30094 40142 57004==
33837,2024,07,29,00,00,AAXX 29001 33837 32984 02802 10250 20139 30085 40133 58009 555 1/022=
33837,2024,07,29,03,00,AAXX 29031 33837 42984 22901 10242 20146 30080 40129 57005 80001 333 55139==
33837,2024,07,29,06,00,AAXX 29061 33837 32982 23304 10257 20148 30088 40136 53008 80001 333 20242 555 10037=
33837,2024,07,29,09,00,AAXX 29091 33837 42582 23402 10293 20127 30084 40132 58004 82101==
33837,2024,07,29,12,00,AAXX 29121 33837 32582 63501 10302 20107 30074 40122 58010 82189 555 1/057=
33837,2024,07,29,15,00,AAXX 29151 33837 42/84 33201 10286 20083 30062 40110 57012 82039==
33837,2024,07,29,18,00,AAXX 29181 33837 32984 73102 10254 20045 30063 40111 53001 82031 333 10305 555 1/023=
33837,2024,07,29,21,00,AAXX 29211 33837 42983 63102 10225 20054 30070 40119 53007 80001==
33837,2024,07,30,00,00,AAXX 30001 33837 32984 03102 10204 20081 30068 40117 58002 555 1/018=
33837,2024,07,30,03,00,AAXX 30031 33837 42/84 33001 10180 20088 30064 40114 57004 83030 333 55141==
33837,2024,07,30,06,00,AAXX 30061 33837 32980 03101 10227 20084 30063 40112 57001 333 20180 555 10034=
33837,2024,07,30,09,00,AAXX 30091 33837 42580 23102 10260 20085 30049 40097 58014 82100==
33837,2024,07,30,12,00,AAXX 30121 33837 32580 63303 10278 20096 30046 40094 56003 86400 555 1/056=
33837,2024,07,30,15,00,AAXX 30151 33837 42583 73204 10254 20112 30054 40102 53008 86460==
33837,2024,07,30,18,00,AAXX 30181 33837 32984 03301 10210 20119 30074 40123 53020 333 10290 555 1/021=
33837,2024,07,30,21,00,AAXX 30211 33837 42983 03302 10201 20121 30080 40129 51006==
33837,2024,07,31,00,00,AAXX 31001 33837 32984 03201 10188 20123 30083 40133 52003 555 1/017=
33837,2024,07,31,03,00,AAXX 31031 33837 42983 23002 10175 20124 30083 40133 54000 80001 333 55125==
33837,2024,07,31,06,00,AAXX 31061 33837 32982 03203 10227 20129 30090 40139 53007 333 20174 555 10034=
33837,2024,07,31,09,00,AAXX 31091 33837 42583 63203 10268 20092 30087 40135 58003 85101==
33837,2024,07,31,12,00,AAXX 31121 33837 32582 63202 10294 20085 30079 40127 57008 85201 555 1/046=
33837,2024,07,31,15,00,AAXX 31151 33837 42584 53301 10290 20070 30073 40121 57006 83401==
33837,2024,07,31,18,00,AAXX 31181 33837 32984 03001 10244 20080 30078 40127 53005 333 10301 555 1/022=
33837,2024,07,31,21,00,AAXX 31211 33837 42983 02801 10220 20085 30085 40134 52007==
33837,2024,08,01,00,00,AAXX 01001 33837 32984 03301 10211 20080 30086 40135 51001 555 1/016=
33837,2024,08,01,03,00,AAXX 01031 33837 42983 00000 10191 20087 30088 40138 52002 333 55141==
33837,2024,08,01,06,00,AAXX 01061 33837 32984 20501 10250 20105 30090 40139 52002 80001 333 20188 555 10034=
33837,2024,08,01,09,00,AAXX 01091 33837 42568 21603 10266 20123 30086 40134 58004 81161==
33837,2024,08,01,12,00,AAXX 01121 33837 32575 51705 10271 20148 30071 40119 58015 82161 555 1/051=
33837,2024,08,01,15,00,AAXX 01151 33837 42984 82102 10270 20130 30058 40106 57013 80006==
33837,2024,08,01,18,00,AAXX 01181 33837 32983 52402 10251 20160 30054 40102 56004 80001 333 10279 555 1/024=
33837,2024,08,01,21,00,AAXX 01211 33837 42984 32403 10244 20174 30053 40101 56001 80001==
33837,2024,08,02,00,00,AAXX 02001 33837 32984 32402 10231 20157 30046 40095 58007 80051 555 1/020=
33837,2024,08,02,03,00,AAXX 02031 33837 42/84 62901 10208 20162 30044 40093 57002 80050 333 55136==
33837,2024,08,02,06,00,AAXX 02061 33837 32981 70000 10239 20135 30043 40091 57001 84031 333 20208 555 10029=
33837,2024,08,02,09,00,AAXX 02091 33837 42/81 71401 10257 20132 30043 40091 54000 85061==
33837,2024,08,02,12,00,AAXX 02121 33837 32983 61804 10252 20171 30034 40082 58009 84039 555 1/034=
33837,2024,08,02,15,00,AAXX 02151 33837 42484 51803 10265 20186 30024 40072 57010 81169==
33837,2024,08,02,18,00,AAXX 02181 33837 32984 72502 10252 20202 30020 40068 56004 80009 333 10272 555 1/025=
33837,2024,08,02,21,00,AAXX 02211 33837 42984 62602 10245 20202 30021 40069 53001 80001==
33837,2024,08,03,00,00,AAXX 03001 33837 32983 52503 10243 20185 30014 40062 58007 80001 555 1/021=
33837,2024,08,03,03,00,AAXX 03031 33837 42/82 82403 10242 20193 30005 40053 57009 83031 333 55059==
33837,2024,08,03,06,00,AAXX 03061 33837 32973 72302 10270 20199 30003 40051 56002 83031 333 20241 555 10035=
33837,2024,08,03,09,00,AAXX 03091 33837 41575 81902 10262 20181 30010 40058 53007 78082 8536/==
33837,2024,08,03,12,00,AAXX 03121 33837 /1580 82004 10269 20219 30002 40050 58008 72582 85364 555 1/046 69941=
33837,2024,08,03,15,00,AAXX 03151 33837 42583 62003 10261 20190 39990 40038 57012 82534==
33837,2024,08,03,18,00,AAXX 03181 33837 12584 82202 10247 20193 39995 40043 53005 69942 8356/ 333 10285 555 1/025=
33837,2024,08,03,21,00,AAXX 03211 33837 41459 82001 10205 20177 30004 40053 52009 79598 889//==
33837,2024,08,04,00,00,AAXX 04001 33837 /1566 80000 10225 20204 39997 40045 58007 79198 85961 333 85925 555 1/021 60071=
33837,2024,08,04,03,00,AAXX 04031 33837 41576 63201 10195 20173 30001 40050 53004 72992 85531 333 55062==
33837,2024,08,04,06,00,AAXX 04061 33837 11580 63101 10216 20170 30004 40053 52003 60072 70292 82164 333 20194 555 11026=
33837,2024,08,04,09,00,AAXX 04091 33837 42584 63401 10264 20172 30011 40059 52007 82201==
33837,2024,08,04,12,00,AAXX 04121 33837 32581 63101 10260 20157 30013 40061 51002 85201 555 1/038=
33837,2024,08,04,15,00,AAXX 04151 33837 42583 73202 10224 20155 30023 40072 53010 86801 333 86831==
33837,2024,08,04,18,00,AAXX 04181 33837 32584 73202 10208 20145 30033 40082 52010 86561 333 10278 86632 555 1/020=
33837,2024,08,04,21,00,AAXX 04211 33837 42584 63302 10202 20141 30037 40086 51004 83561 333 83632==
33837,2024,08,05,00,00,AAXX 05001 33837 32577 63102 10196 20140 30039 40088 52002 82561 555 1/016=
33837,2024,08,05,03,00,AAXX 05031 33837 42580 23103 10189 20142 30039 40088 54000 82500 333 55103==
33837,2024,08,05,06,00,AAXX 05061 33837 32975 23501 10247 20139 30050 40098 53011 80001 333 20189 555 10030=
33837,2024,08,05,09,00,AAXX 05091 33837 42574 50102 10295 20115 30048 40096 58002 83201==
33837,2024,08,05,12,00,AAXX 05121 33837 32581 61702 10271 20131 30040 40088 58008 85201 555 1/053=
33837,2024,08,05,15,00,AAXX 05151 33837 42584 81902 10263 20134 30035 40083 57005 85401==
33837,2024,08,05,18,00,AAXX 05181 33837 32983 82502 10251 20140 30041 40089 53006 85054 333 10303 555 1/023=
33837,2024,08,05,21,00,AAXX 05211 33837 42/81 52802 10230 20163 30041 40090 54000 82031==
33837,2024,08,06,00,00,AAXX 06001 33837 32984 60000 10208 20162 30036 40085 58005 83031 555 1/018=
33837,2024,08,06,03,00,AAXX 06031 33837 42980 30000 10192 20159 30032 40081 57004 80001 333 55124==
33837,2024,08,06,06,00,AAXX 06061 33837 32981 60501 10232 20163 30034 40082 53002 80004 333 20191 555 10034=
33837,2024,08,06,09,00,AAXX 06091 33837 42568 81603 10246 20190 30038 40086 52004 82264==
33837,2024,08,06,12,00,AAXX 06121 33837 31583 83101 10263 20144 30039 40087 52001 70292 85464 555 1/040=
33837,2024,08,06,15,00,AAXX 06151 33837 42584 82702 10243 20138 30039 40087 54000 83464==
33837,2024,08,06,18,00,AAXX 06181 33837 32584 83001 10218 20147 30051 40100 53012 8553/ 333 10286 555 1/023=
33837,2024,08,06,21,00,AAXX 06211 33837 42584 80000 10211 20135 30054 40103 51003 8353/==
33837,2024,08,07,00,00,AAXX 07001 33837 32984 00000 10196 20142 30049 40098 58005 555 1/018=
33837,2024,08,07,03,00,AAXX 07031 33837 42584 52801 10189 20144 30050 40099 53001 85500 333 55076==
33837,2024,08,07,06,00,AAXX 07061 33837 32984 32901 10251 20151 30059 40107 53009 82031 333 20186 555 10035=
33837,2024,08,07,09,00,AAXX 07091 33837 42581 20102 10290 20144 30066 40114 52007 82100==
33837,2024,08,07,12,00,AAXX 07121 33837 32582 51803 10281 20132 30063 40111 58003 83201 555 1/054=
33837,2024,08,07,15,00,AAXX 07151 33837 42583 62701 10288 20123 30063 40111 54000 85801==
33837,2024,08,07,18,00,AAXX 07181 33837 32584 62501 10260 20121 30074 40122 53011 85461 333 10306 555 1/026=
33837,2024,08,07,21,00,AAXX 07211 33837 42584 32801 10229 20128 30078 40127 51004 82501==
33837,2024,08,08,00,00,AAXX 08001 33837 32984 00000 10215 20132 30078 40127 54000 555 1/019=
33837,2024,08,08,03,00,AAXX 08031 33837 42581 60000 10204 20147 30078 40127 54000 83501 333 55116==
33837,2024,08,08,06,00,AAXX 08061 33837 32981 30402 10236 20140 30084 40133 53006 80002 333 20201 555 10035=
33837,2024,08,08,09,00,AAXX 08091 33837 42578 21002 10252 20177 30089 40137 52005 82100==
33837,2024,08,08,12,00,AAXX 08121 33837 32583 51703 10269 20190 30082 40130 58007 83260 555 1/057=
33837,2024,08,08,15,00,AAXX 08151 33837 42584 32001 10269 20162 30074 40122 57008 82460==
33837,2024,08,08,18,00,AAXX 08181 33837 32984 22502 10260 20135 30077 40125 53003 80001 333 10286 555 1/024=
33837,2024,08,08,21,00,AAXX 08211 33837 42983 32703 10243 20150 30077 40126 54000 80001==
33837,2024,08,09,00,00,AAXX 09001 33837 32984 02802 10230 20138 30074 40123 58003 555 1/020=
33837,2024,08,09,03,00,AAXX 09031 33837 42983 00000 10210 20139 30077 40126 53003 333 55116==
33837,2024,08,09,06,00,AAXX 09061 33837 32962 01001 10243 20144 30084 40133 53007 333 20203 555 10038=
33837,2024,08,09,09,00,AAXX 09091 33837 42583 21804 10274 20164 30083 40131 58001 82100==
33837,2024,08,09,12,00,AAXX 09121 33837 32582 21803 10283 20184 30077 40125 58006 82101 555 1/055=
33837,2024,08,09,15,00,AAXX 09151 33837 42/83 22302 10294 20115 30071 40119 57006 81061==
33837,2024,08,09,18,00,AAXX 09181 33837 32984 32402 10272 20149 30076 40124 53005 82061 333 10301 555 1/026=
33837,2024,08,09,21,00,AAXX 09211 33837 42982 32801 10238 20153 30080 40129 52004 80001==
33837,2024,08,10,00,00,AAXX 10001 33837 32984 22801 10225 20151 30077 40126 58003 80001 555 1/020=
33837,2024,08,10,03,00,AAXX 10031 33837 42983 33201 10213 20156 30080 40129 53003 80001 333 55133==
33837,2024,08,10,06,00,AAXX 10061 33837 32582 23101 10260 20163 30090 40138 53010 81101 333 20212 555 10039=
33837,2024,08,10,09,00,AAXX 10091 33837 42/75 21703 10264 20172 30092 40140 51002 82081==
33837,2024,08,10,12,00,AAXX 10121 33837 32582 61803 10261 20195 30085 40133 58007 84260 555 1/044=
33837,2024,08,10,15,00,AAXX 10151 33837 41582 52002 10267 20175 30084 40132 56001 70282 83461==
33837,2024,08,10,18,00,AAXX 10181 33837 11584 60000 10256 20173 30101 40149 53017 69962 70282 84450 333 10304 555 1/026=
33837,2024,08,10,21,00,AAXX 10211 33837 42/83 33302 10251 20157 30111 40160 53010 82031==
33837,2024,08,11,00,00,AAXX 11001 33837 32982 03201 10246 20152 30114 40163 51003 555 1/021=
33837,2024,08,11,03,00,AAXX 11031 33837 42980 03201 10221 20152 30121 40170 52007 333 55116==
33837,2024,08,11,06,00,AAXX 11061 33837 32977 03601 10279 20149 30128 40176 52007 333 20219 555 10039=
33837,2024,08,11,09,00,AAXX 11091 33837 42584 20102 10296 20146 30123 40171 58005 82100==
33837,2024,08,11,12,00,AAXX 11121 33837 32583 61903 10284 20150 30104 40152 58019 84201 555 1/045=
33837,2024,08,11,15,00,AAXX 11151 33837 42582 33202 10316 20114 30091 40138 56013 82401==
33837,2024,08,11,18,00,AAXX 11181 33837 32984 03102 10276 20094 30098 40146 53007 333 10339 555 1/024=
33837,2024,08,11,21,00,AAXX 11211 33837 42984 00000 10230 20071 30102 40151 52004==
33837,2024,08,12,00,00,AAXX 12001 33837 32984 32601 10211 20087 30096 40145 58006 80001 555 1/018=
33837,2024,08,12,03,00,AAXX 12031 33837 42984 23001 10229 20078 30102 40151 53006 80001 333 55135==
33837,2024,08,12,06,00,AAXX 12061 33837 32982 63201 10251 20113 30107 40156 52005 83031 333 20206 555 10036=
33837,2024,08,12,09,00,AAXX 12091 33837 42581 33302 10300 20105 30101 40149 58006 82101==
33837,2024,08,12,12,00,AAXX 12121 33837 32581 63402 10325 20081 30088 40135 58013 82461 555 1/058=
33837,2024,08,12,15,00,AAXX 12151 33837 42583 62003 10264 20148 30084 40132 56004 82430==
33837,2024,08,12,18,00,AAXX 12181 33837 32981 72402 10249 20179 30080 40128 57004 86051 333 10327 555 1/026=
33837,2024,08,12,21,00,AAXX 12211 33837 42/84 52701 10240 20182 30079 40128 56001 85030==
33837,2024,08,13,00,00,AAXX 13001 33837 32984 82801 10241 20192 30072 40120 58007 86051 555 1/024=
33837,2024,08,13,03,00,AAXX 13031 33837 42/82 60000 10222 20113 30072 40121 54000 85051 333 55113==
33837,2024,08,13,06,00,AAXX 13061 33837 32981 20202 10253 20111 30078 40126 53006 80030 333 20215 555 10037=
33837,2024,08,13,09,00,AAXX 13091 33837 42580 20702 10269 20125 30078 40126 54000 82200==
33837,2024,08,13,12,00,AAXX 13121 33837 32981 03402 10317 20067 30070 40117 58008 555 1/060=
33837,2024,08,13,15,00,AAXX 13151 33837 42984 00501 10276 20103 30071 40119 53001==
33837,2024,08,13,18,00,AAXX 13181 33837 32984 00000 10234 20101 30083 40132 53012 333 10324 555 1/022=
33837,2024,08,13,21,00,AAXX 13211 33837 42/84 20201 10221 20100 30096 40145 52013 82030==
33837,2024,08,14,00,00,AAXX 14001 33837 32984 60101 10214 20111 30108 40157 52012 86030 555 1/021=
33837,2024,08,14,03,00,AAXX 14031 33837 42/83 60403 10208 20128 30117 40166 52009 86030 333 55126==
33837,2024,08,14,06,00,AAXX 14061 33837 32977 00603 10216 20110 30135 40184 53018 333 20206 555 10034=
33837,2024,08,14,09,00,AAXX 14091 33837 42983 01103 10251 20102 30145 40194 51010==
33837,2024,08,14,12,00,AAXX 14121 33837 32584 31503 10248 20110 30140 40189 58005 82101 555 1/054=
33837,2024,08,14,15,00,AAXX 14151 33837 42983 02002 10248 20099 30130 40179 58010==
33837,2024,08,14,18,00,AAXX 14181 33837 32983 02502 10227 20111 30134 40183 53004 333 10256 555 1/021=
33837,2024,08,14,21,00,AAXX 14211 33837 42984 02702 10211 20114 30134 40183 54000==
33837,2024,08,15,00,00,AAXX 15001 33837 32984 00000 10191 20128 30134 40184 54000 555 1/016=
33837,2024,08,15,03,00,AAXX 15031 33837 42983 00000 10177 20138 30134 40184 54000 333 55135==
33837,2024,08,15,06,00,AAXX 15061 33837 32984 00602 10228 20149 30137 40186 53003 333 20177 555 10035=
33837,2024,08,15,09,00,AAXX 15091 33837 42984 01503 10254 20139 30137 40186 54000==
33837,2024,08,15,12,00,AAXX 15121 33837 32573 21704 10260 20157 30129 40177 58008 82100 555 1/052=
33837,2024,08,15,15,00,AAXX 15151 33837 42984 22101 10271 20112 30121 40169 57008 80001==
33837,2024,08,15,18,00,AAXX 15181 33837 32984 02503 10244 20124 30123 40172 53002 333 10279 555 1/023=
33837,2024,08,15,21,00,AAXX 15211 33837 42/84 32803 10227 20140 30124 40173 52001 82031==
33837,2024,08,16,00,00,AAXX 16001 33837 32984 00000 10212 20151 30129 40178 52005 555 1/019=
33837,2024,08,16,03,00,AAXX 16031 33837 42969 50000 10188 20134 30129 40179 54000 80004 333 55133==
33837,2024,08,16,06,00,AAXX 16061 33837 32961 20401 10248 20146 30132 40181 53003 80001 333 20188 555 10036=
33837,2024,08,16,09,00,AAXX 16091 33837 42980 01503 10253 20183 30132 40181 51000==
33837,2024,08,16,12,00,AAXX 16121 33837 32982 21704 10275 20145 30120 40168 58012 80001 555 1/053=
33837,2024,08,16,15,00,AAXX 16151 33837 42982 62302 10283 20110 30109 40157 57011 80001==
33837,2024,08,16,18,00,AAXX 16181 33837 32984 62403 10255 20174 30109 40157 56000 80001 333 10285 555 1/025=
33837,2024,08,16,21,00,AAXX 16211 33837 42984 62502 10244 20159 30105 40154 57004 80001==
33837,2024,08,17,00,00,AAXX 17001 33837 32984 52702 10236 20135 30100 40149 57005 80001 555 1/020=
33837,2024,08,17,03,00,AAXX 17031 33837 42984 22801 10221 20135 30097 40146 56003 80001 333 55125==
33837,2024,08,17,06,00,AAXX 17061 33837 32982 02802 10272 20117 30102 40150 53005 333 20219 555 10037=
33837,2024,08,17,09,00,AAXX 17091 33837 42984 01702 10319 20158 30101 40148 58001==
33837,2024,08,17,12,00,AAXX 17121 33837 32982 31904 10302 20151 30088 40136 58013 80001 555 1/055=
33837,2024,08,17,15,00,AAXX 17151 33837 42984 32202 10283 20149 30078 40126 57010 80001==
33837,2024,08,17,18,00,AAXX 17181 33837 32984 02504 10271 20145 30077 40125 56001 333 10327 555 1/026=
33837,2024,08,17,21,00,AAXX 17211 33837 42984 02702 10252 20144 30073 40121 57004==
33837,2024,08,18,00,00,AAXX 18001 33837 32984 00000 10241 20127 30077 40126 53004 555 1/021=
33837,2024,08,18,03,00,AAXX 18031 33837 42/84 60000 10214 20120 30074 40123 58003 84031 333 55132==
33837,2024,08,18,06,00,AAXX 18061 33837 32981 00201 10262 20147 30074 40122 54000 333 20213 555 10038=
33837,2024,08,18,09,00,AAXX 18091 33837 42/81 51802 10279 20127 30075 40123 53001 83031==
33837,2024,08,18,12,00,AAXX 18121 33837 32582 62002 10295 20156 30060 40108 58015 82161 555 1/053=
33837,2024,08,18,15,00,AAXX 18151 33837 42584 52202 10309 20113 30046 40093 57014 82460==
33837,2024,08,18,18,00,AAXX 18181 33837 32584 62602 10286 20108 30047 40095 53001 83550 333 10321 555 1/028=
33837,2024,08,18,21,00,AAXX 18211 33837 42583 62503 10267 20120 30052 40100 52005 82550==
33837,2024,08,19,00,00,AAXX 19001 33837 32584 62702 10253 20135 30050 40098 58002 82551 555 1/022=
33837,2024,08,19,03,00,AAXX 19031 33837 42584 62102 10246 20176 30053 40101 53003 82550 333 55123==
33837,2024,08,19,06,00,AAXX 19061 33837 32980 62101 10278 20151 30060 40108 52007 84031 333 20238 555 10037=
33837,2024,08,19,09,00,AAXX 19091 33837 42/80 61503 10273 20191 30072 40120 53012 85031==
33837,2024,08,19,12,00,AAXX 19121 33837 32981 31402 10281 20173 30066 40114 58006 80009 555 1/058=
33837,2024,08,19,15,00,AAXX 19151 33837 42984 61701 10293 20054 30063 40111 57003 80009==
33837,2024,08,19,18,00,AAXX 19181 33837 32980 62201 10244 20067 30064 40113 53001 83031 333 10310 555 1/023=
33837,2024,08,19,21,00,AAXX 19211 33837 42980 32702 10226 20087 30068 40117 52004 80001==
33837,2024,08,20,00,00,AAXX 20001 33837 32984 00000 10222 20097 30070 40119 52002 555 1/019=
33837,2024,08,20,03,00,AAXX 20031 33837 42/83 30000 10213 20095 30070 40119 54000 83030 333 55116==
33837,2024,08,20,06,00,AAXX 20061 33837 32982 20401 10261 20122 30073 40121 53003 82030 333 20207 555 10035=
33837,2024,08,20,09,00,AAXX 20091 33837 42979 00602 10266 20182 30081 40129 53008==
33837,2024,08,20,12,00,AAXX 20121 33837 32981 00801 10304 20076 30073 40121 58008 555 1/060=
33837,2024,08,20,15,00,AAXX 20151 33837 42980 31902 10313 20034 30062 40109 57011 80004==
33837,2024,08,20,18,00,AAXX 20181 33837 32981 62601 10255 20057 30059 40107 56003 83034 333 10326 555 1/024=
33837,2024,08,20,21,00,AAXX 20211 33837 42/80 80000 10242 20069 30056 40105 57003 82034==
33837,2024,08,21,00,00,AAXX 21001 33837 32983 83301 10230 20083 30047 40096 58009 85034 555 1/021=
33837,2024,08,21,03,00,AAXX 21031 33837 42/82 83501 10240 20158 30043 40091 56004 85034 333 55123==
33837,2024,08,21,06,00,AAXX 21061 33837 32977 80201 10265 20146 30041 40089 57002 85034 333 20220 555 10033=
33837,2024,08,21,09,00,AAXX 21091 33837 42580 51302 10284 20191 30042 40090 53001 82161==
33837,2024,08,21,12,00,AAXX 21121 33837 32580 51803 10298 20113 30032 40079 58010 82204 555 1/054=
33837,2024,08,21,15,00,AAXX 21151 33837 42581 62301 10304 20114 30020 40067 57012 82464==
33837,2024,08,21,18,00,AAXX 21181 33837 32581 60000 10262 20133 30017 40065 56003 85560 333 10323 555 1/026=
33837,2024,08,21,21,00,AAXX 21211 33837 42580 52801 10244 20120 30019 40067 53002 82560==
33837,2024,08,22,00,00,AAXX 22001 33837 /1576 82902 10225 20174 30014 40062 58005 79598 8536/ 555 1/021 69941=
33837,2024,08,22,03,00,AAXX 22031 33837 41582 82801 10242 20146 30011 40059 57003 71798 8696/ 333 55073==
33837,2024,08,22,06,00,AAXX 22061 33837 11572 81204 10258 20161 30017 40065 53006 69952 71798 8695/ 333 20210 555 11025=
33837,2024,08,22,09,00,AAXX 22091 33837 41474 81302 10260 20165 30038 40086 53021 72598 8537/==
33837,2024,08,22,12,00,AAXX 22121 33837 /1580 30901 10281 20125 30036 40084 58002 70298 82464 555 1/053 69901=
33837,2024,08,22,15,00,AAXX 22151 33837 42584 52002 10285 20102 30032 40080 57004 82204==
33837,2024,08,22,18,00,AAXX 22181 33837 12584 80301 10250 20159 30051 40099 53019 69902 84564 333 10297 555 1/026=
33837,2024,08,22,21,00,AAXX 22211 33837 42/82 62801 10238 20142 30049 40097 58002 84031==
33837,2024,08,23,00,00,AAXX 23001 33837 32983 23202 10233 20151 30065 40114 53016 80001 555 1/021=
33837,2024,08,23,03,00,AAXX 23031 33837 42/83 33203 10213 20147 30078 40127 52013 82031 333 55053==
33837,2024,08,23,06,00,AAXX 23061 33837 32983 23203 10237 20141 30090 40139 57012 80001 333 20208 555 10034=
33837,2024,08,23,09,00,AAXX 23091 33837 42981 03401 10292 20108 30093 40141 56003==
33837,2024,08,23,12,00,AAXX 23121 33837 32980 03401 10303 20069 30089 40137 58004 555 1/056=
33837,2024,08,23,15,00,AAXX 23151 33837 42983 33202 10291 20039 30089 40137 54000 80001==
33837,2024,08,23,18,00,AAXX 23181 33837 32982 33001 10252 20059 30100 40149 53011 80001 333 10317 555 1/022=
33837,2024,08,23,21,00,AAXX 23211 33837 42984 23302 10245 20048 30107 40156 51007 80001==
33837,2024,08,24,00,00,AAXX 24001 33837 32984 23501 10212 20078 30116 40165 52009 80001 555 1/018=
33837,2024,08,24,03,00,AAXX 24031 33837 42984 03302 10199 20073 30119 40169 51003 333 55122==
33837,2024,08,24,06,00,AAXX 24061 33837 32975 00000 10235 20088 30127 40176 53008 333 20196 555 10034=
33837,2024,08,24,09,00,AAXX 24091 33837 42979 23503 10294 20085 30121 40169 58006 80004==
33837,2024,08,24,12,00,AAXX 24121 33837 32580 20101 10313 20083 30110 40158 58011 82100 555 1/057=
33837,2024,08,24,15,00,AAXX 24151 33837 42983 03401 10307 20084 30102 40150 57008==
33837,2024,08,24,18,00,AAXX 24181 33837 32983 23303 10295 20074 30102 40150 54000 80001 333 10331 555 1/026=
33837,2024,08,24,21,00,AAXX 24211 33837 42982 33302 10270 20094 30099 40147 58003 80001==
33837,2024,08,25,00,00,AAXX 25001 33837 32983 03302 10251 20106 30099 40148 54000 555 1/022=
33837,2024,08,25,03,00,AAXX 25031 33837 42/80 53201 10230 20120 30093 40142 58006 82031 333 55130==
33837,2024,08,25,06,00,AAXX 25061 33837 32980 23602 10273 20147 30095 40143 53002 80001 333 20229 555 10037=
33837,2024,08,25,09,00,AAXX 25091 33837 42981 50702 10272 20188 30102 40150 53007 80001==
33837,2024,08,25,12,00,AAXX 25121 33837 32570 31001 10294 20172 30098 40146 58004 82101 555 1/059=
33837,2024,08,25,15,00,AAXX 25151 33837 42584 31901 10317 20093 30089 40136 58009 82401==
33837,2024,08,25,18,00,AAXX 25181 33837 32980 22701 10265 20098 30091 40139 53002 80001 333 10319 555 1/025=
33837,2024,08,25,21,00,AAXX 25211 33837 42983 02001 10274 20157 30092 40140 52001==
33837,2024,08,26,00,00,AAXX 26001 33837 32984 02201 10253 20118 30092 40140 54000 555 1/021=
33837,2024,08,26,03,00,AAXX 26031 33837 42983 20000 10220 20134 30095 40144 53003 80001 333 55122==
33837,2024,08,26,06,00,AAXX 26061 33837 32980 00302 10273 20153 30105 40153 53010 333 20217 555 10034=
33837,2024,08,26,09,00,AAXX 26091 33837 42977 20802 10296 20112 30107 40155 51002 80001==
33837,2024,08,26,12,00,AAXX 26121 33837 32582 31602 10321 20063 30100 40148 58007 81101 555 1/058=
33837,2024,08,26,15,00,AAXX 26151 33837 42583 31902 10301 20073 30091 40139 57009 82401==
33837,2024,08,26,18,00,AAXX 26181 33837 32980 21902 10267 20138 30094 40142 53003 80001 333 10324 555 1/025=
33837,2024,08,26,21,00,AAXX 26211 33837 42979 02601 10249 20075 30093 40142 58001==
33837,2024,08,27,00,00,AAXX 27001 33837 32983 62701 10233 20086 30090 40139 57003 85031 555 1/020=
33837,2024,08,27,03,00,AAXX 27031 33837 41581 81702 10248 20114 30091 40140 53001 71792 8536/ 333 55124==
33837,2024,08,27,06,00,AAXX 27061 33837 11577 83001 10239 20162 30089 40138 58002 60042 70298 83564 333 20193 555 11027=
33837,2024,08,27,09,00,AAXX 27091 33837 41580 82801 10225 20187 30091 40140 53002 70298 8546/==
33837,2024,08,27,12,00,AAXX 27121 33837 /1581 80902 10282 20133 30090 40138 58001 70298 8546/ 555 1/028 60031=
33837,2024,08,27,15,00,AAXX 27151 33837 41569 81103 10238 20171 30107 40156 53017 78082 8636/==
33837,2024,08,27,18,00,AAXX 27181 33837 11575 80604 10215 20151 30106 40155 58001 60042 78082 8636/ 333 10307 555 1/019=
33837,2024,08,27,21,00,AAXX 27211 33837 41473 83003 10198 20152 30086 40135 58020 78082 8636/==
33837,2024,08,28,00,00,AAXX 28001 33837 /1580 83303 10214 20157 30080 40129 56006 70282 8255/ 555 1/018 60021=
33837,2024,08,28,03,00,AAXX 28031 33837 42581 80000 10217 20158 30082 40131 53002 8655/ 333 55019==
33837,2024,08,28,06,00,AAXX 28061 33837 11581 70000 10250 20159 30079 40127 58003 60032 70282 82569 333 20181 555 11025=
33837,2024,08,28,09,00,AAXX 28091 33837 42567 70805 10262 20162 30077 40125 57002 82262==
33837,2024,08,28,12,00,AAXX 28121 33837 32578 21402 10264 20166 30081 40129 53004 81201 555 1/039=
33837,2024,08,28,15,00,AAXX 28151 33837 42481 61105 10249 20199 30088 40136 52007 85460 333 85715==
33837,2024,08,28,18,00,AAXX 28181 33837 32570 51305 10240 20199 30100 40149 53012 83560 333 10279 555 1/023=
33837,2024,08,28,21,00,AAXX 28211 33837 42/73 61003 10240 20197 30100 40149 54000 86030==
33837,2024,08,29,00,00,AAXX 29001 33837 /1557 81105 10222 20188 30097 40146 58003 78182 8636/ 555 1/021 69991=
33837,2024,08,29,03,00,AAXX 29031 33837 41546 50000 10206 20194 30099 40148 53002 71082 83502 333 55107==
33837,2024,08,29,06,00,AAXX 29061 33837 11680 80506 10223 20179 30102 40151 52003 60012 70282 85461 333 20202 85648 555 11022=
33837,2024,08,29,09,00,AAXX 29091 33837 42573 80804 10244 20192 30101 40150 58001 83271==
33837,2024,08,29,12,00,AAXX 29121 33837 32576 60803 10263 20202 30099 40147 57002 82566 555 1/035=
33837,2024,08,29,15,00,AAXX 29151 33837 41582 83501 10241 20178 30093 40142 57006 79598 8696/==
33837,2024,08,29,18,00,AAXX 29181 33837 11581 83301 10238 20153 30091 40140 57002 69902 70298 82461 333 10266 555 1/020=
33837,2024,08,29,21,00,AAXX 29211 33837 42582 80404 10240 20158 30084 40133 58007 8455/==
33837,2024,08,30,00,00,AAXX 30001 33837 32980 60000 10228 20161 30080 40129 57004 85054 555 1/020=
33837,2024,08,30,03,00,AAXX 30031 33837 42/80 63601 10212 20148 30080 40129 54000 86050 333 55045==
33837,2024,08,30,06,00,AAXX 30061 33837 32676 83501 10226 20142 30086 40135 53006 8353/ 333 20209 555 10022=
33837,2024,08,30,09,00,AAXX 30091 33837 41666 70506 10250 20132 30085 40133 58001 70282 82550==
33837,2024,08,30,12,00,AAXX 30121 33837 /1560 80504 10261 20166 30088 40136 53003 70282 8346/ 555 1/040 69901=
33837,2024,08,30,15,00,AAXX 30151 33837 41571 81003 10262 20181 30088 40136 54000 71792 8596/==
33837,2024,08,30,18,00,AAXX 30181 33837 11964 60000 10235 20201 30095 40144 53007 69902 70292 86030 333 10281 555 1/020=
33837,2024,08,30,21,00,AAXX 30211 33837 42/79 33501 10229 20107 30093 40142 58002 83030==
33837,2024,08,31,00,00,AAXX 31001 33837 32975 63301 10213 20108 30085 40134 58008 86030 555 1/018=
33837,2024,08,31,03,00,AAXX 31031 33837 42680 83401 10221 20075 30082 40131 56003 8255/ 333 55055==
33837,2024,08,31,06,00,AAXX 31061 33837 32678 80000 10223 20108 30089 40138 53007 8255/ 333 20202 555 10022=
33837,2024,08,31,09,00,AAXX 31091 33837 42579 60603 10255 20124 30090 40138 51001 82551==
33837,2024,08,31,12,00,AAXX 31121 33837 32580 81001 10263 20120 30092 40140 52002 8355/ 555 1/038=
33837,2024,08,31,15,00,AAXX 31151 33837 41569 81503 10250 20116 30088 40137 58004 70282 8356/==
33837,2024,08,31,18,00,AAXX 31181 33837 11473 80000 10217 20160 30091 40140 53003 69902 79598 8536/ 333 10270 555 1/021=
33837,2024,08,31,21,00,AAXX 31211 33837 41574 80304 10230 20151 30081 40130 58010 70298 83551==
33837,2024,09,01,00,00,AAXX 01001 33837 /1980 30202 10219 20145 30074 40123 57007 70298 82031 555 1/019 69901=
33837,2024,09,01,03,00,AAXX 01031 33837 42/75 80000 10211 20130 30077 40126 53003 8805/ 333 55024==
33837,2024,09,01,06,00,AAXX 01061 33837 12975 63601 10256 20098 30077 40125 54000 69902 83031 333 20210 555 10033=
33837,2024,09,01,09,00,AAXX 01091 33837 42580 70703 10260 20151 30076 40124 58001 82161==
33837,2024,09,01,12,00,AAXX 01121 33837 32580 80202 10276 20143 30075 40123 57001 82264 555 1/038=
33837,2024,09,01,15,00,AAXX 01151 33837 42/81 53301 10277 20109 30069 40117 58006 83031==
33837,2024,09,01,18,00,AAXX 01181 33837 32979 30000 10235 20137 30075 40124 53006 82031 333 10301 555 1/022=
33837,2024,09,01,21,00,AAXX 01211 33837 42970 00201 10228 20168 30068 40117 58007==
33837,2024,09,02,00,00,AAXX 02001 33837 32975 00504 10231 20136 30067 40116 56001 555 1/020=
33837,2024,09,02,03,00,AAXX 02031 33837 42/75 30503 10226 20125 30069 40118 53002 82031 333 55088==
33837,2024,09,02,06,00,AAXX 02061 33837 32971 00402 10242 20101 30076 40125 52007 333 20216 555 10032=
33837,2024,09,02,09,00,AAXX 02091 33837 42567 30602 10277 20086 30076 40124 54000 82201==
33837,2024,09,02,12,00,AAXX 02121 33837 32971 61502 10281 20084 30070 40118 58006 80004 555 1/050=
33837,2024,09,02,15,00,AAXX 02151 33837 42580 50000 10304 20076 30065 40113 57005 82460==
33837,2024,09,02,18,00,AAXX 02181 33837 32977 50202 10265 20089 30074 40122 53009 82031 333 10309 555 1/023=
33837,2024,09,02,21,00,AAXX 02211 33837 42/69 51202 10263 20083 30077 40125 51003 85030==
33837,2024,09,03,00,00,AAXX 03001 33837 32960 20701 10233 20208 30077 40126 54000 82030 555 1/021=
33837,2024,09,03,03,00,AAXX 03031 33837 42460 61003 10225 20200 30084 40133 53007 86600 333 55117 86712==
33837,2024,09,03,06,00,AAXX 03061 33837 32468 80505 10218 20184 30098 40147 53014 85684 333 20216 85715 555 10030=
33837,2024,09,03,09,00,AAXX 03091 33837 42968 80901 10247 20167 30101 40150 51003 80009==
33837,2024,09,03,12,00,AAXX 03121 33837 32960 80000 10265 20139 30093 40141 58008 83084 555 1/038=
33837,2024,09,03,15,00,AAXX 03151 33837 41560 81301 10246 20168 30096 40145 53003 72582 83364==
33837,2024,09,03,18,00,AAXX 03181 33837 11962 50302 10223 20131 30108 40157 53012 69902 70282 80004 333 10273 555 1/021=
33837,2024,09,03,21,00,AAXX 03211 33837 42965 83302 10201 20138 30103 40152 58005 80004==
33837,2024,09,04,00,00,AAXX 04001 33837 32567 83301 10187 20144 30094 40144 57009 8355/ 555 1/019=
33837,2024,09,04,03,00,AAXX 04031 33837 41562 83401 10178 20149 30085 40135 57009 72582 883// 333 55050 88921==
33837,2024,09,04,06,00,AAXX 04061 33837 11461 83501 10177 20146 30084 40134 56001 69952 70282 8526/ 333 20173 85712 555 11020=
33837,2024,09,04,09,00,AAXX 04091 33837 42465 83302 10196 20138 30087 40136 53003 885// 333 88718==
33837,2024,09,04,12,00,AAXX 04121 33837 /1560 83501 10207 20177 30081 40130 58006 70282 883// 555 1/024 60021=
33837,2024,09,04,15,00,AAXX 04151 33837 41566 80504 10215 20167 30081 40130 54000 78098 883//==
33837,2024,09,04,18,00,AAXX 04181 33837 11559 83301 10174 20157 30086 40136 53005 60162 79598 883// 333 10223 555 1/018=
33837,2024,09,04,21,00,AAXX 04211 33837 41433 80305 10166 20153 30085 40135 58001 78098 883//==
33837,2024,09,05,00,00,AAXX 05001 33837 /1450 80103 10169 20158 30074 40124 58011 78098 883// 555 1/017 60261=
33837,2024,09,05,03,00,AAXX 05031 33837 41560 83501 10158 20147 30074 40124 54000 72582 8635/ 333 55000==
33837,2024,09,05,06,00,AAXX 05061 33837 11569 63401 10172 20143 30076 40126 53002 60272 70282 85505 333 20152 85623 555 11020=
33837,2024,09,05,09,00,AAXX 05091 33837 42468 80202 10202 20152 30078 40127 52002 885// 333 88717==
33837,2024,09,05,12,00,AAXX 05121 33837 31476 80000 10231 20182 30073 40122 58005 71792 86364 555 1/029=
33837,2024,09,05,15,00,AAXX 05151 33837 41572 80504 10223 20170 30079 40128 53006 70298 85466==
33837,2024,09,05,18,00,AAXX 05181 33837 11564 80805 10224 20192 30083 40132 52004 69912 71798 8636/ 333 10249 91119 555 1/020=
33837,2024,09,05,21,00,AAXX 05211 33837 41677 60807 10228 20149 30090 40139 52007 70292 85550 333 85646==
33837,2024,09,06,00,00,AAXX 06001 33837 31676 50709 10213 20137 30094 40143 52004 70292 82550 333 82637 555 1/018=
33837,2024,09,06,03,00,AAXX 06031 33837 42/80 50907 10210 20137 30104 40153 53010 83031 333 55018==
33837,2024,09,06,06,00,AAXX 06061 33837 32970 50809 10212 20148 30116 40165 52012 83031 333 20205 555 11021=
33837,2024,09,06,09,00,AAXX 06091 33837 42/77 70809 10214 20159 30131 40180 52015 86031==
33837,2024,09,06,12,00,AAXX 06121 33837 32982 20705 10244 20153 30130 40179 58001 80001 555 1/034=
33837,2024,09,06,15,00,AAXX 06151 33837 42982 21502 10250 20148 30136 40185 53006 80001==
33837,2024,09,06,18,00,AAXX 06181 33837 32973 20904 10233 20154 30151 40200 53015 80001 333 10254 555 1/020=
33837,2024,09,06,21,00,AAXX 06211 33837 42980 20505 10219 20150 30152 40201 51001 80001==
33837,2024,09,07,00,00,AAXX 07001 33837 32980 20707 10211 20123 30151 40200 58001 80001 555 1/017=
33837,2024,09,07,03,00,AAXX 07031 33837 42980 00608 10194 20087 30154 40204 53003 333 55073==
33837,2024,09,07,06,00,AAXX 07061 33837 32981 20203 10197 20090 30164 40214 53010 80001 333 20182 555 11024=
33837,2024,09,07,09,00,AAXX 07091 33837 42984 20506 10216 20104 30163 40212 58001 80001==
33837,2024,09,07,12,00,AAXX 07121 33837 32975 00505 10238 20118 30155 40204 58008 555 1/037=
33837,2024,09,07,15,00,AAXX 07151 33837 42982 00507 10237 20104 30149 40198 57006==
33837,2024,09,07,18,00,AAXX 07181 33837 32984 30406 10226 20101 30152 40201 53003 82051 333 10245 555 1/019=
33837,2024,09,07,21,00,AAXX 07211 33837 42982 00404 10203 20107 30146 40196 58006==
33837,2024,09,08,00,00,AAXX 08001 33837 32981 00000 10176 20098 30140 40190 57006 555 1/015=
33837,2024,09,08,03,00,AAXX 08031 33837 42/81 53501 10169 20078 30138 40188 56002 83051 333 55117==
33837,2024,09,08,06,00,AAXX 08061 33837 32966 60101 10189 20083 30139 40189 53001 83031 333 20165 555 10024=
33837,2024,09,08,09,00,AAXX 08091 33837 42/82 60402 10225 20075 30137 40186 58002 82034==
33837,2024,09,08,12,00,AAXX 08121 33837 32972 50602 10241 20114 30130 40179 58007 82039 555 1/040=
33837,2024,09,08,15,00,AAXX 08151 33837 42983 30802 10239 20095 30120 40169 57010 80001==
33837,2024,09,08,18,00,AAXX 08181 33837 32981 00302 10211 20109 30121 40170 53001 333 10253 555 1/019=
33837,2024,09,08,21,00,AAXX 08211 33837 42983 00603 10211 20117 30115 40164 58006==
33837,2024,09,09,00,00,AAXX 09001 33837 32984 00000 10171 20098 30109 40159 57006 555 1/015=
33837,2024,09,09,03,00,AAXX 09031 33837 42983 00000 10172 20078 30095 40145 58014 333 55101==
33837,2024,09,09,06,00,AAXX 09061 33837 32981 53501 10201 20081 30098 40147 53003 82039 333 20162 555 10024=
33837,2024,09,09,09,00,AAXX 09091 33837 42976 00602 10226 20083 30091 40140 58007==
33837,2024,09,09,12,00,AAXX 09121 33837 32983 00000 10236 20110 30073 40122 58018 555 1/040=
33837,2024,09,09,15,00,AAXX 09151 33837 42978 01702 10234 20071 30057 40106 57016==
33837,2024,09,09,18,00,AAXX 09181 33837 32974 00000 10197 20101 30055 40104 56002 333 10247 555 1/019=
33837,2024,09,09,21,00,AAXX 09211 33837 42981 00000 10184 20105 30046 40095 58009==
33837,2024,09,10,00,00,AAXX 10001 33837 32980 00000 10178 20120 30036 40085 57010 555 1/016=
33837,2024,09,10,03,00,AAXX 10031 33837 42471 30201 10184 20162 30034 40083 56002 83600 333 55117==
33837,2024,09,10,06,00,AAXX 10061 33837 32465 80703 10208 20176 30038 40087 53004 82609 333 20172 555 10023=
33837,2024,09,10,09,00,AAXX 10091 33837 42/76 80802 10220 20167 30034 40083 58004 82089==
33837,2024,09,10,12,00,AAXX 10121 33837 32975 81302 10224 20164 30025 40074 58009 80009 555 1/041=
33837,2024,09,10,15,00,AAXX 10151 33837 42970 81802 10219 20181 30024 40073 56001 80009==
33837,2024,09,10,18,00,AAXX 10181 33837 32966 70000 10206 20178 30026 40075 53002 87030 333 10235 555 1/021=
33837,2024,09,10,21,00,AAXX 10211 33837 41/59 80000 10196 20181 30024 40073 58002 71022 8805/==
33837,2024,09,11,00,00,AAXX 11001 33837 31950 00000 10193 20180 30025 40074 53001 71011 555 1/018=
33837,2024,09,11,03,00,AAXX 11031 33837 41257 70703 10205 20195 30024 40073 58001 72841 87600 333 55070 87704==
33837,2024,09,11,06,00,AAXX 11061 33837 31167 80602 10208 20195 30028 40077 53004 70241 886// 333 20190 88703 555 10025=
33837,2024,09,11,09,00,AAXX 11091 33837 42581 70702 10226 20194 30032 40080 52004 85260 333 85627==
33837,2024,09,11,12,00,AAXX 11121 33837 32367 61401 10232 20200 30032 40080 54000 82860 333 82709 555 1/033=
33837,2024,09,11,15,00,AAXX 11151 33837 41350 71102 10226 20207 30027 40075 58005 78082 86360==
33837,2024,09,11,18,00,AAXX 11181 33837 11557 60000 10209 20192 30025 40074 57002 69952 71082 82550 333 10235 555 1/022=
33837,2024,09,11,21,00,AAXX 11211 33837 41465 82702 10209 20181 30024 40073 57001 79598 883//==
33837,2024,09,12,00,00,AAXX 12001 33837 /1560 60000 10178 20167 30021 40070 57003 72998 82360 555 1/019 60111=
33837,2024,09,12,03,00,AAXX 12031 33837 42581 51701 10192 20180 30020 40069 57001 82554 333 55054==
33837,2024,09,12,06,00,AAXX 12061 33837 12472 61602 10232 20205 30030 40078 53010 60112 82651 333 20176 555 11025=
33837,2024,09,12,09,00,AAXX 12091 33837 42580 71703 10237 20184 30032 40080 51002 82261 333 82827==
33837,2024,09,12,12,00,AAXX 12121 33837 32573 61805 10237 20179 30035 40083 52003 84464 555 1/032=
33837,2024,09,12,15,00,AAXX 12151 33837 42580 52003 10223 20177 30048 40097 53013 83464==
33837,2024,09,12,18,00,AAXX 12181 33837 32974 32301 10214 20174 30054 40103 51006 80001 333 10244 555 1/019=
33837,2024,09,12,21,00,AAXX 12211 33837 42970 02401 10210 20184 30050 40099 58004==
33837,2024,09,13,00,00,AAXX 13001 33837 32964 02401 10202 20176 30050 40099 54000 555 1/018=
33837,2024,09,13,03,00,AAXX 13031 33837 42669 50000 10199 20179 30051 40100 53001 82550 333 55098 82639==
33837,2024,09,13,06,00,AAXX 13061 33837 32979 31802 10226 20190 30055 40104 53004 82031 333 20193 555 11026=
33837,2024,09,13,09,00,AAXX 13091 33837 42481 41604 10242 20195 30057 40105 51002 82201 333 82812==
33837,2024,09,13,12,00,AAXX 13121 33837 32484 51604 10242 20197 30055 40103 58002 83201 555 1/034=
33837,2024,09,13,15,00,AAXX 13151 33837 42684 61603 10230 20185 30048 40097 58007 82201==
33837,2024,09,13,18,00,AAXX 13181 33837 32982 31603 10225 20193 30045 40094 56003 80001 333 10246 555 1/020=
33837,2024,09,13,21,00,AAXX 13211 33837 42478 31402 10222 20199 30041 40090 57004 82601 333 82712==
33837,2024,09,14,00,00,AAXX 14001 33837 32482 51403 10220 20196 30034 40083 58007 82601 333 82711 555 1/020=
33837,2024,09,14,03,00,AAXX 14031 33837 42476 31402 10220 20196 30028 40077 57006 82601 333 55107 82715==
33837,2024,09,14,06,00,AAXX 14061 33837 32466 51105 10224 20196 30026 40074 57002 82630 333 20217 555 11026=
33837,2024,09,14,09,00,AAXX 14091 33837 42581 51405 10238 20199 30026 40074 54000 83209==
33837,2024,09,14,12,00,AAXX 14121 33837 32478 61405 10238 20195 30021 40069 58005 85504 333 85719 555 1/028=
33837,2024,09,14,15,00,AAXX 14151 33837 42576 61604 10237 20204 30022 40070 53001 85460==
33837,2024,09,14,18,00,AAXX 14181 33837 32467 61605 10236 20205 30027 40075 52005 85560 333 10246 85715 555 1/022=
33837,2024,09,14,21,00,AAXX 14211 33837 41458 51603 10232 20215 30027 40075 54000 71022 85500==
33837,2024,09,15,00,00,AAXX 15001 33837 31121 61502 10228 20216 30023 40071 58004 71022 86600 333 86703 555 1/020=
33837,2024,09,15,03,00,AAXX 15031 33837 42581 50000 10195 20175 30025 40074 53002 82530 333 55097==
33837,2024,09,15,06,00,AAXX 15061 33837 11468 61003 10225 20200 30025 40073 54000 69902 70282 82569 333 20193 82711 555 11025=
33837,2024,09,15,09,00,AAXX 15091 33837 41458 82201 10199 20186 30039 40088 53014 79598 883//==
33837,2024,09,15,12,00,AAXX 15121 33837 /1561 70401 10214 20191 30032 40081 58007 70298 82550 555 1/023 60131=
33837,2024,09,15,15,00,AAXX 15151 33837 42563 80903 10229 20180 30018 40066 58014 83869==
33837,2024,09,15,18,00,AAXX 15181 33837 12561 80907 10237 20147 30008 40056 57010 60132 82579 333 10237 555 1/019=
33837,2024,09,15,21,00,AAXX 15211 33837 41456 81205 10209 20179 30001 40050 57007 79598 883//==
33837,2024,09,16,00,00,AAXX 16001 33837 /1765 81312 10220 20186 39996 40044 57005 70298 8555/ 333 85699 555 1/020 60071=
33837,2024,09,16,03,00,AAXX 16031 33837 41565 81009 10219 20168 30002 40051 53006 70282 8555/ 333 55006 85622==
33837,2024,09,16,06,00,AAXX 16061 33837 11662 81012 10216 20152 30018 40067 53016 60072 72982 8636/ 333 20203 86948 91118 555 11018=
33837,2024,09,16,09,00,AAXX 16091 33837 41467 81010 10214 20133 30030 40079 52012 72582 8636/ 333 86912==
33837,2024,09,16,12,00,AAXX 16121 33837 /1660 81207 10225 20156 30049 40098 53019 70282 8655/ 333 86643 555 1/023 69901=
33837,2024,09,16,15,00,AAXX 16151 33837 42663 80904 10220 20134 30060 40109 51011 8255/==
33837,2024,09,16,18,00,AAXX 16181 33837 11969 81003 10223 20136 30068 40117 52008 69902 70282 8805/ 333 10227 555 1/018=
33837,2024,09,16,21,00,AAXX 16211 33837 41/69 60404 10205 20112 30067 40116 58001 70282 86030==
33837,2024,09,17,00,00,AAXX 17001 33837 /1980 30606 10216 20101 30068 40117 53001 70281 82031 555 1/016 69901=
33837,2024,09,17,03,00,AAXX 17031 33837 42/68 30710 10211 20103 30075 40124 53007 83030 333 55014==
33837,2024,09,17,06,00,AAXX 17061 33837 12969 80809 10207 20102 30098 40147 53023 69902 8805/ 333 20197 555 11018=
33837,2024,09,17,09,00,AAXX 17091 33837 42/64 70810 10212 20112 30115 40164 51017 87050==
33837,2024,09,17,12,00,AAXX 17121 33837 32970 60802 10233 20120 30122 40171 51007 82089 555 1/028=
33837,2024,09,17,15,00,AAXX 17151 33837 42/80 60402 10229 20137 30125 40174 52003 82034==
33837,2024,09,17,18,00,AAXX 17181 33837 32968 21403 10214 20157 30146 40195 53021 80001 333 10238 555 1/018=
33837,2024,09,17,21,00,AAXX 17211 33837 42974 20803 10212 20134 30150 40199 51004 80001==
33837,2024,09,18,00,00,AAXX 18001 33837 32984 00504 10200 20096 30151 40201 52001 555 1/015=
33837,2024,09,18,03,00,AAXX 18031 33837 42980 20204 10173 20102 30146 40196 58005 80001 333 55042==
33837,2024,09,18,06,00,AAXX 18061 33837 32980 30103 10189 20099 30140 40190 57006 82039 333 20168 555 10021=
33837,2024,09,18,09,00,AAXX 18091 33837 42582 80107 10179 20124 30131 40181 57009 8655/ 333 86720 555 1/019=
33837,2024,09,18,12,00,AAXX 18121 33837 /1483 83402 10158 20122 30124 40174 57007 70281 8655/ 333 86710 555 1/018 69901=
33837,2024,09,18,15,00,AAXX 18151 33837 41371 83302 10155 20135 30114 40164 57010 72582 8635/ 333 86907==
33837,2024,09,18,18,00,AAXX 18181 33837 11459 83401 10171 20151 30116 40166 53002 69902 78082 8635/ 333 10208 555 1/017=
33837,2024,09,18,21,00,AAXX 18211 33837 41481 80810 10186 20121 30112 40162 58004 78082 883//==
33837,2024,09,19,00,00,AAXX 19001 33837 /1574 70610 10184 20112 30119 40169 53007 70282 87500 333 87627 91118 555 1/015 60031=
33837,2024,09,19,03,00,AAXX 19031 33837 42681 70712 10174 20105 30127 40177 52008 86530 333 55037 86636==
33837,2024,09,19,06,00,AAXX 19061 33837 12579 80711 10172 20099 30144 40194 53017 60032 8255/ 333 20167 555 11015=
33837,2024,09,19,09,00,AAXX 19091 33837 42/81 30710 10196 20077 30151 40201 51007 82031==
33837,2024,09,19,12,00,AAXX 19121 33837 32978 60806 10209 20057 30157 40207 52006 84059 555 1/024=
33837,2024,09,19,15,00,AAXX 19151 33837 42984 20704 10211 20073 30159 40209 52002 80001==
33837,2024,09,19,18,00,AAXX 19181 33837 32983 50404 10198 20079 30165 40215 52006 83031 333 10219 555 1/015=
33837,2024,09,19,21,00,AAXX 19211 33837 42/81 80608 10193 20068 30164 40214 58001 85054==
33837,2024,09,20,00,00,AAXX 20001 33837 32981 30406 10165 20066 30162 40212 57002 80001 555 1/012=
33837,2024,09,20,03,00,AAXX 20031 33837 42/81 30202 10132 20059 30167 40218 53005 82031 333 55088==
33837,2024,09,20,06,00,AAXX 20061 33837 32982 30304 10165 20055 30173 40223 52006 80001 333 20129 555 10019=
33837,2024,09,20,09,00,AAXX 20091 33837 42982 20608 10202 20016 30173 40223 54000 80001==
33837,2024,09,20,12,00,AAXX 20121 33837 32983 31003 10218 20053 30172 40222 58001 80001 555 1/034=
33837,2024,09,20,15,00,AAXX 20151 33837 42981 20101 10201 20057 30162 40212 58010 80001==
33837,2024,09,20,18,00,AAXX 20181 33837 32981 20403 10201 20088 30168 40218 53006 80001 333 10232 555 1/015=
33837,2024,09,20,21,00,AAXX 20211 33837 42984 03202 10168 20028 30164 40214 58004==
33837,2024,09,21,00,00,AAXX 21001 33837 32984 23001 10160 20050 30159 40209 57005 80001 555 1/011=
33837,2024,09,21,03,00,AAXX 21031 33837 42980 23302 10150 20071 30159 40210 54000 80001 333 55113==
33837,2024,09,21,06,00,AAXX 21061 33837 32979 33301 10172 20078 30160 40210 53001 80001 333 20139 555 10020=
33837,2024,09,21,09,00,AAXX 21091 33837 42/67 63401 10227 20105 30160 40209 54000 85051==
33837,2024,09,21,12,00,AAXX 21121 33837 32570 30702 10239 20095 30150 40199 58010 82160 555 1/037=
33837,2024,09,21,15,00,AAXX 21151 33837 42576 30000 10214 20093 30145 40194 58005 82461==
33837,2024,09,21,18,00,AAXX 21181 33837 32966 60000 10184 20112 30147 40197 53002 80050 333 10260 555 1/016=
33837,2024,09,21,21,00,AAXX 21211 33837 42976 23301 10169 20101 30145 40195 58002 80001==
33837,2024,09,22,00,00,AAXX 22001 33837 32984 03202 10155 20085 30143 40193 57002 555 1/012=
33837,2024,09,22,03,00,AAXX 22031 33837 42982 03302 10146 20076 30137 40188 57006 333 55097==
33837,2024,09,22,06,00,AAXX 22061 33837 32983 03301 10180 20071 30137 40187 54000 333 20134 555 10023=
33837,2024,09,22,09,00,AAXX 22091 33837 42975 03601 10247 20090 30135 40184 58002==
33837,2024,09,22,12,00,AAXX 22121 33837 32971 01301 10243 20051 30120 40169 58015 555 1/041=
33837,2024,09,22,15,00,AAXX 22151 33837 42984 00000 10223 20044 30110 40159 57010==
33837,2024,09,22,18,00,AAXX 22181 33837 32981 02802 10188 20082 30113 40163 53003 333 10260 555 1/016=
33837,2024,09,22,21,00,AAXX 22211 33837 42980 03101 10170 20087 30110 40160 58003==
33837,2024,09,23,00,00,AAXX 23001 33837 32981 02902 10159 20084 30104 40154 57006 555 1/013=
33837,2024,09,23,03,00,AAXX 23031 33837 42981 03101 10159 20084 30103 40153 57001 333 55114==
33837,2024,09,23,06,00,AAXX 23061 33837 32965 63301 10179 20103 30107 40157 53004 82039 333 20149 555 10020=
33837,2024,09,23,09,00,AAXX 23091 33837 42/70 70000 10230 20114 30114 40163 52007 82039==
33837,2024,09,23,12,00,AAXX 23121 33837 32976 50501 10255 20081 30108 40157 58006 82034 555 1/040=
33837,2024,09,23,15,00,AAXX 23151 33837 42/80 60000 10234 20090 30106 40155 57002 82034==
33837,2024,09,23,18,00,AAXX 23181 33837 32968 63101 10207 20105 30110 40159 53004 82034 333 10272 555 1/017=
33837,2024,09,23,21,00,AAXX 23211 33837 42/68 53102 10194 20101 30110 40160 54000 82031==
33837,2024,09,24,00,00,AAXX 24001 33837 32967 30000 10167 20103 30115 40165 53005 80001 555 1/014=
33837,2024,09,24,03,00,AAXX 24031 33837 42967 30000 10149 20107 30120 40170 52005 80001 333 55081==
33837,2024,09,24,06,00,AAXX 24061 33837 32965 60101 10206 20160 30128 40177 52008 80009 333 20146 555 10026=
33837,2024,09,24,09,00,AAXX 24091 33837 42982 21401 10229 20152 30135 40184 52007 80001==
33837,2024,09,24,12,00,AAXX 24121 33837 32975 21802 10230 20153 30138 40187 52003 80001 555 1/040=
33837,2024,09,24,15,00,AAXX 24151 33837 42981 01901 10215 20139 30135 40184 58003==
33837,2024,09,24,18,00,AAXX 24181 33837 32980 00000 10176 20145 30136 40186 53001 333 10232 555 1/016=
33837,2024,09,24,21,00,AAXX 24211 33837 42974 01701 10174 20156 30139 40189 52003==
33837,2024,09,25,00,00,AAXX 25001 33837 32980 01202 10185 20152 30139 40189 54000 555 1/015=
33837,2024,09,25,03,00,AAXX 25031 33837 42970 00903 10190 20170 30141 40191 53002 333 55108==
33837,2024,09,25,06,00,AAXX 25061 33837 32971 51006 10200 20156 30149 40199 53008 80001 333 20172 555 10021=
33837,2024,09,25,09,00,AAXX 25091 33837 42975 21004 10210 20146 30153 40202 52004 80001==
33837,2024,09,25,12,00,AAXX 25121 33837 32971 21302 10219 20155 30152 40201 58001 80001 555 1/037=
33837,2024,09,25,15,00,AAXX 25151 33837 42980 01501 10206 20149 30143 40192 58009==
33837,2024,09,25,18,00,AAXX 25181 33837 32973 00000 10181 20159 30146 40196 53003 333 10222 555 1/017=
33837,2024,09,25,21,00,AAXX 25211 33837 42980 01104 10197 20173 30140 40190 58006==
33837,2024,09,26,00,00,AAXX 26001 33837 32466 30902 10192 20164 30133 40183 57007 83600 555 1/017=
33837,2024,09,26,03,00,AAXX 26031 33837 42462 50801 10192 20170 30128 40178 57005 85600 333 55107 85711==
33837,2024,09,26,06,00,AAXX 26061 33837 32269 83401 10182 20160 30130 40180 53002 86609 333 20175 86706 555 10021=
33837,2024,09,26,09,00,AAXX 26091 33837 42570 31602 10219 20179 30128 40177 58002 82260==
33837,2024,09,26,12,00,AAXX 26121 33837 32581 61804 10220 20169 30126 40175 57002 81261 555 1/036=
33837,2024,09,26,15,00,AAXX 26151 33837 42581 82102 10210 20164 30117 40166 58009 82404==
33837,2024,09,26,18,00,AAXX 26181 33837 32478 62003 10204 20166 30119 40168 53002 84601 333 10224 84715 555 1/018=
33837,2024,09,26,21,00,AAXX 26211 33837 42480 32202 10203 20163 30112 40161 58007 83600 333 83714==
33837,2024,09,27,00,00,AAXX 27001 33837 32474 52102 10203 20167 30108 40157 57004 85600 333 85714 555 1/018=
33837,2024,09,27,03,00,AAXX 27031 33837 42476 62202 10201 20167 30103 40152 57005 85601 333 55075 85714==
33837,2024,09,27,06,00,AAXX 27061 33837 32480 61903 10213 20173 30109 40158 53006 85601 333 20199 85714 555 10023=
33837,2024,09,27,09,00,AAXX 27091 33837 42472 51804 10231 20176 30113 40162 52004 85600 333 85716==
33837,2024,09,27,12,00,AAXX 27121 33837 32484 51903 10228 20177 30108 40157 58005 85600 333 85714 555 1/033=
33837,2024,09,27,15,00,AAXX 27151 33837 42481 62104 10214 20178 30103 40152 57005 84601 333 84712==
33837,2024,09,27,18,00,AAXX 27181 33837 32483 62103 10207 20179 30109 40158 53006 84001 333 10237 84010 555 1/019=
33837,2024,09,27,21,00,AAXX 27211 33837 42479 52002 10205 20177 30107 40156 58002 82601 333 82711==
33837,2024,09,28,00,00,AAXX 28001 33837 32481 62102 10205 20177 30106 40155 57001 83601 333 83711 555 1/018=
33837,2024,09,28,03,00,AAXX 28031 33837 42476 62002 10203 20175 30105 40154 57001 85601 333 55103 85711==
33837,2024,09,28,06,00,AAXX 28061 33837 32978 21703 10219 20171 30114 40163 53009 80001 333 20203 555 10024=
33837,2024,09,28,09,00,AAXX 28091 33837 42584 51603 10230 20183 30115 40164 51001 83201==
33837,2024,09,28,12,00,AAXX 28121 33837 32274 51504 10219 20187 30105 40154 58010 83601 333 83706 555 1/036=
33837,2024,09,28,15,00,AAXX 28151 33837 42981 01602 10208 20174 30095 40144 57010==
33837,2024,09,28,18,00,AAXX 28181 33837 32966 01502 10204 20176 30093 40142 56002 333 10234 555 1/018=
33837,2024,09,28,21,00,AAXX 28211 33837 42965 00602 10175 20158 30084 40134 58009==
33837,2024,09,29,00,00,AAXX 29001 33837 31434 20000 10175 20164 30071 40121 57013 71011 82600 555 1/015=
33837,2024,09,29,03,00,AAXX 29031 33837 41256 60402 10189 20176 30062 40111 57009 71011 82604 333 55105 82705==
33837,2024,09,29,06,00,AAXX 29061 33837 31258 80000 10183 20171 30066 40115 53004 71011 87604 333 20173 87703 555 10021=
33837,2024,09,29,09,00,AAXX 29091 33837 41158 70502 10195 20175 30058 40107 58008 71022 86604 333 86702==
33837,2024,09,29,12,00,AAXX 29121 33837 32575 51401 10218 20174 30047 40096 57011 82204 555 1/039=
33837,2024,09,29,15,00,AAXX 29151 33837 42973 72001 10210 20170 30036 40085 57011 80002==
33837,2024,09,29,18,00,AAXX 29181 33837 32972 52801 10189 20158 30031 40080 56005 80001 333 10223 555 1/018=
33837,2024,09,29,21,00,AAXX 29211 33837 42981 03102 10187 20138 30021 40070 57010==
33837,2024,09,30,00,00,AAXX 30001 33837 32966 00703 10198 20164 30017 40066 56004 555 1/017=
33837,2024,09,30,03,00,AAXX 30031 33837 42568 63501 10163 20119 30016 40066 57001 86500 333 55073 86630==
33837,2024,09,30,06,00,AAXX 30061 33837 32566 63501 10169 20118 30016 40066 54000 85531 333 20160 85624 555 10019=
33837,2024,09,30,09,00,AAXX 30091 33837 42570 73601 10213 20124 30017 40066 53001 85531 333 85627==
33837,2024,09,30,12,00,AAXX 30121 33837 31656 70602 10218 20147 30010 40059 58007 70522 83532 333 83642 555 1/033=
33837,2024,09,30,15,00,AAXX 30151 33837 41259 73002 10208 20133 30004 40053 57006 70522 83634 333 83706==
33837,2024,09,30,18,00,AAXX 30181 33837 31256 63003 10200 20104 30009 40058 53005 70522 85601 333 10224 85705 555 1/019=
33837,2024,09,30,21,00,AAXX 30211 33837 41357 83504 10205 20120 30005 40054 58004 78082 8635/==
33837,2024,10,01,00,00,AAXX 01001 33837 /1249 83602 10180 20091 39999 40048 57006 70582 8555/ 333 85706 555 1/017 69901=
33837,2024,10,01,03,00,AAXX 01031 33837 41250 83303 10163 20078 39998 40048 56001 72992 8555/ 333 55036 85705==
33837,2024,10,01,06,00,AAXX 01061 33837 11958 33303 10158 20081 39998 40048 54000 69902 70591 83080 333 20155 555 10018=
33837,2024,10,01,09,00,AAXX 01091 33837 41450 53503 10206 20104 30003 40052 53005 70541 83681 333 83710==
33837,2024,10,01,12,00,AAXX 01121 33837 31250 83502 10223 20108 30002 40051 58001 70511 85608 333 85705 555 1/027=
33837,2024,10,01,15,00,AAXX 01151 33837 41250 83302 10207 20080 30015 40064 53013 70522 83604 333 83705==
33837,2024,10,01,18,00,AAXX 01181 33837 31357 83202 10190 20078 30029 40078 52014 70522 83604 333 10230 83708 555 1/016=
33837,2024,10,01,21,00,AAXX 01211 33837 42961 83303 10173 20079 30036 40086 51007 80004==
33837,2024,10,02,00,00,AAXX 02001 33837 32966 53301 10158 20076 30039 40089 52003 80004 555 1/014=
33837,2024,10,02,03,00,AAXX 02031 33837 42/80 63102 10133 20082 30048 40098 53009 82034 333 55031==
33837,2024,10,02,06,00,AAXX 02061 33837 32964 63201 10151 20086 30060 40110 52012 82034 333 20132 555 10020=
33837,2024,10,02,09,00,AAXX 02091 33837 42570 83101 10184 20100 30069 40119 52009 85504 333 85622==
33837,2024,10,02,12,00,AAXX 02121 33837 32566 50101 10212 20124 30073 40122 51004 82504 555 1/033=
33837,2024,10,02,15,00,AAXX 02151 33837 42581 52001 10193 20137 30076 40125 52003 82501==
33837,2024,10,02,18,00,AAXX 02181 33837 32969 22702 10161 20132 30083 40133 52007 80001 333 10219 555 1/016=
33837,2024,10,02,21,00,AAXX 02211 33837 42/67 52702 10147 20107 30088 40138 52005 82031==
33837,2024,10,03,00,00,AAXX 03001 33837 32667 82701 10155 20113 30084 40134 58004 86504 333 86635 555 1/016=
33837,2024,10,03,03,00,AAXX 03031 33837 42669 80000 10157 20113 30082 40132 57002 86504 333 55070 86636==
33837,2024,10,03,06,00,AAXX 03061 33837 11568 80000 10155 20137 30090 40140 53008 69972 70282 8655/ 333 20146 86626 555 11018=
33837,2024,10,03,09,00,AAXX 03091 33837 42969 21101 10193 20128 30096 40145 52006 80001==
33837,2024,10,03,12,00,AAXX 03121 33837 32960 01804 10198 20116 30097 40146 51001 555 1/031=
33837,2024,10,03,15,00,AAXX 03151 33837 42560 22102 10187 20136 30099 40149 52002 82500==
33837,2024,10,03,18,00,AAXX 03181 33837 32962 02102 10183 20134 30104 40154 52005 333 10203 555 1/016=
33837,2024,10,03,21,00,AAXX 03211 33837 42969 02202 10185 20136 30105 40155 52001==
33837,2024,10,04,00,00,AAXX 04001 33837 32962 02002 10189 20142 30103 40153 58002 555 1/015=
33837,2024,10,04,03,00,AAXX 04031 33837 42460 32003 10190 20143 30094 40143 58009 83500 333 55080 83714==
33837,2024,10,04,06,00,AAXX 04061 33837 32561 71804 10201 20151 30100 40149 53006 86501 333 20182 86621 555 10020=
33837,2024,10,04,09,00,AAXX 04091 33837 42560 81705 10209 20150 30099 40148 58001 85401 333 85823==
33837,2024,10,04,12,00,AAXX 04121 33837 32566 61704 10216 20166 30091 40140 58008 82401 555 1/034=
33837,2024,10,04,15,00,AAXX 04151 33837 42571 81704 10205 20167 30080 40129 57011 82401==
33837,2024,10,04,18,00,AAXX 04181 33837 32963 61804 10205 20175 30082 40131 53002 80001 333 10220 555 1/019=
33837,2024,10,04,21,00,AAXX 04211 33837 42462 81805 10204 20182 30075 40124 58007 86601 333 86712==
33837,2024,10,05,00,00,AAXX 05001 33837 32460 62103 10204 20182 30070 40119 57005 82601 333 82710 555 1/018=
33837,2024,10,05,03,00,AAXX 05031 33837 41359 82003 10203 20184 30070 40119 54000 71022 85601 333 55081 85707==
33837,2024,10,05,06,00,AAXX 05061 33837 32461 51704 10213 20189 30074 40123 53004 82601 333 20202 555 10022=
33837,2024,10,05,09,00,AAXX 05091 33837 42466 51705 10225 20189 30076 40125 52002 82601==
33837,2024,10,05,12,00,AAXX 05121 33837 32461 81704 10215 20189 30068 40117 58008 885// 333 88710 555 1/028=
33837,2024,10,05,15,00,AAXX 05151 33837 41358 81703 10211 20190 30060 40109 57008 71022 885// 333 88707==
33837,2024,10,05,18,00,AAXX 05181 33837 31258 81804 10209 20192 30054 40103 57006 71022 886// 333 10227 88706 555 1/021=
33837,2024,10,05,21,00,AAXX 05211 33837 41258 82002 10209 20192 30053 40102 56001 71022 886// 333 88706==
33837,2024,10,06,00,00,AAXX 06001 33837 31259 71904 10206 20189 30038 40087 58015 71022 83601 333 83705 555 1/019=
33837,2024,10,06,03,00,AAXX 06031 33837 41258 62003 10207 20190 30040 40089 53002 71022 85601 333 55064 85705==
33837,2024,10,06,06,00,AAXX 06061 33837 31258 71902 10211 20192 30043 40092 52003 71022 86601 333 20205 86704 555 10022=
33837,2024,10,06,09,00,AAXX 06091 33837 41463 81803 10218 20184 30049 40098 52006 78082 8635/==
33837,2024,10,06,12,00,AAXX 06121 33837 /1456 81802 10208 20193 30048 40097 58001 78082 8535/ 555 1/022 60011=
33837,2024,10,06,15,00,AAXX 06151 33837 41160 61801 10204 20182 30034 40083 58014 72582 84501 333 84703==
33837,2024,10,06,18,00,AAXX 06181 33837 11257 72301 10204 20191 30035 40084 53001 60022 71082 85550 333 10222 85705 555 1/019=
33837,2024,10,06,21,00,AAXX 06211 33837 41766 82401 10171 20154 30025 40074 58010 72998 8235/ 333 82650==
33837,2024,10,07,00,00,AAXX 07001 33837 /1578 62601 10178 20161 30014 40063 57011 71798 84950 555 1/017 60031=
33837,2024,10,07,03,00,AAXX 07031 33837 41278 82901 10160 20147 30015 40065 53001 70292 86601 333 55000 86705==
33837,2024,10,07,06,00,AAXX 07061 33837 11364 83001 10146 20135 30036 40086 53021 60092 72998 8635/ 333 20145 86907 555 11016=
33837,2024,10,07,09,00,AAXX 07091 33837 41477 83001 10152 20123 30055 40105 52019 70282 8655/ 333 86712==
33837,2024,10,07,12,00,AAXX 07121 33837 /1584 83102 10154 20118 30067 40117 51012 72582 8635/ 333 86922 555 1/020 69991=
33837,2024,10,07,15,00,AAXX 07151 33837 42584 83102 10150 20102 30086 40136 53019 8655/ 333 86632==
33837,2024,10,07,18,00,AAXX 07181 33837 12984 32801 10124 20096 30109 40160 52023 69992 80001 333 10164 555 1/012=
33837,2024,10,07,21,00,AAXX 07211 33837 42984 02801 10121 20097 30117 40168 51008==
33837,2024,10,08,00,00,AAXX 08001 33837 32980 50000 10124 20101 30123 40174 52006 85030 555 1/011=
33837,2024,10,08,03,00,AAXX 08031 33837 41/50 32701 10109 20097 30126 40177 52003 71011 82031 333 55029==
33837,2024,10,08,06,00,AAXX 08061 33837 32972 02801 10135 20117 30133 40184 52007 333 20108 555 11015=
33837,2024,10,08,09,00,AAXX 08091 33837 42980 02502 10189 20083 30140 40190 52007==
33837,2024,10,08,12,00,AAXX 08121 33837 32980 02403 10201 20071 30131 40181 58009 555 1/027=
33837,2024,10,08,15,00,AAXX 08151 33837 42984 22101 10178 20107 30125 40175 57006 80001==
33837,2024,10,08,18,00,AAXX 08181 33837 32982 22502 10159 20115 30123 40173 57002 80001 333 10212 555 1/014=
33837,2024,10,08,21,00,AAXX 08211 33837 42984 02401 10161 20104 30113 40163 58010==
33837,2024,10,09,00,00,AAXX 09001 33837 32975 02401 10167 20138 30110 40160 56003 555 1/013=
33837,2024,10,09,03,00,AAXX 09031 33837 42981 02202 10174 20147 30094 40144 58016 333 55100==
33837,2024,10,09,06,00,AAXX 09061 33837 32480 62201 10190 20145 30090 40139 56004 86500 333 20152 86718 555 10018=
33837,2024,10,09,09,00,AAXX 09091 33837 42582 71905 10209 20145 30086 40135 57004 85201 333 85821==
33837,2024,10,09,12,00,AAXX 09121 33837 32581 81704 10206 20138 30072 40121 58014 83204 555 1/027=
33837,2024,10,09,15,00,AAXX 09151 33837 42583 71803 10191 20135 30056 40105 57016 85404 333 85624==
33837,2024,10,09,18,00,AAXX 09181 33837 32584 51705 10192 20136 30045 40094 57011 83401 333 10213 83624 555 1/016=
33837,2024,10,09,21,00,AAXX 09211 33837 42981 52101 10190 20147 30037 40086 57008 80004==
33837,2024,10,10,00,00,AAXX 10001 33837 32981 22202 10187 20148 30024 40073 57013 80001 555 1/015=
33837,2024,10,10,03,00,AAXX 10031 33837 42465 52102 10189 20156 30013 40062 57011 83601 333 55101 83714==
33837,2024,10,10,06,00,AAXX 10061 33837 32461 61603 10197 20165 30010 40059 56003 83501 333 20186 83711 555 10019=
33837,2024,10,10,09,00,AAXX 10091 33837 42584 31803 10209 20148 30012 40061 53002 82201==
33837,2024,10,10,12,00,AAXX 10121 33837 32582 51703 10207 20161 30009 40058 58003 82201 555 1/029=
33837,2024,10,10,15,00,AAXX 10151 33837 42580 52001 10185 20144 30009 40058 54000 82401==
33837,2024,10,10,18,00,AAXX 10181 33837 32965 22701 10166 20137 30016 40066 53007 80001 333 10213 555 1/016=
33837,2024,10,10,21,00,AAXX 10211 33837 42960 00000 10153 20132 30024 40074 52008==
33837,2024,10,11,00,00,AAXX 11001 33837 31956 00000 10169 20153 30024 40073 54000 71000 555 1/013=
33837,2024,10,11,03,00,AAXX 11031 33837 41357 51603 10196 20183 30026 40075 53002 71011 85600 333 55092 85707==
33837,2024,10,11,06,00,AAXX 11061 33837 32281 61802 10207 20188 30033 40082 53007 85601 333 20148 85706 555 10021=
33837,2024,10,11,09,00,AAXX 11091 33837 42466 71803 10215 20187 30039 40088 52006 86601 333 86711==
33837,2024,10,11,12,00,AAXX 11121 33837 31259 81702 10209 20190 30034 40083 58005 71022 86601 333 86704 555 1/023=
33837,2024,10,11,15,00,AAXX 11151 33837 42360 81703 10208 20191 30035 40084 53001 87601 333 87707==
33837,2024,10,11,18,00,AAXX 11181 33837 31250 81803 10206 20193 30041 40090 53006 71022 886// 333 10225 88704 555 1/020=
33837,2024,10,11,21,00,AAXX 11211 33837 41358 82002 10203 20188 30045 40094 52004 71022 886// 333 88707==
33837,2024,10,12,00,00,AAXX 12001 33837 /1356 82202 10201 20184 30044 40093 58001 78082 8635/ 555 1/019 69951=
33837,2024,10,12,03,00,AAXX 12031 33837 41250 80000 10195 20182 30048 40097 53004 71082 8655/ 333 55048 86704 555 1/019=
33837,2024,10,12,06,00,AAXX 12061 33837 11376 83202 10169 20156 30059 40109 53011 60032 79598 889// 333 20168 555 11017=
33837,2024,10,12,09,00,AAXX 12091 33837 41483 83202 10147 20136 30075 40125 52016 78098 889//==
33837,2024,10,12,12,00,AAXX 12121 33837 /1456 83202 10147 20134 30078 40128 51003 78098 883// 555 1/016 60051=
33837,2024,10,12,15,00,AAXX 12151 33837 41480 83202 10137 20124 30083 40133 52005 78088 8635/==
33837,2024,10,12,18,00,AAXX 12181 33837 11481 83306 10132 20107 30094 40145 53011 60112 70282 885// 333 10169 88717 555 1/013=
33837,2024,10,12,21,00,AAXX 12211 33837 42681 73306 10130 20091 30097 40148 51003 87500 333 87640==
33837,2024,10,13,00,00,AAXX 13001 33837 32583 63204 10130 20089 30095 40146 58002 86500 333 86624 555 1/012=
33837,2024,10,13,03,00,AAXX 13031 33837 42/83 63204 10114 20077 30096 40147 53001 86030 333 55000==
33837,2024,10,13,06,00,AAXX 13061 33837 32581 33202 10111 20072 30097 40148 52001 83500 333 20097 555 10014=
33837,2024,10,13,09,00,AAXX 13091 33837 42483 63203 10147 20086 30099 40149 52002 83801 333 83718==
33837,2024,10,13,12,00,AAXX 13121 33837 32583 53301 10166 20091 30091 40141 58008 83801 333 83626 555 1/026=
33837,2024,10,13,15,00,AAXX 13151 33837 42582 62801 10141 20091 30091 40141 54000 82501 333 82632==
33837,2024,10,13,18,00,AAXX 13181 33837 32984 22601 10110 20077 30095 40146 53004 80001 333 10183 555 1/010=
33837,2024,10,13,21,00,AAXX 13211 33837 42982 00000 10094 20073 30093 40144 58002==
33837,2024,10,14,00,00,AAXX 14001 33837 32982 02602 10116 20088 30085 40136 58008 555 1/009=
33837,2024,10,14,03,00,AAXX 14031 33837 42582 62602 10131 20099 30081 40132 57004 82501 333 55098==
33837,2024,10,14,06,00,AAXX 14061 33837 32582 83102 10123 20088 30094 40145 53013 82531 333 20093 555 11013=
33837,2024,10,14,09,00,AAXX 14091 33837 42580 63203 10155 20090 30111 40161 52017 82539==
33837,2024,10,14,12,00,AAXX 14121 33837 32580 63202 10171 20038 30114 40164 51003 82531 555 1/027=
33837,2024,10,14,15,00,AAXX 14151 33837 42584 63102 10141 20036 30129 40180 53015 82501==
33837,2024,10,14,18,00,AAXX 14181 33837 32984 23101 10115 20049 30141 40192 52012 80001 333 10178 555 1/009=
33837,2024,10,14,21,00,AAXX 14211 33837 42983 02801 10105 20051 30147 40198 51006==
33837,2024,10,15,00,00,AAXX 15001 33837 32984 02801 10080 20046 30148 40200 51001 555 1/007=
33837,2024,10,15,03,00,AAXX 15031 33837 42784 52701 10085 20049 30149 40201 52001 85500 333 55080 85650==
33837,2024,10,15,06,00,AAXX 15061 33837 32783 70000 10111 20074 30161 40212 53012 87500 333 20078 87655 555 10012=
33837,2024,10,15,09,00,AAXX 15091 33837 42481 70901 10146 20049 30165 40216 51004 85450==
33837,2024,10,15,12,00,AAXX 15121 33837 32484 81202 10151 20056 30155 40206 58010 8261/ 555 1/019=
33837,2024,10,15,15,00,AAXX 15151 33837 41480 80505 10125 20082 30158 40209 53003 78082 889//==
33837,2024,10,15,18,00,AAXX 15181 33837 11461 80302 10120 20092 30166 40217 53008 60032 78082 889// 333 10155 555 1/011=
33837,2024,10,15,21,00,AAXX 15211 33837 41459 80302 10103 20089 30174 40226 52008 78188 889//==
33837,2024,10,16,00,00,AAXX 16001 33837 /1668 83601 10098 20087 30175 40227 51001 70282 885// 333 88641 555 1/010 60091=
33837,2024,10,16,03,00,AAXX 16031 33837 41980 23302 10095 20074 30176 40228 52001 70281 80001 333 55021==
33837,2024,10,16,06,00,AAXX 16061 33837 11478 63303 10103 20077 30191 40243 53015 60092 70281 82639 333 20088 555 11011=
33837,2024,10,16,09,00,AAXX 16091 33837 42475 83301 10122 20081 30200 40251 51009 86509 333 86713==
33837,2024,10,16,12,00,AAXX 16121 33837 32581 53402 10137 20070 30194 40245 58006 85400 333 85824 555 1/020=
33837,2024,10,16,15,00,AAXX 16151 33837 42584 33302 10117 20053 30203 40254 53009 83400==
33837,2024,10,16,18,00,AAXX 16181 33837 32983 03102 10101 20053 30210 40262 52007 333 10150 555 1/008=
33837,2024,10,16,21,00,AAXX 16211 33837 42/84 23102 10094 20052 30210 40262 54000 82030==
33837,2024,10,17,00,00,AAXX 17001 33837 32983 73201 10086 20053 30212 40264 53002 87050 555 1/008=
33837,2024,10,17,03,00,AAXX 17031 33837 41468 73402 10088 20069 30214 40266 52002 70282 87500 333 55082 87711==
33837,2024,10,17,06,00,AAXX 17061 33837 11480 63602 10100 20072 30228 40280 53014 69972 70282 86400 333 20082 86710 555 11011=
33837,2024,10,17,09,00,AAXX 17091 33837 42583 60102 10121 20062 30241 40293 52013 86800 333 86624==
33837,2024,10,17,12,00,AAXX 17121 33837 32580 63402 10128 20037 30235 40286 58006 86400 555 1/019=
33837,2024,10,17,15,00,AAXX 17151 33837 42584 73602 10092 20018 30241 40293 53006 87400==
33837,2024,10,17,18,00,AAXX 17181 33837 32784 73501 10090 20028 30246 40298 52005 87500 333 10140 87655 555 1/008=
33837,2024,10,17,21,00,AAXX 17211 33837 42684 70203 10083 20021 30244 40296 58002 85550 333 85644==
33837,2024,10,18,00,00,AAXX 18001 33837 32684 83402 10081 20019 30239 40291 57005 8555/ 333 85646 555 1/007=
33837,2024,10,18,03,00,AAXX 18031 33837 42584 53302 10065 20024 30230 40283 57009 82501 333 55081==
33837,2024,10,18,06,00,AAXX 18061 33837 32483 23301 10071 20022 30231 40283 53001 82600 333 20056 555 10008=
33837,2024,10,18,09,00,AAXX 18091 33837 42680 50104 10103 20019 30227 40279 57004 85500 333 85634==
33837,2024,10,18,12,00,AAXX 18121 33837 32683 63302 10120 20004 30212 40263 58015 83530 333 83646 555 1/018=
33837,2024,10,18,15,00,AAXX 18151 33837 42684 33403 10092 20009 30212 40264 54000 83500 333 83648==
33837,2024,10,18,18,00,AAXX 18181 33837 32784 50103 10097 20023 30210 40262 58002 85500 333 10124 85655 555 1/007=
33837,2024,10,18,21,00,AAXX 18211 33837 42783 20203 10081 20015 30209 40261 57001 82500==
33837,2024,10,19,00,00,AAXX 19001 33837 32984 03203 10054 20010 30212 40265 53003 555 1/003=
33837,2024,10,19,03,00,AAXX 19031 33837 42982 03102 10049 20016 30212 40265 54000 333 55088==
33837,2024,10,19,06,00,AAXX 19061 33837 32576 83302 10055 20027 30221 40274 53009 83574 333 20049 83626 555 10006=
33837,2024,10,19,09,00,AAXX 19091 33837 42477 83401 10087 20043 30227 40279 52006 85574 333 85712==
33837,2024,10,19,12,00,AAXX 19121 33837 32577 63502 10100 20042 30226 40278 58001 85531 333 85622 555 1/016=
33837,2024,10,19,15,00,AAXX 19151 33837 42580 80103 10090 20040 30229 40281 53003 86531 333 86624==
33837,2024,10,19,18,00,AAXX 19181 33837 32581 83401 10084 20035 30240 40292 53011 8553/ 333 10120 85623 555 1/008=
33837,2024,10,19,21,00,AAXX 19211 33837 42584 63302 10069 20016 30241 40294 51001 85531 333 85625==
33837,2024,10,20,00,00,AAXX 20001 33837 32580 83402 10068 20017 30244 40297 52003 8553/ 333 85624 555 1/006=
33837,2024,10,20,03,00,AAXX 20031 33837 42582 83401 10064 20019 30246 40299 52002 885// 333 55037 88621==
33837,2024,10,20,06,00,AAXX 20061 33837 32483 83301 10061 20016 30257 40310 53011 885// 333 20061 88719 555 10007=
33837,2024,10,20,09,00,AAXX 20091 33837 42580 83301 10066 20013 30265 40318 52008 8655/ 333 86720==
33837,2024,10,20,12,00,AAXX 20121 33837 32576 23501 10108 20024 30258 40310 58007 82400 555 1/022=
33837,2024,10,20,15,00,AAXX 20151 33837 42969 03101 10086 20020 30261 40313 53003==
33837,2024,10,20,18,00,AAXX 20181 33837 32968 03003 10073 20030 30268 40321 52007 333 10111 555 1/005=
33837,2024,10,20,21,00,AAXX 20211 33837 42979 00000 10070 20025 30270 40323 52002==
33837,2024,10,21,00,00,AAXX 21001 33837 32971 03102 10059 20024 30271 40324 52001 555 1/003=
33837,2024,10,21,03,00,AAXX 21031 33837 42966 03002 10057 20022 30269 40322 58002 333 55040==
33837,2024,10,21,06,00,AAXX 21061 33837 32970 23103 10069 20026 30274 40327 53005 80001 333 20053 555 10009=
33837,2024,10,21,09,00,AAXX 21091 33837 42981 23202 10131 20040 30274 40326 54000 80001==
33837,2024,10,21,12,00,AAXX 21121 33837 32981 23302 10169 20039 30266 40317 58008 82030 555 1/026=
33837,2024,10,21,15,00,AAXX 21151 33837 42/84 23102 10144 20029 30265 40316 56001 82030==
33837,2024,10,21,18,00,AAXX 21181 33837 32983 03103 10126 20027 30268 40320 53003 333 10169 555 1/008=
33837,2024,10,21,21,00,AAXX 21211 33837 42984 03302 10123 20027 30271 40323 52003==
33837,2024,10,22,00,00,AAXX 22001 33837 32984 02801 10075 20034 30273 40326 52002 555 1/005=
33837,2024,10,22,03,00,AAXX 22031 33837 42982 02901 10061 20033 30268 40321 58005 333 55085==
33837,2024,10,22,06,00,AAXX 22061 33837 32974 20000 10087 20051 30275 40327 53007 80001 333 20054 555 10010=
33837,2024,10,22,09,00,AAXX 22091 33837 42976 20101 10155 20068 30272 40323 58003 80001==
33837,2024,10,22,12,00,AAXX 22121 33837 32982 61201 10165 20042 30262 40313 58010 80004 555 1/026=
33837,2024,10,22,15,00,AAXX 22151 33837 42984 22001 10138 20069 30256 40307 57006 80001==
33837,2024,10,22,18,00,AAXX 22181 33837 32981 02503 10132 20061 30253 40304 57003 333 10168 555 1/009=
33837,2024,10,22,21,00,AAXX 22211 33837 42982 02602 10115 20064 30250 40302 57003==
33837,2024,10,23,00,00,AAXX 23001 33837 32982 02601 10113 20058 30244 40296 57006 555 1/007=
33837,2024,10,23,03,00,AAXX 23031 33837 42984 02602 10106 20034 30240 40292 57004 333 55096==
33837,2024,10,23,06,00,AAXX 23061 33837 32980 02602 10131 20048 30244 40295 53004 333 20101 555 10012=
33837,2024,10,23,09,00,AAXX 23091 33837 42982 02802 10173 20053 30244 40295 54000==
33837,2024,10,23,12,00,AAXX 23121 33837 32973 02502 10186 20051 30232 40282 58012 555 1/026=
33837,2024,10,23,15,00,AAXX 23151 33837 42981 02701 10143 20062 30235 40286 53003==
33837,2024,10,23,18,00,AAXX 23181 33837 32670 33002 10139 20079 30239 40290 52004 83500 333 10190 83643 555 1/010=
33837,2024,10,23,21,00,AAXX 23211 33837 42682 63302 10137 20075 30254 40305 53015 83530 333 83643==
33837,2024,10,24,00,00,AAXX 24001 33837 32583 33302 10122 20071 30262 40314 51008 83500 333 83632 555 1/009=
33837,2024,10,24,03,00,AAXX 24031 33837 42979 03302 10098 20062 30265 40317 51003 333 55079==
33837,2024,10,24,06,00,AAXX 24061 33837 32974 63301 10097 20053 30274 40326 53009 80001 333 20085 555 10016=
33837,2024,10,24,09,00,AAXX 24091 33837 42982 73301 10136 20060 30278 40329 52004 80004==
33837,2024,10,24,12,00,AAXX 24121 33837 32583 33202 10155 20051 30264 40315 58014 83100 555 1/028=
33837,2024,10,24,15,00,AAXX 24151 33837 42982 03302 10129 20051 30261 40313 56003==
33837,2024,10,24,18,00,AAXX 24181 33837 32977 02901 10094 20046 30262 40314 53001 333 10163 555 1/007=
33837,2024,10,24,21,00,AAXX 24211 33837 42975 03002 10088 20044 30257 40309 58005==
33837,2024,10,25,00,00,AAXX 25001 33837 32975 03001 10079 20037 30251 40303 57006 555 1/005=
33837,2024,10,25,03,00,AAXX 25031 33837 42975 03002 10069 20039 30243 40296 57008 333 55076==
33837,2024,10,25,06,00,AAXX 25061 33837 32467 23201 10073 20041 30244 40296 53001 82600 333 20062 555 10011=
33837,2024,10,25,09,00,AAXX 25091 33837 42472 23302 10118 20057 30240 40292 58004 81601==
33837,2024,10,25,12,00,AAXX 25121 33837 32576 83202 10133 20059 30226 40277 58014 85501 333 85625 555 1/025=
33837,2024,10,25,15,00,AAXX 25151 33837 42677 80000 10096 20052 30222 40274 56004 82501==
33837,2024,10,25,18,00,AAXX 25181 33837 32981 60000 10081 20052 30227 40279 53005 80001 333 10138 555 1/005=
33837,2024,10,25,21,00,AAXX 25211 33837 42962 30000 10064 20044 30230 40283 52003 80001==
33837,2024,10,26,00,00,AAXX 26001 33837 31958 20000 10054 20039 30228 40281 58002 71011 80001 555 1/003=
33837,2024,10,26,03,00,AAXX 26031 33837 41557 50000 10057 20045 30230 40283 53002 71011 85500 333 55073 85620==
33837,2024,10,26,06,00,AAXX 26061 33837 32463 70000 10076 20059 30237 40289 53007 85501 333 20051 85717 555 10009=
33837,2024,10,26,09,00,AAXX 26091 33837 42482 83501 10107 20059 30246 40298 52009 8555/ 333 85719==
33837,2024,10,26,12,00,AAXX 26121 33837 32580 63401 10128 20057 30238 40289 58008 85530 333 85626 555 1/021=
33837,2024,10,26,15,00,AAXX 26151 33837 42584 60902 10110 20049 30239 40291 53001 82531 333 82627==
33837,2024,10,26,18,00,AAXX 26181 33837 32583 60000 10102 20052 30242 40294 52003 83530 333 10129 83626 555 1/006=
33837,2024,10,26,21,00,AAXX 26211 33837 42583 30000 10096 20050 30241 40293 58001 82530==
33837,2024,10,27,00,00,AAXX 27001 33837 31947 02801 10060 20045 30235 40288 58006 71011 555 1/003=
33837,2024,10,27,03,00,AAXX 27031 33837 41936 00000 10052 20040 30231 40284 57004 71000 333 55028==
33837,2024,10,27,06,00,AAXX 27061 33837 31557 50000 10068 20057 30232 40285 53001 71011 82502 333 20048 555 10007=
33837,2024,10,27,09,00,AAXX 27091 33837 42569 31102 10140 20092 30233 40284 52001 83400==
33837,2024,10,27,12,00,AAXX 27121 33837 32584 21804 10162 20096 30214 40265 58019 82400 555 1/024=
33837,2024,10,27,15,00,AAXX 27151 33837 42584 22202 10141 20095 30204 40255 56010 82400==
33837,2024,10,27,18,00,AAXX 27181 33837 32983 02402 10133 20099 30202 40253 56002 333 10162 555 1/010=
33837,2024,10,27,21,00,AAXX 27211 33837 42980 02503 10123 20099 30193 40244 58009==
33837,2024,10,28,00,00,AAXX 28001 33837 32982 02402 10119 20098 30181 40232 57012 555 1/008=
33837,2024,10,28,03,00,AAXX 28031 33837 42968 02503 10123 20105 30169 40220 57012 333 55073==
33837,2024,10,28,06,00,AAXX 28061 33837 32979 82602 10120 20102 30165 40216 56004 86052 333 20118 555 10011=
33837,2024,10,28,09,00,AAXX 28091 33837 42/81 33301 10156 20091 30165 40216 54000 82031==
33837,2024,10,28,12,00,AAXX 28121 33837 32980 23501 10179 20100 30151 40201 58014 80001 555 1/026=
33837,2024,10,28,15,00,AAXX 28151 33837 42/72 53001 10159 20098 30153 40203 53002 82031==
33837,2024,10,28,18,00,AAXX 28181 33837 32965 33002 10138 20096 30162 40213 53009 80001 333 10185 555 1/011=
33837,2024,10,28,21,00,AAXX 28211 33837 42961 03102 10128 20094 30171 40222 52009==
33837,2024,10,29,00,00,AAXX 29001 33837 31956 03202 10116 20092 30173 40224 51002 71000 555 1/009=
33837,2024,10,29,03,00,AAXX 29031 33837 41956 03203 10106 20085 30178 40229 52005 71000 333 55055==
33837,2024,10,29,06,00,AAXX 29061 33837 31558 83203 10104 20080 30191 40243 53013 71011 85531 333 20099 85722 555 10011=
33837,2024,10,29,09,00,AAXX 29091 33837 42461 33401 10148 20083 30192 40243 51001 82601==
33837,2024,10,29,12,00,AAXX 29121 33837 32684 63402 10149 20049 30184 40235 58008 86400 333 86644 555 1/022=
33837,2024,10,29,15,00,AAXX 29151 33837 42584 83301 10124 20034 30189 40240 53005 82404==
33837,2024,10,29,18,00,AAXX 29181 33837 32969 02802 10090 20036 30190 40242 52001 333 10163 555 1/007=
33837,2024,10,29,21,00,AAXX 29211 33837 42980 03001 10089 20033 30191 40243 52001==
33837,2024,10,30,00,00,AAXX 30001 33837 32978 03001 10068 20032 30192 40244 52001 555 1/004=
33837,2024,10,30,03,00,AAXX 30031 33837 42976 00000 10051 20025 30192 40245 54000 333 55049==
33837,2024,10,30,06,00,AAXX 30061 33837 32980 60000 10094 20054 30197 40249 53005 86030 333 20050 555 10009=
33837,2024,10,30,09,00,AAXX 30091 33837 42/82 60301 10115 20056 30196 40247 58001 86030==
33837,2024,10,30,12,00,AAXX 30121 33837 32983 80000 10131 20043 30186 40237 58010 8805/ 555 1/019=
33837,2024,10,30,15,00,AAXX 30151 33837 42582 80000 10120 20063 30176 40227 57010 8357/ 333 83625==
33837,2024,10,30,18,00,AAXX 30181 33837 32576 82601 10120 20059 30175 40226 56001 8557/ 333 10131 85630 555 1/011=
33837,2024,10,30,21,00,AAXX 30211 33837 42770 82801 10118 20065 30171 40222 57004 8357/ 333 83650==
33837,2024,10,31,00,00,AAXX 31001 33837 32764 62901 10119 20084 30166 40217 57005 83530 333 83655 555 1/011=
33837,2024,10,31,03,00,AAXX 31031 33837 42561 62901 10121 20095 30161 40212 57005 82530 333 55008==
33837,2024,10,31,06,00,AAXX 31061 33837 31557 82901 10124 20101 30167 40218 53006 71022 82571 333 20112 555 10012=
33837,2024,10,31,09,00,AAXX 31091 33837 42582 83102 10166 20091 30166 40215 58001 8255/ 333 30///==
33837,2024,10,31,12,00,AAXX 31121 33837 32583 73201 10161 20068 30159 40209 58007 82409 555 1/019=
33837,2024,10,31,15,00,AAXX 31151 33837 42683 73002 10141 20062 30164 40215 53005 83530 333 83647==
33837,2024,10,31,18,00,AAXX 31181 33837 32974 62801 10121 20070 30174 40225 52010 86030 333 10172 555 1/010=
33837,2024,10,31,21,00,AAXX 31211 33837 42/82 63001 10110 20065 30174 40225 54000 86030==
33837,2024,11,01,00,00,AAXX 01001 33837 32981 52801 10106 20067 30169 40220 58005 85030 555 1/009=
33837,2024,11,01,03,00,AAXX 01031 33837 42/77 82701 10109 20070 30164 40215 57005 8805/ 333 55018==
33837,2024,11,01,06,00,AAXX 01061 33837 32980 72901 10111 20070 30163 40214 57001 80009 333 20099 555 10011=
33837,2024,11,01,09,00,AAXX 01091 33837 42981 72702 10153 20073 30154 40205 58009 80001==
33837,2024,11,01,12,00,AAXX 01121 33837 32976 62502 10176 20074 30131 40181 58023 80004 555 1/025=
33837,2024,11,01,15,00,AAXX 01151 33837 42982 62603 10163 20083 30116 40166 56015 80001==
33837,2024,11,01,18,00,AAXX 01181 33837 32980 52602 10148 20081 30115 40165 56001 80001 333 10183 555 1/011=
33837,2024,11,01,21,00,AAXX 01211 33837 42973 52702 10134 20078 30110 40161 57005 80001==
33837,2024,11,02,00,00,AAXX 02001 33837 32980 52802 10129 20071 30100 40151 58010 80001 555 1/009=
33837,2024,11,02,03,00,AAXX 02031 33837 42/80 32803 10118 20065 30090 40141 57010 81031 333 55038==
33837,2024,11,02,06,00,AAXX 02061 33837 32981 72801 10131 20062 30092 40143 53002 80001 333 20116 555 10013=
33837,2024,11,02,09,00,AAXX 02091 33837 42981 73202 10192 20053 30093 40143 52001 80002==
33837,2024,11,02,12,00,AAXX 02121 33837 32982 73204 10177 20072 30087 40137 58006 83031 555 1/020=
33837,2024,11,02,15,00,AAXX 02151 33837 42584 73303 10141 20060 30116 40167 53029 82531==
33837,2024,11,02,18,00,AAXX 02181 33837 32984 03402 10099 20002 30161 40213 53045 333 10199 555 1/007=
33837,2024,11,02,21,00,AAXX 02211 33837 42984 03305 10072 21048 30196 40248 51035==
33837,2024,11,03,00,00,AAXX 03001 33837 32984 03205 10058 21044 30215 40268 51019 555 1/003=
33837,2024,11,03,03,00,AAXX 03031 33837 42984 03105 10038 21039 30228 40281 51013 333 55056==
33837,2024,11,03,06,00,AAXX 03061 33837 32581 33102 10045 21035 30246 40299 53018 82501 333 20034 555 10004=
33837,2024,11,03,09,00,AAXX 03091 33837 42982 03302 10084 21038 30255 40307 51009==
33837,2024,11,03,12,00,AAXX 03121 33837 32982 23301 10093 21050 30243 40295 58012 80001 555 1/021=
33837,2024,11,03,15,00,AAXX 03151 33837 42983 00000 10061 21041 30235 40288 57008==
33837,2024,11,03,18,00,AAXX 03181 33837 32984 02901 10041 21034 30232 40285 57003 333 10097 555 1/002=
33837,2024,11,03,21,00,AAXX 03211 33837 42984 00000 10025 21040 30219 40272 58013==
33837,2024,11,04,00,00,AAXX 04001 33837 32984 02603 10037 21017 30190 40243 58029 555 1/001=
33837,2024,11,04,03,00,AAXX 04031 33837 42/84 22706 10044 21022 30151 40204 58039 82030 333 55063==
33837,2024,11,04,06,00,AAXX 04061 33837 32981 82801 10048 21016 30129 40181 56022 8807/ 333 20024 555 10005=
33837,2024,11,04,09,00,AAXX 04091 33837 42680 73004 10103 21030 30119 40170 56010 83531 333 83634==
33837,2024,11,04,12,00,AAXX 04121 33837 32681 73204 10106 20014 30119 40170 54000 86530 333 86638 555 1/014=
33837,2024,11,04,15,00,AAXX 04151 33837 42584 63204 10100 21011 30135 40186 53016 83531==
33837,2024,11,04,18,00,AAXX 04181 33837 32584 53403 10069 21048 30181 40233 53046 82530 333 10126 555 1/003=
33837,2024,11,04,21,00,AAXX 04211 33837 42/84 33202 10049 21057 30211 40264 52030 82031==
33837,2024,11,05,00,00,AAXX 05001 33837 32984 33302 10041 21054 30230 40283 51019 80001 555 1/000=
33837,2024,11,05,03,00,AAXX 05031 33837 42984 23101 10016 21058 30249 40303 52019 80001 333 55034==
33837,2024,11,05,06,00,AAXX 05061 33837 32982 23401 10028 21035 30267 40321 52018 82030 333 20011 555 10001=
33837,2024,11,05,09,00,AAXX 05091 33837 42583 23201 10061 21055 30283 40336 52016 82500==
33837,2024,11,05,12,00,AAXX 05121 33837 32984 03401 10076 21073 30273 40326 58010 555 1/019=
33837,2024,11,05,15,00,AAXX 05151 33837 42984 10000 10045 21053 30270 40323 56003 80001==
33837,2024,11,05,18,00,AAXX 05181 33837 32982 00000 10025 21056 30271 40325 53001 333 10079 555 1/101=
33837,2024,11,05,21,00,AAXX 05211 33837 42983 00000 10014 21043 30268 40322 58003==
33837,2024,11,06,00,00,AAXX 06001 33837 32983 02802 10024 21037 30264 40318 57004 555 1/100=
33837,2024,11,06,03,00,AAXX 06031 33837 42/72 62802 10034 21053 30261 40314 57003 86030 333 55061==
33837,2024,11,06,06,00,AAXX 06061 33837 32582 62901 10040 21042 30270 40323 53009 82530 333 20013 555 10004=
33837,2024,11,06,09,00,AAXX 06091 33837 42/76 32702 10084 21023 30277 40330 52007 83030==
33837,2024,11,06,12,00,AAXX 06121 33837 32580 22802 10114 21035 30269 40321 58008 82500 555 1/019=
33837,2024,11,06,15,00,AAXX 06151 33837 42980 00000 10081 21022 30271 40324 53002==
33837,2024,11,06,18,00,AAXX 06181 33837 32967 02901 10066 21020 30281 40334 53010 333 10119 555 1/002=
33837,2024,11,06,21,00,AAXX 06211 33837 42966 02902 10055 21023 30285 40338 51004==
33837,2024,11,07,00,00,AAXX 07001 33837 32968 02802 10045 21028 30292 40345 52007 555 1/001=
33837,2024,11,07,03,00,AAXX 07031 33837 42967 02901 10037 21027 30290 40343 58002 333 55033==
33837,2024,11,07,06,00,AAXX 07061 33837 32964 22802 10044 21029 30296 40349 53006 80001 333 20030 555 10003=
33837,2024,11,07,09,00,AAXX 07091 33837 42964 22501 10127 21027 30298 40350 51002 80001==
33837,2024,11,07,12,00,AAXX 07121 33837 32962 31201 10133 20025 30285 40337 58013 80001 555 1/022=
33837,2024,11,07,15,00,AAXX 07151 33837 42/78 20000 10100 21051 30281 40333 56004 82054==
33837,2024,11,07,18,00,AAXX 07181 33837 32964 02701 10067 21025 30276 40329 57005 333 10144 555 1/003=
33837,2024,11,07,21,00,AAXX 07211 33837 42972 02801 10072 21025 30274 40327 57002==
33837,2024,11,08,00,00,AAXX 08001 33837 32961 22701 10056 21027 30272 40325 57002 80001 555 1/001=
33837,2024,11,08,03,00,AAXX 08031 33837 42965 02901 10046 21025 30266 40319 57006 333 55060==
33837,2024,11,08,06,00,AAXX 08061 33837 32961 82801 10045 21013 30264 40317 56002 80001 333 20033 555 10003=
33837,2024,11,08,09,00,AAXX 08091 33837 42966 63301 10130 21013 30266 40318 53002 80004==
33837,2024,11,08,12,00,AAXX 08121 33837 32969 63201 10129 21004 30254 40306 58012 80009 555 1/016=
33837,2024,11,08,15,00,AAXX 08151 33837 42968 53002 10100 20011 30254 40306 54000 80001==
33837,2024,11,08,18,00,AAXX 08181 33837 32460 60102 10048 20009 30272 40325 53018 85501 333 10147 85715 555 1/003=
33837,2024,11,08,21,00,AAXX 08211 33837 42463 83502 10050 20009 30270 40323 58002 86504 333 86717==
33837,2024,11,09,00,00,AAXX 09001 33837 32480 80102 10056 20021 30262 40315 58008 885// 333 88717 555 1/005=
33837,2024,11,09,03,00,AAXX 09031 33837 42465 80201 10061 20031 30256 40309 57006 885// 333 55050 88712==
33837,2024,11,09,06,00,AAXX 09061 33837 11482 80103 10062 20035 30256 40309 54000 69902 70282 8637/ 333 20042 86711 555 11006=
33837,2024,11,09,09,00,AAXX 09091 33837 42473 80205 10069 20039 30251 40304 58005 885// 333 88712==
33837,2024,11,09,12,00,AAXX 09121 33837 32461 80610 10083 20058 30239 40291 58012 885// 333 88710 555 1/008=
33837,2024,11,09,15,00,AAXX 09151 33837 42463 80610 10088 20052 30240 40292 53001 885// 333 88714==
33837,2024,11,09,18,00,AAXX 09181 33837 32469 80610 10088 20030 30243 40295 52003 885// 333 10094 88718 555 1/008=
33837,2024,11,09,21,00,AAXX 09211 33837 42476 80708 10079 20036 30245 40297 52002 885// 333 88719==
33837,2024,11,10,00,00,AAXX 10001 33837 32475 80708 10073 20034 30245 40298 54000 885// 333 88715 555 1/007=
33837,2024,11,10,03,00,AAXX 10031 33837 42469 80808 10073 20035 30244 40296 58001 885// 333 55000 88717==
33837,2024,11,10,06,00,AAXX 10061 33837 32471 80708 10070 20032 30250 40303 53006 885// 333 20069 88715 555 10007=
33837,2024,11,10,09,00,AAXX 10091 33837 42464 80507 10069 20032 30252 40305 52002 885// 333 88716==
33837,2024,11,10,12,00,AAXX 10121 33837 32480 80405 10064 20027 30239 40292 58013 885// 333 88714 555 1/008=
33837,2024,11,10,15,00,AAXX 10151 33837 42478 80405 10060 20025 30238 40291 56001 885// 333 88716==
33837,2024,11,10,18,00,AAXX 10181 33837 32478 80405 10053 20014 30246 40299 53008 885// 333 10072 88717 555 1/005=
33837,2024,11,10,21,00,AAXX 10211 33837 42480 80405 10053 20012 30245 40298 58001 885// 333 88718==
33837,2024,11,11,00,00,AAXX 11001 33837 32481 80405 10045 20008 30244 40297 57001 885// 333 88715 555 1/005=
33837,2024,11,11,03,00,AAXX 11031 33837 42481 80403 10038 20005 30242 40295 57002 885// 333 55000 88713==
33837,2024,11,11,06,00,AAXX 11061 33837 32469 80202 10030 21001 30248 40301 53006 885// 333 20030 88712 555 10004=
33837,2024,11,11,09,00,AAXX 11091 33837 42467 80101 10031 20000 30248 40301 54000 885// 333 88711==
33837,2024,11,11,12,00,AAXX 11121 33837 32464 83602 10036 21000 30239 40292 58009 885// 333 88713 555 1/006=
33837,2024,11,11,15,00,AAXX 11151 33837 42464 80303 10036 20000 30240 40293 53001 885// 333 88715==
33837,2024,11,11,18,00,AAXX 11181 33837 32460 80203 10029 21002 30247 40300 53007 885// 333 10038 88713 555 1/004=
33837,2024,11,11,21,00,AAXX 11211 33837 41357 80403 10026 20003 30248 40301 51001 71022 886// 333 88709==
33837,2024,11,12,00,00,AAXX 12001 33837 32370 80202 10035 20009 30245 40298 58003 886// 333 88709 555 1/004=
33837,2024,11,12,03,00,AAXX 12031 33837 42482 80703 10050 20015 30242 40295 57003 885// 333 55000 88716==
33837,2024,11,12,06,00,AAXX 12061 33837 32482 80705 10059 20020 30249 40302 53007 885// 333 20025 88713 555 10005=
33837,2024,11,12,09,00,AAXX 12091 33837 42469 80705 10065 20035 30249 40302 54000 885// 333 88712==
33837,2024,11,12,12,00,AAXX 12121 33837 32467 80706 10068 20036 30247 40300 58002 8657/ 333 86714 555 1/006=
33837,2024,11,12,15,00,AAXX 12151 33837 41581 80706 10071 20024 30252 40305 53005 70282 8656/ 333 86620==
33837,2024,11,12,18,00,AAXX 12181 33837 11583 80706 10073 20024 30252 40305 54000 69902 70282 885// 333 10074 88623 555 1/006=
33837,2024,11,12,21,00,AAXX 12211 33837 42581 80705 10071 20016 30250 40303 58002 8655/ 333 86627==
33837,2024,11,13,00,00,AAXX 13001 33837 32581 80804 10073 20016 30244 40297 57006 8655/ 333 86632 555 1/006=
33837,2024,11,13,03,00,AAXX 13031 33837 42583 80904 10074 20027 30236 40288 57008 885// 333 55000 88621==
33837,2024,11,13,06,00,AAXX 13061 33837 11480 80904 10070 20027 30237 40290 53001 69902 78082 883// 333 20068 555 11006=
33837,2024,11,13,09,00,AAXX 13091 33837 41481 80904 10075 20039 30236 40288 58001 70282 8655/ 333 86712==
33837,2024,11,13,12,00,AAXX 13121 33837 /1479 80902 10080 20044 30219 40271 58017 72582 883// 333 88912 555 1/009 69901=
33837,2024,11,13,15,00,AAXX 13151 33837 41470 80704 10074 20049 30215 40267 56004 78082 883//==
33837,2024,11,13,18,00,AAXX 13181 33837 11472 80902 10074 20050 30213 40265 57002 69902 78082 883// 333 10080 555 1/007=
33837,2024,11,13,21,00,AAXX 13211 33837 41465 80401 10070 20048 30207 40259 57006 70282 885// 333 88712==
33837,2024,11,14,00,00,AAXX 14001 33837 /1367 80701 10068 20051 30197 40249 57010 70282 885// 333 88708 555 1/006 69901=
33837,2024,11,14,03,00,AAXX 14031 33837 41329 80000 10061 20047 30189 40241 57008 76162 8872/ 333 55000==
33837,2024,11,14,06,00,AAXX 14061 33837 11328 80000 10055 20043 30190 40243 53001 60012 76162 8872/ 333 20053 555 11006=
33837,2024,11,14,09,00,AAXX 14091 33837 41250 80301 10067 20055 30184 40236 58006 71062 87501 333 87704==
33837,2024,11,14,12,00,AAXX 14121 33837 /1457 83501 10056 20038 30173 40225 58011 71062 885// 333 88711 555 1/009 69951=
33837,2024,11,14,15,00,AAXX 14151 33837 42564 63101 10034 20006 30169 40222 56004 82501==
33837,2024,11,14,18,00,AAXX 14181 33837 12962 33301 10030 20001 30168 40221 57001 69952 80001 333 10069 555 1/000=
33837,2024,11,14,21,00,AAXX 14211 33837 42474 60000 10010 21021 30161 40214 58007 83501 333 83717==
33837,2024,11,15,00,00,AAXX 15001 33837 32664 52801 10010 21017 30159 40212 56002 82501 333 82637 555 1/101=
33837,2024,11,15,03,00,AAXX 15031 33837 42672 60000 10019 21014 30142 40195 58017 86500 333 55000 86634==
33837,2024,11,15,06,00,AAXX 15061 33837 32570 72601 10029 21013 30145 40198 53003 87500 333 20005 87633 555 11003=
33837,2024,11,15,09,00,AAXX 15091 33837 42665 82801 10061 20004 30138 40190 58007 86501 333 86638==
33837,2024,11,15,12,00,AAXX 15121 33837 32667 83001 10066 20001 30125 40177 58013 86501 333 86642 555 1/011=
33837,2024,11,15,15,00,AAXX 15151 33837 42662 82901 10057 20005 30131 40183 53006 85501 333 85640==
33837,2024,11,15,18,00,AAXX 15181 33837 32570 73102 10052 20008 30140 40192 52009 86501 333 10073 86625 555 1/004=
33837,2024,11,15,21,00,AAXX 15211 33837 42573 73201 10055 20020 30148 40200 52008 86501 333 86629==
33837,2024,11,16,00,00,AAXX 16001 33837 32583 63101 10039 21005 30163 40216 53015 85501 333 85632 555 1/002=
33837,2024,11,16,03,00,AAXX 16031 33837 42583 33202 10023 21017 30171 40224 51008 83500 333 55004 83628==
33837,2024,11,16,06,00,AAXX 16061 33837 32680 23002 10012 21017 30186 40239 53015 82500 333 20004 555 14101=
33837,2024,11,16,09,00,AAXX 16091 33837 42976 03601 10061 21011 30192 40244 51006==
33837,2024,11,16,12,00,AAXX 16121 33837 32581 20201 10080 21007 30184 40236 58008 82150 555 1/019=
33837,2024,11,16,15,00,AAXX 16151 33837 42680 30000 10047 21013 30180 40233 57004 82401 333 82639==
33837,2024,11,16,18,00,AAXX 16181 33837 32981 22602 10037 21013 30176 40229 57004 80001 333 10090 555 1/100=
33837,2024,11,16,21,00,AAXX 16211 33837 42980 02602 10040 21004 30170 40223 57006==
33837,2024,11,17,00,00,AAXX 17001 33837 32973 02602 10040 20005 30158 40211 58012 555 1/101=
33837,2024,11,17,03,00,AAXX 17031 33837 42962 02702 10027 21006 30144 40197 57014 333 55051==
33837,2024,11,17,06,00,AAXX 17061 33837 32560 22701 10039 20002 30136 40189 57008 82500 333 20027 555 10001=
33837,2024,11,17,09,00,AAXX 17091 33837 42584 62503 10080 20009 30124 40176 57012 85530 333 85629==
33837,2024,11,17,12,00,AAXX 17121 33837 32583 52102 10103 20006 30101 40152 58023 82501 555 1/016=
33837,2024,11,17,15,00,AAXX 17151 33837 42583 52202 10080 20027 30088 40140 56013 83501 333 83623==
33837,2024,11,17,18,00,AAXX 17181 33837 32583 62402 10088 20030 30077 40128 57011 86500 333 10105 86627 555 1/005=
33837,2024,11,17,21,00,AAXX 17211 33837 42584 62402 10073 20022 30070 40122 57007 86500 333 86627==
33837,2024,11,18,00,00,AAXX 18001 33837 32584 22702 10071 20020 30061 40113 57009 82500 333 82633 555 1/003=
33837,2024,11,18,03,00,AAXX 18031 33837 42684 62802 10060 20017 30053 40105 57008 86500 333 55032 86637==
33837,2024,11,18,06,00,AAXX 18061 33837 32580 82402 10077 20020 30053 40104 54000 82501 333 20056 555 10005=
33837,2024,11,18,09,00,AAXX 18091 33837 42677 52802 10098 20024 30058 40109 53005 82501==
33837,2024,11,18,12,00,AAXX 18121 33837 32984 32301 10118 20014 30056 40107 58002 82031 555 1/018=
33837,2024,11,18,15,00,AAXX 18151 33837 42/64 62901 10071 20008 30064 40116 53008 82031==
33837,2024,11,18,18,00,AAXX 18181 33837 32965 33002 10059 20018 30076 40128 52012 80001 333 10120 555 1/003=
33837,2024,11,18,21,00,AAXX 18211 33837 42/68 62801 10042 20011 30085 40137 52009 82031==
33837,2024,11,19,00,00,AAXX 19001 33837 32963 02802 10038 20010 30092 40144 52007 555 1/001=
33837,2024,11,19,03,00,AAXX 19031 33837 42964 22702 10033 20004 30099 40152 52007 80001 333 55048==
33837,2024,11,19,06,00,AAXX 19061 33837 32962 20000 10044 20005 30114 40166 53015 82030 333 20031 555 10001=
33837,2024,11,19,09,00,AAXX 19091 33837 42975 01702 10100 20021 30123 40174 51009==
33837,2024,11,19,12,00,AAXX 19121 33837 32977 21802 10106 20041 30119 40170 58004 80001 555 1/014=
33837,2024,11,19,15,00,AAXX 19151 33837 42977 02102 10094 20040 30114 40165 57005==
33837,2024,11,19,18,00,AAXX 19181 33837 32960 02102 10102 20074 30111 40162 57003 333 10112 555 1/006=
33837,2024,11,19,21,00,AAXX 19211 33837 42960 02101 10109 20085 30100 40151 58011==
33837,2024,11,20,00,00,AAXX 20001 33837 32470 71904 10118 20088 30077 40128 58023 87500 333 87719 555 1/008=
33837,2024,11,20,03,00,AAXX 20031 33837 42569 62102 10119 20078 30051 40102 57026 86500 333 55047 86631==
33837,2024,11,20,06,00,AAXX 20061 33837 32675 52105 10122 20073 30030 40080 57021 85500 333 20102 85642 555 10010=
33837,2024,11,20,09,00,AAXX 20091 33837 42573 82006 10130 20081 30012 40062 57018 8657/ 333 86626==
33837,2024,11,20,12,00,AAXX 20121 33837 32563 62004 10134 20091 39978 40028 58034 82531 333 82623 555 1/015=
33837,2024,11,20,15,00,AAXX 20151 33837 42563 72105 10125 20091 39957 40007 56021 82501 333 82720==
33837,2024,11,20,18,00,AAXX 20181 33837 32461 82205 10127 20102 39941 49991 56016 83501 333 10143 83711 555 1/010=
33837,2024,11,20,21,00,AAXX 20211 33837 41457 72005 10134 20113 39924 49974 57017 71022 85501 333 85711==
33837,2024,11,21,00,00,AAXX 21001 33837 31357 82104 10139 20118 39896 49945 58028 71022 86501 333 86709 555 1/012=
33837,2024,11,21,03,00,AAXX 21031 33837 41356 82105 10140 20115 39868 49917 57028 71022 885// 333 55016 88709==
33837,2024,11,21,06,00,AAXX 21061 33837 11458 82204 10141 20116 39839 49888 57029 69962 78082 8697/ 333 20127 555 11012=
33837,2024,11,21,09,00,AAXX 21091 33837 41371 83206 10036 20021 39880 49931 53041 78082 883//==
33837,2024,11,21,12,00,AAXX 21121 33837 /1481 83004 10038 20007 39941 49993 53061 70282 885// 333 88714 555 1/006 60041=
33837,2024,11,21,15,00,AAXX 21151 33837 42480 82902 10030 21001 39991 40043 53050 85551 333 85718==
33837,2024,11,21,18,00,AAXX 21181 33837 12572 82701 10019 21008 30032 40084 53041 60042 8355/ 333 10142 555 1/001=
33837,2024,11,21,21,00,AAXX 21211 33837 42/84 22602 10018 21016 30065 40118 53033 82031==
33837,2024,11,22,00,00,AAXX 22001 33837 32981 02602 10019 21012 30076 40129 51011 555 1/101=
33837,2024,11,22,03,00,AAXX 22031 33837 42984 02702 10024 21005 30086 40139 52010 333 55000==
33837,2024,11,22,06,00,AAXX 22061 33837 32684 62101 10052 20008 30074 40126 58012 85554 333 20014 85635 555 14100=
33837,2024,11,22,09,00,AAXX 22091 33837 42684 81907 10101 20010 30051 40102 58023 86501 333 86639==
33837,2024,11,22,12,00,AAXX 22121 33837 32575 81808 10109 20048 30021 40072 58030 86501 333 86628 555 1/010=
33837,2024,11,22,15,00,AAXX 22151 33837 42667 81811 10117 20072 39992 40042 57029 87501 333 87636==
33837,2024,11,22,18,00,AAXX 22181 33837 32561 61808 10127 20093 39952 40002 58040 83501 333 10127 83620 91118=
33837,2024,11,22,21,00,AAXX 22211 33837 42660 62205 10133 20103 39930 49980 56022 85501 333 85640==
33837,2024,11,23,00,00,AAXX 23001 33837 /1459 82303 10137 20112 39931 49981 53001 78082 883// 555 1/011 60021=
33837,2024,11,23,03,00,AAXX 23031 33837 41460 82902 10097 20078 39950 40000 53019 78082 883// 333 55009==
33837,2024,11,23,06,00,AAXX 23061 33837 11464 83004 10032 20017 39993 40045 53043 60112 72582 86361 333 20031 86911 555 11005=
33837,2024,11,23,09,00,AAXX 23091 33837 42481 83104 10031 21002 30035 40087 52042 8653/ 333 86715==
33837,2024,11,23,12,00,AAXX 23121 33837 32582 83104 10039 21011 30065 40117 51030 8653/ 333 86629 555 1/006=
33837,2024,11,23,15,00,AAXX 23151 33837 42580 83103 10025 21017 30111 40164 53046 86531 333 86621==
33837,2024,11,23,18,00,AAXX 23181 33837 32579 53203 10014 21045 30146 40199 53035 85500 333 10039 85628 555 1/101=
33837,2024,11,23,21,00,AAXX 23211 33837 42680 33104 10015 21038 30175 40228 51029 83500 333 83635==
33837,2024,11,24,00,00,AAXX 24001 33837 32980 23103 10011 21038 30212 40266 52037 80001 555 1/101=
33837,2024,11,24,03,00,AAXX 24031 33837 42984 33103 11002 21044 30235 40289 52023 80001 333 55002==
33837,2024,11,24,06,00,AAXX 24061 33837 32980 23002 11001 21047 30253 40307 51018 82030 333 21005 555 14102=
33837,2024,11,24,09,00,AAXX 24091 33837 42583 23202 10037 21043 30267 40320 52014 82500==
33837,2024,11,24,12,00,AAXX 24121 33837 32681 53202 10050 21048 30260 40313 58007 85500 333 85636 555 1/011=
33837,2024,11,24,15,00,AAXX 24151 33837 42584 23101 10021 21048 30265 40319 53005 82500==
33837,2024,11,24,18,00,AAXX 24181 33837 32984 00101 10008 21039 30266 40320 52001 333 10055 555 1/101=
33837,2024,11,24,21,00,AAXX 24211 33837 42984 00304 10015 21042 30265 40319 58001==
33837,2024,11,25,00,00,AAXX 25001 33837 32984 00304 10013 21043 30263 40317 57002 555 1/102=
33837,2024,11,25,03,00,AAXX 25031 33837 42982 00306 10005 21034 30267 40321 53004 333 55039==
33837,2024,11,25,06,00,AAXX 25061 33837 32471 23602 11011 21038 30273 40327 52006 82600 333 21017 555 14102=
33837,2024,11,25,09,00,AAXX 25091 33837 42480 23502 10021 21036 30271 40325 58002 82600==
33837,2024,11,25,12,00,AAXX 25121 33837 32983 03502 10044 21043 30253 40306 58018 555 1/010=
33837,2024,11,25,15,00,AAXX 25151 33837 42984 03603 10024 21046 30250 40304 56003==
33837,2024,11,25,18,00,AAXX 25181 33837 32984 00404 10024 21019 30243 40296 57007 333 10045 555 1/101=
33837,2024,11,25,21,00,AAXX 25211 33837 41258 80506 10004 21015 30237 40291 57006 71011 886// 333 88706==
33837,2024,11,26,00,00,AAXX 26001 33837 32367 80604 11011 21033 30226 40280 58011 886// 333 88707 555 1/101=
33837,2024,11,26,03,00,AAXX 26031 33837 42262 80403 11022 21041 30212 40266 57014 886// 333 55040 88705==
33837,2024,11,26,06,00,AAXX 26061 33837 32368 80703 11011 21033 30210 40264 56002 886// 333 21024 88707 555 10101=
33837,2024,11,26,09,00,AAXX 26091 33837 42480 70703 11004 21038 30203 40257 58007 87600 333 87712==
33837,2024,11,26,12,00,AAXX 26121 33837 32473 80803 11010 21043 30192 40246 57011 885// 333 88712 555 1/002=
33837,2024,11,26,15,00,AAXX 26151 33837 42479 80602 11008 21035 30188 40242 56004 885// 333 88710==
33837,2024,11,26,18,00,AAXX 26181 33837 32361 80203 11006 21031 30188 40242 54000 886// 333 10002 88707 555 1/100=
33837,2024,11,26,21,00,AAXX 26211 33837 41350 80402 10001 21018 30186 40240 58002 71022 886// 333 88708==
33837,2024,11,27,00,00,AAXX 27001 33837 32473 80803 10008 21018 30181 40234 57005 886// 333 88711 555 1/100=
33837,2024,11,27,03,00,AAXX 27031 33837 42461 80603 11005 21029 30184 40238 53003 886// 333 55000 88710==
33837,2024,11,27,06,00,AAXX 27061 33837 32361 70303 11015 21037 30193 40247 53009 87500 333 21016 87708 555 10101=
33837,2024,11,27,09,00,AAXX 27091 33837 42362 80402 11009 21034 30200 40254 52007 885// 333 88709==
33837,2024,11,27,12,00,AAXX 27121 33837 32561 80301 10002 21032 30196 40250 58004 8555/ 333 85632 555 1/006=
33837,2024,11,27,15,00,AAXX 27151 33837 42460 80000 10005 21031 30204 40258 53008 885// 333 88713==
33837,2024,11,27,18,00,AAXX 27181 33837 32560 82702 10013 21019 30207 40261 52003 885// 333 10013 88627 555 1/001=
33837,2024,11,27,21,00,AAXX 27211 33837 42460 83101 10011 21016 30209 40263 52002 885// 333 88719==
33837,2024,11,28,00,00,AAXX 28001 33837 31556 80000 10015 21007 30212 40265 52003 71022 885// 333 88625 555 1/001=
33837,2024,11,28,03,00,AAXX 28031 33837 41456 83401 10019 21004 30208 40261 58004 71022 885// 333 55002 88710==
33837,2024,11,28,06,00,AAXX 28061 33837 31356 83501 10019 21004 30221 40274 53013 71022 885// 333 20010 88708 555 10002=
33837,2024,11,28,09,00,AAXX 28091 33837 41250 83401 10016 21005 30220 40273 58001 71022 885// 333 88704==
33837,2024,11,28,12,00,AAXX 28121 33837 31256 80000 10022 20001 30212 40265 58008 71022 86501 333 86705 555 1/008=
33837,2024,11,28,15,00,AAXX 28151 33837 42360 80801 10026 20000 30212 40265 54000 86501 333 86709==
33837,2024,11,28,18,00,AAXX 28181 33837 32460 81102 10035 20011 30210 40263 58002 886// 333 10035 88710 555 1/003=
33837,2024,11,28,21,00,AAXX 28211 33837 42461 81503 10048 20018 30205 40258 57005 886// 333 88712==
33837,2024,11,29,00,00,AAXX 29001 33837 31357 81205 10047 20026 30198 40251 57007 71022 886// 333 88707 555 1/004=
33837,2024,11,29,03,00,AAXX 29031 33837 41250 81206 10051 20036 30190 40243 57008 71022 886// 333 55000 88706==
33837,2024,11,29,06,00,AAXX 29061 33837 31256 81208 10058 20043 30188 40240 56002 71022 885// 333 20035 88705 555 10005=
33837,2024,11,29,09,00,AAXX 29091 33837 41247 81107 10061 20047 30190 40242 53002 71082 885// 333 88704==
33837,2024,11,29,12,00,AAXX 29121 33837 31256 81206 10067 20053 30187 40239 58003 71082 885// 333 88705 555 1/007 69901=
33837,2024,11,29,15,00,AAXX 29151 33837 41257 71207 10075 20060 30194 40246 53007 71022 86530 333 86706==
33837,2024,11,29,18,00,AAXX 29181 33837 11256 61208 10072 20055 30207 40259 53013 69902 71022 86500 333 10075 86706 555 1/006=
33837,2024,11,29,21,00,AAXX 29211 33837 41256 81107 10067 20053 30224 40276 52017 71022 885// 333 88705==
33837,2024,11,30,00,00,AAXX 30001 33837 /1350 81005 10059 20045 30236 40289 52012 71082 885// 333 88708 555 1/005 69951=
33837,2024,11,30,03,00,AAXX 30031 33837 41458 81004 10062 20042 30252 40305 52016 71022 885// 333 55000 88710==
33837,2024,11,30,06,00,AAXX 30061 33837 11356 80804 10054 20036 30274 40327 53022 69952 71022 886// 333 20052 88708 555 11005=
33837,2024,11,30,09,00,AAXX 30091 33837 41357 80903 10053 20032 30283 40336 51009 71022 86509 333 86707==
33837,2024,11,30,12,00,AAXX 30121 33837 32460 80804 10055 20027 30287 40340 51004 885// 333 87711 555 1/006=
33837,2024,11,30,15,00,AAXX 30151 33837 42463 80606 10043 20012 30295 40348 52008 86551 333 86712==
33837,2024,11,30,18,00,AAXX 30181 33837 32464 80506 10030 20001 30303 40357 52008 886// 333 10060 88712 555 1/003=
33837,2024,11,30,21,00,AAXX 30211 33837 42461 80903 10033 20004 30306 40360 51003 886// 333 88712==
33837,2024,12,01,00,00,AAXX 01001 33837 32464 80607 10027 21002 30298 40352 58008 86504 333 86713 555 1/003=
33837,2024,12,01,03,00,AAXX 01031 33837 42463 80806 10033 20005 30293 40347 57005 885// 333 55004 87712==
33837,2024,12,01,06,00,AAXX 01061 33837 31456 80303 10028 20005 30294 40348 53001 71022 885// 333 20024 86715 555 10003=
33837,2024,12,01,09,00,AAXX 01091 33837 41350 80203 10038 20015 30289 40342 58005 71022 8755/ 333 87707==
33837,2024,12,01,12,00,AAXX 01121 33837 31346 80404 10041 20018 30276 40329 58013 71022 885// 333 88708 555 1/005=
33837,2024,12,01,15,00,AAXX 01151 33837 41457 80506 10042 20019 30274 40327 56002 71022 885// 333 88712==
33837,2024,12,01,18,00,AAXX 01181 33837 32462 80705 10039 20006 30266 40319 58008 8657/ 333 10044 86713 555 1/003=
33837,2024,12,01,21,00,AAXX 01211 33837 42474 80704 10031 21007 30263 40316 56003 885// 333 88717==
33837,2024,12,02,00,00,AAXX 02001 33837 32480 80404 10016 21015 30260 40314 57003 886// 333 88712 555 1/002=
33837,2024,12,02,03,00,AAXX 02031 33837 42465 80603 10009 21022 30255 40309 57005 886// 333 55000 88711==
33837,2024,12,02,06,00,AAXX 02061 33837 31357 80704 10002 21019 30252 40306 57003 71022 886// 333 20001 88707 555 10001=
33837,2024,12,02,09,00,AAXX 02091 33837 41457 80203 10000 21017 30247 40301 57005 77187 8872/==
33837,2024,12,02,12,00,AAXX 02121 33837 /1459 80503 10000 21022 30236 40290 58011 77187 8872/ 555 1/002 69941=
33837,2024,12,02,15,00,AAXX 02151 33837 41467 80202 11004 21031 30231 40285 56005 77772 886//==
33837,2024,12,02,18,00,AAXX 02181 33837 11361 80803 11002 21021 30224 40278 57007 69942 72072 886// 333 10005 88707 555 1/000=
33837,2024,12,02,21,00,AAXX 02211 33837 42370 80202 11007 21029 30216 40270 57008 886// 333 88709==
33837,2024,12,03,00,00,AAXX 03001 33837 /1344 83402 11015 21031 30208 40262 57008 77172 8872/ 555 1/100 69931=
33837,2024,12,03,03,00,AAXX 03031 33837 41366 80203 11008 21024 30196 40250 58012 77177 8872/ 333 55000==
33837,2024,12,03,06,00,AAXX 03061 33837 11361 80304 11009 21031 30198 40252 53002 69932 77177 8872/ 333 21015 46998 555 16100=
33837,2024,12,03,09,00,AAXX 03091 33837 41484 80503 11003 21035 30196 40250 58002 70272 885// 333 88718==
33837,2024,12,03,12,00,AAXX 03121 33837 /1584 80402 10008 21029 30184 40237 58012 70272 885// 333 88620 555 1/003 69901=
33837,2024,12,03,15,00,AAXX 03151 33837 42584 80803 10010 21027 30184 40237 54000 885// 333 88621==
33837,2024,12,03,18,00,AAXX 03181 33837 12484 80902 10013 21028 30182 40235 58002 69902 885// 333 10014 88619 555 1/001=
33837,2024,12,03,21,00,AAXX 03211 33837 42584 80202 10014 21022 30179 40232 57003 885// 333 88628==
33837,2024,12,04,00,00,AAXX 04001 33837 32481 80103 10003 21027 30181 40235 53002 885// 333 88712 555 1/000=
33837,2024,12,04,03,00,AAXX 04031 33837 42373 80102 11004 21028 30182 40236 52001 885// 333 55000 88708==
33837,2024,12,04,06,00,AAXX 04061 33837 11465 80103 11007 21029 30183 40237 52001 69902 77772 886// 333 21008 555 10000=
33837,2024,12,04,09,00,AAXX 04091 33837 41360 83401 11002 21027 30189 40243 52006 70272 886// 333 88709==
33837,2024,12,04,12,00,AAXX 04121 33837 /1460 83402 10005 21024 30188 40242 58001 70272 886// 333 88710 555 1/004 69901=
33837,2024,12,04,15,00,AAXX 04151 33837 41359 83201 10005 21017 30194 40248 53006 71022 885// 333 88708==
33837,2024,12,04,18,00,AAXX 04181 33837 11459 80604 10011 21007 30204 40258 52010 69932 76876 8872/ 333 10013 555 1/001=
33837,2024,12,04,21,00,AAXX 04211 33837 41462 80404 10011 21020 30209 40263 52005 70276 885// 333 88713==
33837,2024,12,05,00,00,AAXX 05001 33837 /1460 80103 10006 21020 30218 40272 52009 70276 885// 333 88711 555 1/001 69901=
33837,2024,12,05,03,00,AAXX 05031 33837 42360 83602 10005 21019 30219 40273 51001 885// 333 55000 88708==
33837,2024,12,05,06,00,AAXX 05061 33837 11357 80000 10002 21020 30227 40281 53008 69902 71022 885// 333 20002 88708 555 11001=
33837,2024,12,05,09,00,AAXX 05091 33837 42265 83401 10006 21018 30229 40283 51002 885// 333 87706==
33837,2024,12,05,12,00,AAXX 05121 33837 32467 83501 10015 21024 30230 40284 52001 885// 333 87716 555 1/004=
33837,2024,12,05,15,00,AAXX 05151 33837 42461 60000 10007 21025 30235 40289 52005 86501 333 86714==
33837,2024,12,05,18,00,AAXX 05181 33837 32460 83101 10009 21018 30239 40293 52004 885// 333 10016 87711 555 1/001=
33837,2024,12,05,21,00,AAXX 05211 33837 42460 83601 10007 21019 30237 40291 58002 885// 333 87710==
33837,2024,12,06,00,00,AAXX 06001 33837 32461 80000 10003 21022 30235 40289 57002 885// 333 87718 555 1/000=
33837,2024,12,06,03,00,AAXX 06031 33837 42468 80802 10008 21028 30224 40278 58011 86501 333 55000 86716==
33837,2024,12,06,06,00,AAXX 06061 33837 32470 81203 10019 21022 30217 40270 57007 885// 333 21001 88718 555 10001=
33837,2024,12,06,09,00,AAXX 06091 33837 41243 81104 10029 20001 30205 40258 57012 75152 886//==
33837,2024,12,06,12,00,AAXX 06121 33837 /1358 81005 10041 20025 30180 40233 58025 71052 885// 333 88706 555 1/004 69911=
33837,2024,12,06,15,00,AAXX 06151 33837 41362 81804 10082 20070 30164 40216 56016 76365 887//==
33837,2024,12,06,18,00,AAXX 06181 33837 11359 81706 10090 20078 30163 40215 56001 60032 76162 887// 333 10092 555 1/008=
33837,2024,12,06,21,00,AAXX 06211 33837 41462 81708 10094 20078 30157 40209 57006 72162 887// 333 88710==
33837,2024,12,07,00,00,AAXX 07001 33837 /1460 81606 10094 20072 30152 40204 57005 70262 885// 333 88712 555 1/008 60011=
33837,2024,12,07,03,00,AAXX 07031 33837 41229 81307 10065 20053 30145 40197 57007 76162 8872/ 333 55000==
33837,2024,12,07,06,00,AAXX 07061 33837 11556 81307 10066 20052 30147 40199 53002 60022 71062 86501 333 20064 86624 555 11006=
33837,2024,12,07,09,00,AAXX 07091 33837 41124 81308 10060 20048 30146 40198 58001 71022 886// 333 88702==
33837,2024,12,07,12,00,AAXX 07121 33837 /1332 81208 10060 20051 30132 40184 58014 78082 883// 555 1/006 69931=
33837,2024,12,07,15,00,AAXX 07151 33837 41239 81208 10065 20056 30128 40180 56004 76186 8872/==
33837,2024,12,07,18,00,AAXX 07181 33837 11/04 91111 10058 20058 30120 40172 57008 60012 76186 333 10068 96047 555 1/006=
33837,2024,12,07,21,00,AAXX 07211 33837 41250 81111 10053 20044 30112 40164 57008 71064 886// 333 88704==
33837,2024,12,08,00,00,AAXX 08001 33837 /1256 81007 10056 20042 30110 40162 56002 71064 886// 333 88705 555 1/005 69901=
33837,2024,12,08,03,00,AAXX 08031 33837 41148 81009 10049 20037 30098 40150 58012 71022 886// 333 55000 88703==
33837,2024,12,08,06,00,AAXX 08061 33837 11250 80909 10046 20036 30102 40154 53004 69902 71022 886// 333 20045 88704 555 11004=
33837,2024,12,08,09,00,AAXX 08091 33837 41256 80906 10045 20033 30104 40156 52002 71022 886// 333 88704==
33837,2024,12,08,12,00,AAXX 08121 33837 31257 80805 10049 20036 30106 40158 52002 71022 886// 333 88705 555 1/005=
33837,2024,12,08,15,00,AAXX 08151 33837 41358 80906 10055 20040 30114 40166 53008 71022 886// 333 88707==
33837,2024,12,08,18,00,AAXX 08181 33837 31256 81006 10054 20041 30119 40171 52005 71022 886// 333 10055 88703 555 1/005=
33837,2024,12,08,21,00,AAXX 08211 33837 41133 80905 10051 20041 30123 40175 52004 71022 886// 333 88702==
33837,2024,12,09,00,00,AAXX 09001 33837 31132 80805 10056 20047 30126 40178 52003 71022 886// 333 88702 555 1/005=
33837,2024,12,09,03,00,AAXX 09031 33837 41135 80903 10059 20050 30125 40177 58001 71022 886// 333 55000 88703==
33837,2024,12,09,06,00,AAXX 09061 33837 11122 81008 10057 20048 30136 40188 53011 69902 71082 886// 333 20050 88702 555 11005=
33837,2024,12,09,09,00,AAXX 09091 33837 41127 81007 10056 20049 30131 40183 58005 72842 886// 333 88703==
33837,2024,12,09,12,00,AAXX 09121 33837 /1241 81012 10059 20052 30108 40160 58023 78184 883// 333 91020 91120 555 1/006 60021=
33837,2024,12,09,15,00,AAXX 09151 33837 41233 81113 10065 20056 30094 40146 56014 78182 883//==
33837,2024,12,09,18,00,AAXX 09181 33837 11230 81309 10082 20073 30089 40140 56005 60072 78082 883// 333 10084 91120 555 1/007=
33837,2024,12,09,21,00,AAXX 09211 33837 41356 82402 10100 20091 30102 40153 53013 71082 886// 333 88707==
33837,2024,12,10,00,00,AAXX 10001 33837 /1481 82503 10075 20055 30115 40167 52013 70282 886// 333 88711 555 1/006 69901=
33837,2024,12,10,03,00,AAXX 10031 33837 42483 32502 10047 20029 30132 40184 52017 83600 333 55000 83711==
33837,2024,12,10,06,00,AAXX 10061 33837 12382 72901 10038 20022 30142 40195 51010 69902 86501 333 20037 86708 555 11004=
33837,2024,12,10,09,00,AAXX 10091 33837 42371 80000 10039 20021 30145 40198 51003 885// 333 88709==
33837,2024,12,10,12,00,AAXX 10121 33837 /1457 83601 10037 20024 30136 40189 58009 78082 883// 555 1/005 60021=
33837,2024,12,10,15,00,AAXX 10151 33837 41348 83602 10037 20027 30115 40168 58021 78088 883//==
33837,2024,12,10,18,00,AAXX 10181 33837 11364 83403 10038 20029 30104 40156 56011 60122 78088 883// 333 10045 555 1/004=
33837,2024,12,10,21,00,AAXX 10211 33837 41358 83002 10038 20029 30099 40151 56005 78088 883//==
33837,2024,12,11,00,00,AAXX 11001 33837 /1361 82805 10027 20017 30107 40160 53008 70282 885// 333 88707 555 1/003 69961=
33837,2024,12,11,03,00,AAXX 11031 33837 42361 82806 10025 20013 30107 40160 54000 885// 333 55000 88707==
33837,2024,12,11,06,00,AAXX 11061 33837 12365 82803 10025 20012 30115 40168 53008 69962 885// 333 20024 88708 555 11003=
33837,2024,12,11,09,00,AAXX 11091 33837 42380 82803 10033 20012 30126 40179 52011 885// 333 88709==
33837,2024,12,11,12,00,AAXX 11121 33837 32381 83002 10036 20006 30115 40168 58011 8657/ 333 86709 555 1/006=
33837,2024,12,11,15,00,AAXX 11151 33837 42483 82905 10028 21001 30123 40176 53008 8657/ 333 86715==
33837,2024,12,11,18,00,AAXX 11181 33837 32484 82804 10026 21003 30119 40172 58004 8557/ 333 10039 85713 555 1/002=
33837,2024,12,11,21,00,AAXX 11211 33837 41459 82803 10009 21006 30122 40175 53003 78382 8535/==
33837,2024,12,12,00,00,AAXX 12001 33837 /1439 82901 10006 21005 30117 40170 58005 78388 883// 555 1/000 60011=
33837,2024,12,12,03,00,AAXX 12031 33837 41445 83102 10002 21009 30116 40169 57001 78388 883// 333 55000==
33837,2024,12,12,06,00,AAXX 12061 33837 11459 83103 10001 21015 30126 40179 53010 60022 77187 8872/ 333 21003 555 11000=
33837,2024,12,12,09,00,AAXX 12091 33837 41480 83203 10015 21014 30140 40193 52014 70272 8655/ 333 86716==
33837,2024,12,12,12,00,AAXX 12121 33837 /1483 83404 10010 21014 30153 40206 52013 78387 883// 555 1/002 69911=
33837,2024,12,12,15,00,AAXX 12151 33837 41584 83304 10006 21044 30176 40229 53023 70282 8655/ 333 86624==
33837,2024,12,12,18,00,AAXX 12181 33837 11584 73404 11005 21061 30189 40243 51013 69912 70282 85501 333 10020 85625 555 1/100=
33837,2024,12,12,21,00,AAXX 12211 33837 42584 63203 11008 21060 30190 40244 51001 86500 333 86624==
33837,2024,12,13,00,00,AAXX 13001 33837 32584 63203 11012 21058 30183 40237 58007 86500 333 86625 555 1/101=
33837,2024,12,13,03,00,AAXX 13031 33837 42582 32903 11012 21058 30176 40230 57007 82530 333 55000==
33837,2024,12,13,06,00,AAXX 13061 33837 32584 63104 10004 21048 30199 40253 53023 83531 333 21014 555 14102=
33837,2024,12,13,09,00,AAXX 13091 33837 42684 23404 11001 21098 30237 40291 53038 82500==
33837,2024,12,13,12,00,AAXX 13121 33837 32684 23304 10002 21101 30253 40307 51016 82500 555 1/001=
33837,2024,12,13,15,00,AAXX 13151 33837 42984 23103 11018 21108 30277 40332 53024 80001==
33837,2024,12,13,18,00,AAXX 13181 33837 32984 23002 11025 21105 30291 40346 51014 80001 333 10008 555 1/005=
33837,2024,12,13,21,00,AAXX 13211 33837 42984 23102 11038 21117 30304 40359 52013 80001==
33837,2024,12,14,00,00,AAXX 14001 33837 32984 23101 11044 21123 30304 40359 51000 80001 555 1/106=
33837,2024,12,14,03,00,AAXX 14031 33837 42981 02801 11063 21109 30297 40353 58007 333 55036==
33837,2024,12,14,06,00,AAXX 14061 33837 32982 00000 11071 21109 30285 40341 58012 333 21075 555 14107=
33837,2024,12,14,09,00,AAXX 14091 33837 42984 22102 10014 21090 30265 40319 58020 80001==
33837,2024,12,14,12,00,AAXX 14121 33837 32984 32104 10039 21078 30224 40277 58041 80001 555 1/001=
33837,2024,12,14,15,00,AAXX 14151 33837 42684 82302 10046 21027 30187 40240 57037 86501 333 86634==
33837,2024,12,14,18,00,AAXX 14181 33837 32582 82104 10062 20001 30152 40204 57035 86501 333 10062 86627 555 1/002=
33837,2024,12,14,21,00,AAXX 14211 33837 42581 72302 10062 20009 30125 40177 56027 87500 333 87625==
33837,2024,12,15,00,00,AAXX 15001 33837 /1459 82403 10062 20030 30093 40145 58032 78082 883// 555 1/003 69931=
33837,2024,12,15,03,00,AAXX 15031 33837 41458 82502 10045 20028 30062 40114 57031 78082 883// 333 55034==
33837,2024,12,15,06,00,AAXX 15061 33837 11359 82802 10027 20015 30056 40108 56006 60102 78088 883// 333 20026 555 11002=
33837,2024,12,15,09,00,AAXX 15091 33837 41563 83202 10035 20019 30069 40121 53013 70282 8257/==
33837,2024,12,15,12,00,AAXX 15121 33837 /1569 73202 10042 21000 30077 40129 51008 70282 82550 555 1/006 69931=
33837,2024,12,15,15,00,AAXX 15151 33837 42577 62802 10030 21015 30096 40149 53019 82550==
33837,2024,12,15,18,00,AAXX 15181 33837 12580 72902 10031 21011 30117 40170 52021 69932 82550 333 10048 555 1/001=
33837,2024,12,15,21,00,AAXX 15211 33837 42583 22902 10021 21019 30130 40183 51013 82500==
33837,2024,12,16,00,00,AAXX 16001 33837 32584 72702 10022 21018 30146 40199 52016 83550 555 1/100=
33837,2024,12,16,03,00,AAXX 16031 33837 42984 02802 10013 21032 30154 40207 51008 333 55003==
33837,2024,12,16,06,00,AAXX 16061 33837 32584 32604 10009 21036 30168 40221 53014 82530 333 20005 555 14102=
33837,2024,12,16,09,00,AAXX 16091 33837 42/84 62504 10054 21029 30156 40208 58012 82034==
33837,2024,12,16,12,00,AAXX 16121 33837 32984 82506 10065 21032 30123 40175 58033 8807/ 555 1/006=
33837,2024,12,16,15,00,AAXX 16151 33837 41481 82505 10049 20001 30109 40161 56014 78082 883//==
33837,2024,12,16,18,00,AAXX 16181 33837 11684 52705 10061 20006 30106 40158 56003 69912 70282 85500 333 10066 85641 555 1/003=
33837,2024,12,16,21,00,AAXX 16211 33837 42984 22804 10062 20007 30116 40168 53010 80001==
33837,2024,12,17,00,00,AAXX 17001 33837 32584 72704 10065 20012 30132 40184 53016 87500 333 87632 555 1/004=
33837,2024,12,17,03,00,AAXX 17031 33837 42684 82704 10075 20016 30128 40180 58004 8655/ 333 55029 86642==
33837,2024,12,17,06,00,AAXX 17061 33837 11584 82802 10094 20023 30121 40172 57007 69902 78082 8635/ 333 20054 555 11005=
33837,2024,12,17,09,00,AAXX 17091 33837 41584 82701 10096 20029 30118 40169 57003 70282 8355/==
33837,2024,12,17,12,00,AAXX 17121 33837 /1584 82806 10120 20027 30097 40148 58021 70282 83534 555 1/010 69901=
33837,2024,12,17,15,00,AAXX 17151 33837 42684 83003 10105 20031 30103 40154 53006 8655/ 333 86642==
33837,2024,12,17,18,00,AAXX 17181 33837 12984 22806 10089 20018 30109 40161 52006 69902 82030 333 10137 555 1/004=
33837,2024,12,17,21,00,AAXX 17211 33837 42684 72806 10087 20018 30122 40174 53013 86550 333 86642==
33837,2024,12,18,00,00,AAXX 18001 33837 32984 03006 10074 20025 30138 40190 52016 555 1/002=
33837,2024,12,18,03,00,AAXX 18031 33837 42984 02803 10057 20023 30147 40199 51009 333 55019==
33837,2024,12,18,06,00,AAXX 18061 33837 32683 52802 10048 20018 30160 40213 52013 83530 333 20043 555 10002=
33837,2024,12,18,09,00,AAXX 18091 33837 42582 62902 10093 20045 30162 40214 51002 85530 333 85632==
33837,2024,12,18,12,00,AAXX 18121 33837 32584 73005 10104 20039 30157 40208 58005 85531 333 85627 555 1/010=
33837,2024,12,18,15,00,AAXX 18151 33837 42/84 52802 10078 20033 30168 40220 53011 82031==
33837,2024,12,18,18,00,AAXX 18181 33837 32983 32901 10061 20026 30175 40227 52007 80001 333 10117 555 1/002=
33837,2024,12,18,21,00,AAXX 18211 33837 42982 02801 10058 20017 30171 40223 58004==
33837,2024,12,19,00,00,AAXX 19001 33837 32980 02201 10048 20022 30162 40215 58009 555 1/101=
33837,2024,12,19,03,00,AAXX 19031 33837 42/84 82001 10064 20023 30148 40200 58014 8805/ 333 55022==
33837,2024,12,19,06,00,AAXX 19061 33837 31233 82101 10077 20062 30135 40187 57013 71011 8665/ 333 20032 86705 555 10005=
33837,2024,12,19,09,00,AAXX 19091 33837 42261 72202 10088 20073 30118 40170 57017 87600 333 87704==
33837,2024,12,19,12,00,AAXX 19121 33837 32464 31903 10095 20060 30100 40151 57018 82631 333 82719 555 1/010=
33837,2024,12,19,15,00,AAXX 19151 33837 42260 82203 10083 20066 30081 40132 57019 86504 333 86704==
33837,2024,12,19,18,00,AAXX 19181 33837 31158 82302 10084 20072 30071 40122 56010 71011 886// 333 10113 88702 555 1/007=
33837,2024,12,19,21,00,AAXX 19211 33837 41459 72202 10083 20064 30061 40112 57010 71022 87600 333 87713==
33837,2024,12,20,00,00,AAXX 20001 33837 32360 72103 10088 20069 30050 40101 57011 87600 333 87707 555 1/007=
33837,2024,12,20,03,00,AAXX 20031 33837 41228 82203 10091 20075 30041 40092 57009 71022 886// 333 55017 88705==
33837,2024,12,20,06,00,AAXX 20061 33837 31257 32002 10081 20070 30038 40089 56003 71011 82601 333 20080 82705 555 10005=
33837,2024,12,20,09,00,AAXX 20091 33837 42966 02004 10108 20080 30034 40085 57004==
33837,2024,12,20,12,00,AAXX 20121 33837 32261 62003 10102 20080 30021 40072 58013 85601 333 85704 555 1/012=
33837,2024,12,20,15,00,AAXX 20151 33837 41250 72003 10090 20076 30024 40075 53003 71022 86601 333 86704==
33837,2024,12,20,18,00,AAXX 20181 33837 32468 72103 10098 20067 30027 40078 52003 86601 333 10109 86716 555 1/008=
33837,2024,12,20,21,00,AAXX 20211 33837 42461 80000 10089 20069 30031 40082 52004 86601 333 86718==
33837,2024,12,21,00,00,AAXX 21001 33837 31550 60000 10076 20059 30040 40091 53009 71022 85601 333 85720 555 1/005=
33837,2024,12,21,03,00,AAXX 21031 33837 41229 83302 10064 20052 30054 40106 53014 71022 886// 333 55034 88705==
33837,2024,12,21,06,00,AAXX 21061 33837 31342 83403 10057 20039 30067 40119 52013 71022 886// 333 20057 88707 555 10005=
33837,2024,12,21,09,00,AAXX 21091 33837 41357 83503 10062 20042 30074 40126 53007 71022 886// 333 88707==
33837,2024,12,21,12,00,AAXX 21121 33837 /1359 80103 10062 20040 30073 40125 58001 78082 883// 555 1/006 69901=
33837,2024,12,21,15,00,AAXX 21151 33837 41357 80204 10057 20040 30085 40137 53012 76162 8872/==
33837,2024,12,21,18,00,AAXX 21181 33837 11358 80104 10053 20036 30081 40133 58004 69952 76162 8872/ 333 10064 555 1/005=
33837,2024,12,21,21,00,AAXX 21211 33837 41356 80105 10047 20032 30076 40128 57005 76162 8872/==
33837,2024,12,22,00,00,AAXX 22001 33837 /1336 83502 10039 20026 30073 40125 57003 76166 8872/ 555 1/004 69951=
33837,2024,12,22,03,00,AAXX 22031 33837 41357 83403 10026 20016 30065 40117 58008 76166 8872/ 333 55000==
33837,2024,12,22,06,00,AAXX 22061 33837 11347 83404 10014 20001 30065 40118 54000 60042 76166 8872/ 333 20013 555 11002=
33837,2024,12,22,09,00,AAXX 22091 33837 41350 83402 10011 21002 30061 40114 58004 76166 8872/==
33837,2024,12,22,12,00,AAXX 22121 33837 /1357 83303 10011 21002 30047 40100 58014 76166 8872/ 555 1/003 60021=
33837,2024,12,22,15,00,AAXX 22151 33837 41359 83301 10012 21003 30050 40103 53003 71062 886// 333 88709==
33837,2024,12,22,18,00,AAXX 22181 33837 11357 80000 10014 21002 30055 40108 52005 60032 71062 886// 333 10014 88707 555 1/002=
33837,2024,12,22,21,00,AAXX 22211 33837 41125 80000 10012 21001 30052 40105 58003 71062 886// 333 88703==
33837,2024,12,23,00,00,AAXX 23001 33837 /1360 82801 10007 21004 30051 40104 57001 70262 885// 333 88708 555 1/001 69901=
33837,2024,12,23,03,00,AAXX 23031 33837 41357 80301 10008 21008 30047 40100 57004 71022 885// 333 55000 88707==
33837,2024,12,23,06,00,AAXX 23061 33837 12360 80902 10028 20010 30049 40101 53002 69902 886// 333 20003 88708 555 11002=
33837,2024,12,23,09,00,AAXX 23091 33837 41256 80802 10041 20029 30046 40098 58003 72052 886// 333 88704==
33837,2024,12,23,12,00,AAXX 23121 33837 /1357 81505 10073 20062 30032 40083 58014 76165 8872/ 555 1/007 69941=
33837,2024,12,23,15,00,AAXX 23151 33837 41459 81901 10074 20062 30039 40090 53007 71062 8655/ 333 86717==
33837,2024,12,23,18,00,AAXX 23181 33837 11582 71306 10081 20052 30048 40099 52009 69942 72586 85351 333 10082 85921 555 1/006=
33837,2024,12,23,21,00,AAXX 23211 33837 42661 50901 10079 20060 30055 40106 52007 85500==
33837,2024,12,24,00,00,AAXX 24001 33837 32561 51205 10074 20062 30058 40109 51003 82531 555 1/004=
33837,2024,12,24,03,00,AAXX 24031 33837 42564 81005 10068 20050 30065 40117 52007 8555/ 333 55000 85622==
33837,2024,12,24,06,00,AAXX 24061 33837 31458 80904 10061 20046 30083 40135 53018 71022 8555/ 333 20061 85715 555 11005=
33837,2024,12,24,09,00,AAXX 24091 33837 41/09 90706 10051 20051 30094 40146 51011 74342 89///==
33837,2024,12,24,12,00,AAXX 24121 33837 31962 80705 10074 20052 30097 40149 51003 70242 83034 555 1/008=
33837,2024,12,24,15,00,AAXX 24151 33837 42575 80505 10072 20052 30111 40163 53014 85534 333 85620==
33837,2024,12,24,18,00,AAXX 24181 33837 32564 50305 10064 20042 30126 40178 52015 85500 333 10075 85623 555 1/004=
33837,2024,12,24,21,00,AAXX 24211 33837 41457 80408 10054 20036 30138 40190 52012 71022 885// 333 88714==
33837,2024,12,25,00,00,AAXX 25001 33837 31445 80409 10041 20025 30146 40199 52008 71022 885// 333 88711 555 1/004=
33837,2024,12,25,03,00,AAXX 25031 33837 41257 80408 10038 20023 30153 40206 52007 71022 885// 333 55011 88706==
33837,2024,12,25,06,00,AAXX 25061 33837 31250 80305 10040 20028 30166 40219 53013 71022 885// 333 20036 88704 555 10004=
33837,2024,12,25,09,00,AAXX 25091 33837 41359 80406 10051 20034 30180 40233 52014 71022 886// 333 88708==
33837,2024,12,25,12,00,AAXX 25121 33837 /1359 80407 10054 20036 30184 40237 51004 76162 8872/ 555 1/005 69961=
33837,2024,12,25,15,00,AAXX 25151 33837 41359 80308 10053 20033 30203 40256 53019 76166 8872/==
33837,2024,12,25,18,00,AAXX 25181 33837 11357 80208 10042 20029 30219 40272 52016 60022 76166 8872/ 333 10056 555 1/004=
33837,2024,12,25,21,00,AAXX 25211 33837 41360 80309 10040 20022 30229 40282 51010 70262 886// 333 88709==
33837,2024,12,26,00,00,AAXX 26001 33837 /1364 80308 10036 20016 30243 40296 52014 70262 886// 333 88709 91118 555 1/003 69901=
33837,2024,12,26,03,00,AAXX 26031 33837 42363 80206 10031 20010 30255 40308 52012 886// 333 55000 88709==
33837,2024,12,26,06,00,AAXX 26061 33837 12463 80206 10027 20008 30273 40327 53018 69902 885// 333 20026 88710 555 11002=
33837,2024,12,26,09,00,AAXX 26091 33837 42365 80206 10030 20009 30281 40335 51008 885// 333 88708==
33837,2024,12,26,12,00,AAXX 26121 33837 32369 80206 10029 20006 30278 40332 58003 885// 333 88709 555 1/003=
33837,2024,12,26,15,00,AAXX 26151 33837 42481 80206 10029 21004 30279 40333 53001 8655/ 333 85715==
33837,2024,12,26,18,00,AAXX 26181 33837 32472 80204 10021 21010 30280 40334 52001 886// 333 10032 88710 555 1/001=
33837,2024,12,26,21,00,AAXX 26211 33837 42466 80103 10013 21013 30274 40328 58006 886// 333 88710 555 1/001=
33837,2024,12,27,00,00,AAXX 27001 33837 32461 80104 10012 21014 30262 40316 58012 886// 333 88711 555 1/001=
33837,2024,12,27,03,00,AAXX 27031 33837 42463 80206 10014 21005 30245 40299 58017 886// 333 55000 88712==
33837,2024,12,27,06,00,AAXX 27061 33837 32474 80306 10010 21016 30238 40292 56007 885// 333 20008 88711 555 11001=
33837,2024,12,27,09,00,AAXX 27091 33837 42473 80507 10012 21019 30237 40291 56001 885// 333 88715==
33837,2024,12,27,12,00,AAXX 27121 33837 32480 80304 10011 21020 30223 40277 58014 87501 333 87714 555 1/002=
33837,2024,12,27,15,00,AAXX 27151 33837 42467 80205 10007 21020 30225 40279 53002 885// 333 88710==
33837,2024,12,27,18,00,AAXX 27181 33837 32478 80306 10008 21021 30227 40281 52002 885// 333 10014 88714 555 1/000=
33837,2024,12,27,21,00,AAXX 27211 33837 41450 80102 11002 21018 30230 40284 52003 78582 883//==
33837,2024,12,28,00,00,AAXX 28001 33837 /1371 80205 11004 21026 30220 40274 58010 70282 886// 333 88708 555 1/101 69931=
33837,2024,12,28,03,00,AAXX 28031 33837 42362 80305 11006 21026 30217 40271 56003 886// 333 55000 88709==
33837,2024,12,28,06,00,AAXX 28061 33837 12363 80104 11010 21032 30224 40278 53007 69932 885// 333 21010 46998 88709 555 16101=
33837,2024,12,28,09,00,AAXX 28091 33837 42364 83602 11004 21028 30229 40283 52005 885// 333 88709==
33837,2024,12,28,12,00,AAXX 28121 33837 32463 80305 10007 21020 30218 40272 58011 885// 333 87712 555 1/001=
33837,2024,12,28,15,00,AAXX 28151 33837 42472 80205 10007 21020 30226 40280 53008 86504 333 85710==
33837,2024,12,28,18,00,AAXX 28181 33837 32462 80202 10008 21016 30231 40285 52005 885// 333 10010 88710 555 1/000=
33837,2024,12,28,21,00,AAXX 28211 33837 42363 80203 10007 21015 30237 40291 52006 886// 333 88708==
33837,2024,12,29,00,00,AAXX 29001 33837 /1357 80202 10006 21012 30231 40285 58006 76872 8872/ 555 1/000 69901=
33837,2024,12,29,03,00,AAXX 29031 33837 41384 80304 10003 21016 30229 40283 56002 72687 885// 333 55000 88709==
33837,2024,12,29,06,00,AAXX 29061 33837 11484 80203 10004 21026 30233 40287 53004 69902 78382 883// 333 20001 555 11000=
33837,2024,12,29,09,00,AAXX 29091 33837 41484 80303 10008 21019 30241 40295 52008 72682 883// 333 88910==
33837,2024,12,29,12,00,AAXX 29121 33837 /1484 80000 10007 21027 30231 40285 58010 70282 885// 333 88712 555 1/003 69901=
33837,2024,12,29,15,00,AAXX 29151 33837 42484 80000 10000 21030 30235 40289 53004 885// 333 88713==
33837,2024,12,29,18,00,AAXX 29181 33837 12471 80000 10002 21027 30237 40291 52002 69902 885// 333 10010 88712 555 1/001=
33837,2024,12,29,21,00,AAXX 29211 33837 42366 82801 11005 21030 30238 40292 52001 886// 333 88709==
33837,2024,12,30,00,00,AAXX 30001 33837 32480 82602 11007 21031 30232 40286 58006 886// 333 88710 555 1/101=
33837,2024,12,30,03,00,AAXX 30031 33837 42365 82703 11006 21028 30225 40279 57007 886// 333 55000 88707==
33837,2024,12,30,06,00,AAXX 30061 33837 31141 82701 11009 21025 30228 40282 53003 71022 886// 333 21010 88703 555 14100=
33837,2024,12,30,09,00,AAXX 30091 33837 42267 82702 10005 21013 30228 40282 54000 886// 333 88705==
33837,2024,12,30,12,00,AAXX 30121 33837 32367 82602 10009 21013 30215 40269 58013 885// 333 88707 555 1/003=
33837,2024,12,30,15,00,AAXX 30151 33837 42266 82802 10003 21015 30219 40273 53004 886// 333 88704==
33837,2024,12,30,18,00,AAXX 30181 33837 31130 82801 10006 21005 30217 40271 58002 71022 886// 333 10014 88702 555 1/001=
33837,2024,12,30,21,00,AAXX 30211 33837 41112 82801 10003 21007 30223 40277 53006 72842 886// 333 88702==
33837,2024,12,31,00,00,AAXX 31001 33837 31117 82701 11005 21015 30221 40275 58002 71042 886// 333 88702 555 1/100=
33837,2024,12,31,03,00,AAXX 31031 33837 41118 62702 11013 21021 30218 40272 57003 71022 86600 333 55000 86703==
33837,2024,12,31,06,00,AAXX 31061 33837 31957 32803 11011 21021 30222 40276 53004 71011 82031 333 21014 555 11102=
33837,2024,12,31,09,00,AAXX 31091 33837 42981 22703 10039 20002 30224 40277 52002 80001==
33837,2024,12,31,12,00,AAXX 31121 33837 32981 02702 10075 20011 30214 40266 58010 555 1/008=
33837,2024,12,31,15,00,AAXX 31151 33837 42980 22703 10042 20009 30217 40270 53003 80001==
33837,2024,12,31,18,00,AAXX 31181 33837 32978 02703 10033 20005 30223 40276 52006 333 10078 555 1/000=
33837,2024,12,31,21,00,AAXX 31211 33837 42980 02702 10024 21004 30241 40294 53018==
