33837,2025,01,01,00,00,AAXX 01001 33837 32975 22703 10022 21012 30231 40284 58010 80001 555 1/101=
33837,2025,01,01,03,00,AAXX 01031 33837 42980 02601 10018 21020 30228 40282 56003 333 55036==
33837,2025,01,01,06,00,AAXX 01061 33837 32984 02302 10050 21028 30223 40276 57005 333 20003 555 14102=
33837,2025,01,01,09,00,AAXX 01091 33837 42582 32503 10063 21013 30218 40271 57005 82501==
33837,2025,01,01,12,00,AAXX 01121 33837 32982 52403 10062 21003 30200 40253 58018 80001 555 1/008=
33837,2025,01,01,15,00,AAXX 01151 33837 42965 32801 10019 21007 30194 40247 56006 80001==
33837,2025,01,01,18,00,AAXX 01181 33837 32962 02702 10041 20004 30183 40236 58011 333 10082 555 1/001=
33837,2025,01,01,21,00,AAXX 01211 33837 42961 02502 10044 20016 30179 40232 56004==
33837,2025,01,02,00,00,AAXX 02001 33837 32961 02602 10026 20000 30164 40217 58015 555 1/101=
33837,2025,01,02,03,00,AAXX 02031 33837 42970 02603 10038 21002 30153 40206 57011 333 55035==
33837,2025,01,02,06,00,AAXX 02061 33837 32963 62504 10034 21002 30149 40202 56004 80001 333 20014 555 14101=
33837,2025,01,02,09,00,AAXX 02091 33837 42980 22402 10069 21010 30141 40193 57008 80001==
33837,2025,01,02,12,00,AAXX 02121 33837 32974 02402 10096 21000 30116 40167 58025 555 1/009=
33837,2025,01,02,15,00,AAXX 02151 33837 42974 02404 10068 20013 30106 40158 56010==
33837,2025,01,02,18,00,AAXX 02181 33837 32982 02405 10071 20010 30090 40142 58016 333 10098 555 1/003=
33837,2025,01,02,21,00,AAXX 02211 33837 42984 02605 10053 21003 30081 40133 56009==
33837,2025,01,03,00,00,AAXX 03001 33837 32972 02605 10035 21003 30075 40127 57006 555 1/000=
33837,2025,01,03,03,00,AAXX 03031 33837 42978 02703 10034 21008 30065 40117 57010 333 55034==
33837,2025,01,03,06,00,AAXX 03061 33837 32980 62502 10042 21014 30061 40113 56004 83031 333 20023 555 10001=
33837,2025,01,03,09,00,AAXX 03091 33837 42981 82503 10076 21011 30055 40107 57006 80001==
33837,2025,01,03,12,00,AAXX 03121 33837 32983 82404 10079 20002 30037 40088 58018 85035 555 1/007=
33837,2025,01,03,15,00,AAXX 03151 33837 42/82 82603 10067 20008 30039 40091 53002 86031==
33837,2025,01,03,18,00,AAXX 03181 33837 32968 82902 10054 20008 30047 40099 53008 86031 333 10086 555 1/003=
33837,2025,01,03,21,00,AAXX 03211 33837 42480 83402 10021 21006 30070 40123 53023 82631 333 82710==
33837,2025,01,04,00,00,AAXX 04001 33837 /1484 83302 10011 21027 30079 40132 51009 72682 85331 555 1/000 69901=
33837,2025,01,04,03,00,AAXX 04031 33837 41682 82901 10008 21023 30090 40143 52011 70282 83531 333 55017 83639==
33837,2025,01,04,06,00,AAXX 04061 33837 11976 52802 10004 21023 30096 40149 51006 69912 70282 83031 333 20003 555 14102=
33837,2025,01,04,09,00,AAXX 04091 33837 42/84 32703 10045 21038 30108 40160 53012 82031==
33837,2025,01,04,12,00,AAXX 04121 33837 32583 33004 10058 21052 30113 40165 51005 82501 555 1/008=
33837,2025,01,04,15,00,AAXX 04151 33837 42584 33003 10023 21060 30141 40194 53028 82501==
33837,2025,01,04,18,00,AAXX 04181 33837 32983 02901 11004 21079 30174 40228 52033 333 10063 555 1/104=
33837,2025,01,04,21,00,AAXX 04211 33837 42984 02802 11021 21082 30192 40246 51018==
33837,2025,01,05,00,00,AAXX 05001 33837 32984 03001 11025 21082 30196 40250 51004 555 1/105=
33837,2025,01,05,03,00,AAXX 05031 33837 42984 02801 11029 21078 30198 40252 52002 333 55036==
33837,2025,01,05,06,00,AAXX 05061 33837 32975 50000 11037 21078 30203 40258 52005 82031 333 21040 555 14105=
33837,2025,01,05,09,00,AAXX 05091 33837 42/80 60301 10011 21043 30203 40257 54000 85031==
33837,2025,01,05,12,00,AAXX 05121 33837 32580 61501 10019 21048 30183 40236 58020 83531 555 1/002=
33837,2025,01,05,15,00,AAXX 05151 33837 42584 31902 10014 21066 30173 40226 56010 82501==
33837,2025,01,05,18,00,AAXX 05181 33837 32984 52002 10031 21051 30167 40220 57006 83031 333 10031 555 1/102=
33837,2025,01,05,21,00,AAXX 05211 33837 42584 82004 10046 21027 30152 40205 58015 85504 333 85633==
33837,2025,01,06,00,00,AAXX 06001 33837 /1584 62301 10041 20013 30137 40190 57015 70282 83350 555 1/101 69901=
33837,2025,01,06,03,00,AAXX 06031 33837 42583 82102 10055 20007 30117 40169 58020 8555/ 333 55034 85627==
33837,2025,01,06,06,00,AAXX 06061 33837 12584 82302 10046 21004 30114 40166 56003 69902 8355/ 333 20028 555 11002=
33837,2025,01,06,09,00,AAXX 06091 33837 41482 82302 10059 21006 30108 40160 57006 78082 8635/==
33837,2025,01,06,12,00,AAXX 06121 33837 /1982 82301 10068 21021 30094 40146 58014 70282 86051 555 1/010 69901=
33837,2025,01,06,15,00,AAXX 06151 33837 42/81 82102 10062 20011 30096 40148 53002 85051==
33837,2025,01,06,18,00,AAXX 06181 33837 12980 52302 10066 20025 30099 40151 52003 69902 85030 333 10070 555 1/002=
33837,2025,01,06,21,00,AAXX 06211 33837 41358 72202 10071 20054 30104 40156 52005 71022 86601 333 86707==
33837,2025,01,07,00,00,AAXX 07001 33837 31257 82302 10072 20057 30102 40154 58002 71022 86601 333 86705 555 1/003=
33837,2025,01,07,03,00,AAXX 07031 33837 41259 62201 10071 20056 30099 40151 57003 71022 85601 333 55000 85706==
33837,2025,01,07,06,00,AAXX 07061 33837 31959 82201 10070 20053 30104 40156 53005 71022 83034 333 20066 555 11003=
33837,2025,01,07,09,00,AAXX 07091 33837 42965 82201 10105 20065 30111 40162 52007 80004==
33837,2025,01,07,12,00,AAXX 07121 33837 32960 82002 10095 20068 30098 40149 58013 80004 555 1/013=
33837,2025,01,07,15,00,AAXX 07151 33837 41257 82302 10081 20067 30098 40150 54000 71022 86601 333 86704==
33837,2025,01,07,18,00,AAXX 07181 33837 32965 22303 10075 20053 30097 40149 58001 80001 333 10111 555 1/004=
33837,2025,01,07,21,00,AAXX 07211 33837 41256 82202 10082 20068 30089 40140 58008 71011 86601 333 86704==
33837,2025,01,08,00,00,AAXX 08001 33837 31959 52202 10083 20069 30080 40131 57009 71011 80001 555 1/004=
33837,2025,01,08,03,00,AAXX 08031 33837 42968 32404 10090 20063 30075 40126 57005 80001 333 55033==
33837,2025,01,08,06,00,AAXX 08061 33837 32975 82302 10091 20051 30080 40131 53005 82034 333 20073 555 10004=
33837,2025,01,08,09,00,AAXX 08091 33837 42981 82402 10108 20056 30085 40136 52005 80004==
33837,2025,01,08,12,00,AAXX 08121 33837 32960 72301 10128 20059 30077 40128 58008 80004 555 1/014=
33837,2025,01,08,15,00,AAXX 08151 33837 42981 22502 10115 20066 30081 40132 53004 80001==
33837,2025,01,08,18,00,AAXX 08181 33837 32982 02402 10117 20058 30078 40129 58003 333 10132 555 1/006=
33837,2025,01,08,21,00,AAXX 08211 33837 42983 02406 10110 20055 30084 40135 53006==
33837,2025,01,09,00,00,AAXX 09001 33837 32984 22607 10098 20052 30087 40138 52003 80001 555 1/005=
33837,2025,01,09,03,00,AAXX 09031 33837 42980 32704 10076 20044 30101 40153 53014 80001 333 55034==
33837,2025,01,09,06,00,AAXX 09061 33837 32964 50000 10062 20037 30123 40175 53022 81031 333 20061 555 10002=
33837,2025,01,09,09,00,AAXX 09091 33837 42/63 70000 10090 20056 30129 40181 51006 83039==
33837,2025,01,09,12,00,AAXX 09121 33837 32968 80501 10092 20048 30119 40170 58010 80009 555 1/014=
33837,2025,01,09,15,00,AAXX 09151 33837 42960 61803 10070 20052 30116 40168 56003 80004==
33837,2025,01,09,18,00,AAXX 09181 33837 32960 32103 10087 20073 30109 40160 57007 80001 333 10103 555 1/005=
33837,2025,01,09,21,00,AAXX 09211 33837 41/02 91902 10083 20083 30099 40151 57010 74741 89///==
33837,2025,01,10,00,00,AAXX 10001 33837 31/03 92103 10080 20080 30087 40139 57012 74541 555 1/007=
33837,2025,01,10,03,00,AAXX 10031 33837 41135 82103 10086 20078 30073 40124 57014 71042 886// 333 55033 88703==
33837,2025,01,10,06,00,AAXX 10061 33837 31461 82003 10093 20076 30075 40126 53002 70242 86504 333 20078 86712 555 10008=
33837,2025,01,10,09,00,AAXX 10091 33837 42561 51905 10097 20075 30062 40113 58013 82501==
33837,2025,01,10,12,00,AAXX 10121 33837 32260 82105 10100 20081 30046 40097 57016 886// 333 88705 555 1/012=
33837,2025,01,10,15,00,AAXX 10151 33837 41147 82102 10092 20080 30035 40086 57011 71022 886// 333 88703==
33837,2025,01,10,18,00,AAXX 10181 33837 31134 82202 10082 20073 30029 40080 56006 71022 886// 333 10107 88702 555 1/008=
33837,2025,01,10,21,00,AAXX 10211 33837 42763 52303 10098 20074 30023 40074 57006 82501 333 82650==
33837,2025,01,11,00,00,AAXX 11001 33837 32483 83203 10056 20028 30044 40096 53021 86501 333 86713 555 1/006=
33837,2025,01,11,03,00,AAXX 11031 33837 41484 83105 10023 20002 30067 40120 52023 70282 83531 333 55020 83711==
33837,2025,01,11,06,00,AAXX 11061 33837 11584 73101 10023 21005 30090 40143 52023 69912 70282 82531 333 20022 555 11002=
33837,2025,01,11,09,00,AAXX 11091 33837 42/82 53102 10040 21012 30112 40164 52022 83031==
33837,2025,01,11,12,00,AAXX 11121 33837 32583 53402 10059 21043 30106 40158 58006 82551 555 1/013=
33837,2025,01,11,15,00,AAXX 11151 33837 42/83 33201 10032 21038 30121 40174 53015 82031==
33837,2025,01,11,18,00,AAXX 11181 33837 32975 22701 10010 21033 30131 40184 52010 80001 333 10065 555 1/101=
33837,2025,01,11,21,00,AAXX 11211 33837 42964 02701 10000 21035 30139 40192 52008==
33837,2025,01,12,00,00,AAXX 12001 33837 32564 52701 11002 21032 30140 40193 51001 85500 555 1/102=
33837,2025,01,12,03,00,AAXX 12031 33837 42566 80000 11007 21032 30141 40195 52001 85501 333 55032==
33837,2025,01,12,06,00,AAXX 12061 33837 32562 20000 11003 21020 30146 40199 52005 82501 333 21013 555 14103=
33837,2025,01,12,09,00,AAXX 12091 33837 42583 62501 10040 21018 30155 40208 52009 82504==
33837,2025,01,12,12,00,AAXX 12121 33837 32584 82301 10048 21030 30147 40200 58008 83551 555 1/006=
33837,2025,01,12,15,00,AAXX 12151 33837 42584 80000 10028 21051 30153 40206 53006 82571==
33837,2025,01,12,18,00,AAXX 12181 33837 32984 62701 10016 21049 30165 40218 53012 83054 333 10058 555 1/101=
33837,2025,01,12,21,00,AAXX 12211 33837 42980 22701 11002 21044 30178 40232 52013 80001==
33837,2025,01,13,00,00,AAXX 13001 33837 32972 02801 11013 21053 30189 40243 52011 555 1/103=
33837,2025,01,13,03,00,AAXX 13031 33837 42980 02702 11013 21061 30202 40256 52013 333 55017==
33837,2025,01,13,06,00,AAXX 13061 33837 32583 33003 11010 21060 30223 40277 53021 82501 333 21022 555 14104=
33837,2025,01,13,09,00,AAXX 13091 33837 42/81 33204 10020 21035 30247 40301 52024 82031==
33837,2025,01,13,12,00,AAXX 13121 33837 32581 63202 10029 21039 30253 40306 51006 85501 333 85621 555 1/009=
33837,2025,01,13,15,00,AAXX 13151 33837 42471 83503 10017 21023 30275 40329 53022 885// 333 88717==
33837,2025,01,13,18,00,AAXX 13181 33837 32468 73503 10001 21038 30295 40349 52020 85501 333 10035 85715 555 1/101=
33837,2025,01,13,21,00,AAXX 13211 33837 42465 70102 11005 21039 30306 40360 51011 86501 333 86719==
33837,2025,01,14,00,00,AAXX 14001 33837 32570 83402 10000 21043 30306 40360 54000 85501 333 85632 555 1/101=
33837,2025,01,14,03,00,AAXX 14031 33837 42683 83402 11002 21056 30302 40356 58004 885// 333 55028 88637==
33837,2025,01,14,06,00,AAXX 14061 33837 32584 80102 11005 21080 30310 40364 53008 885// 333 21009 88631 555 14101=
33837,2025,01,14,09,00,AAXX 14091 33837 42682 83601 10006 21067 30311 40365 51001 885// 333 88638==
33837,2025,01,14,12,00,AAXX 14121 33837 32581 63601 10023 21071 30287 40341 58024 86500 333 86633 555 1/007=
33837,2025,01,14,15,00,AAXX 14151 33837 42683 20000 11009 21077 30281 40335 56006 82500==
33837,2025,01,14,18,00,AAXX 14181 33837 32981 02601 11022 21073 30270 40325 58011 333 10026 555 1/104=
33837,2025,01,14,21,00,AAXX 14211 33837 42981 02601 11024 21071 30255 40310 57015==
33837,2025,01,15,00,00,AAXX 15001 33837 32980 02701 11032 21068 30232 40287 58023 555 1/105=
33837,2025,01,15,03,00,AAXX 15031 33837 42983 00000 11030 21072 30210 40264 57022 333 55012==
33837,2025,01,15,06,00,AAXX 15061 33837 32983 22601 11030 21073 30202 40256 56008 82030 333 21038 555 14105=
33837,2025,01,15,09,00,AAXX 15091 33837 42/81 52701 10005 21053 30204 40258 53002 82031==
33837,2025,01,15,12,00,AAXX 15121 33837 32977 22702 10029 21062 30192 40245 58012 80001 555 1/010=
33837,2025,01,15,15,00,AAXX 15151 33837 42973 52401 10003 21061 30198 40252 53006 80001==
33837,2025,01,15,18,00,AAXX 15181 33837 32975 32801 11011 21059 30212 40266 53014 80001 333 10036 555 1/104=
33837,2025,01,15,21,00,AAXX 15211 33837 42973 02901 11018 21065 30225 40279 52013==
33837,2025,01,16,00,00,AAXX 16001 33837 32972 03302 11001 21049 30236 40290 52011 555 1/104=
33837,2025,01,16,03,00,AAXX 16031 33837 42972 03002 11020 21050 30248 40302 52012 333 55041==
33837,2025,01,16,06,00,AAXX 16061 33837 32563 23002 11017 21044 30266 40320 53018 82501 333 21022 555 14104=
33837,2025,01,16,09,00,AAXX 16091 33837 42565 23201 10026 21029 30277 40331 51011 81501==
33837,2025,01,16,12,00,AAXX 16121 33837 32974 23401 10044 21027 30280 40333 51003 80001 555 1/009=
33837,2025,01,16,15,00,AAXX 16151 33837 42568 32901 10023 21026 30284 40338 52004 82501 333 82628==
33837,2025,01,16,18,00,AAXX 16181 33837 32563 82901 10020 21018 30289 40343 52005 86504 333 10052 86632 555 1/101=
33837,2025,01,16,21,00,AAXX 16211 33837 42467 80000 10021 21015 30294 40348 52005 885// 333 87717==
33837,2025,01,17,00,00,AAXX 17001 33837 32480 82802 10018 21014 30279 40333 58015 886// 333 88714 555 1/001=
33837,2025,01,17,03,00,AAXX 17031 33837 42463 83001 10013 21013 30273 40327 56006 886// 333 55038 88710==
33837,2025,01,17,06,00,AAXX 17061 33837 32461 82903 10010 21016 30259 40313 58014 86504 333 20009 86710 555 10000=
33837,2025,01,17,09,00,AAXX 17091 33837 42/71 82801 10031 21009 30252 40305 56007 86031==
33837,2025,01,17,12,00,AAXX 17121 33837 32982 73202 10062 20001 30231 40284 58021 86031 555 1/008=
33837,2025,01,17,15,00,AAXX 17151 33837 42565 73503 10048 21004 30231 40284 54000 83531 333 83628==
33837,2025,01,17,18,00,AAXX 17181 33837 32460 83401 10037 21001 30234 40287 53003 86501 333 10067 86715 555 1/002=
33837,2025,01,17,21,00,AAXX 17211 33837 41450 83302 10025 20004 30233 40286 58001 71022 886// 333 88711==
33837,2025,01,18,00,00,AAXX 18001 33837 31347 63202 10021 20002 30230 40283 57003 71022 86500 333 86708 555 1/002=
33837,2025,01,18,03,00,AAXX 18031 33837 41356 83202 10020 20001 30222 40275 58008 71022 886// 333 55006 88709==
33837,2025,01,18,06,00,AAXX 18061 33837 31359 83201 10021 20002 30222 40275 56000 71022 886// 333 20020 88708 555 10002=
33837,2025,01,18,09,00,AAXX 18091 33837 42361 83001 10021 20000 30216 40269 58006 886// 333 88707==
33837,2025,01,18,12,00,AAXX 18121 33837 31358 83102 10042 20021 30189 40242 58027 71022 886// 333 88709 555 1/007=
33837,2025,01,18,15,00,AAXX 18151 33837 42561 62801 10055 20009 30175 40228 56014 82574==
33837,2025,01,18,18,00,AAXX 18181 33837 32967 22804 10058 20004 30163 40215 57012 80001 333 10061 555 1/002=
33837,2025,01,18,21,00,AAXX 18211 33837 42983 33004 10059 20000 30159 40211 56004 80001==
33837,2025,01,19,00,00,AAXX 19001 33837 32981 23203 10040 21016 30160 40213 53001 80001 555 1/101=
33837,2025,01,19,03,00,AAXX 19031 33837 42464 63203 10025 21013 30164 40217 52004 86501 333 55000 86715==
33837,2025,01,19,06,00,AAXX 19061 33837 32464 83403 10029 21013 30186 40239 53022 8655/ 333 20025 86718 555 10002=
33837,2025,01,19,09,00,AAXX 19091 33837 42582 83302 10038 21020 30194 40247 51008 8655/ 333 86627==
33837,2025,01,19,12,00,AAXX 19121 33837 32583 73302 10047 21017 30183 40236 58011 87500 333 87628 555 1/009=
33837,2025,01,19,15,00,AAXX 19151 33837 42582 23101 10046 21016 30187 40240 53004 82501==
33837,2025,01,19,18,00,AAXX 19181 33837 32982 03103 10031 21015 30195 40248 52008 333 10054 555 1/101=
33837,2025,01,19,21,00,AAXX 19211 33837 42982 03103 10027 21013 30207 40260 52012==
33837,2025,01,20,00,00,AAXX 20001 33837 32981 03001 10010 21019 30211 40265 51004 555 1/102=
33837,2025,01,20,03,00,AAXX 20031 33837 42980 02901 10001 21021 30210 40264 58001 333 55011==
33837,2025,01,20,06,00,AAXX 20061 33837 32965 02801 11009 21026 30208 40262 57002 333 21010 555 14102=
33837,2025,01,20,09,00,AAXX 20091 33837 42979 02803 10059 21004 30207 40260 57001==
33837,2025,01,20,12,00,AAXX 20121 33837 32982 22802 10107 21020 30190 40242 58017 80001 555 1/016=
33837,2025,01,20,15,00,AAXX 20151 33837 42982 22803 10090 21032 30183 40235 56007 80001==
33837,2025,01,20,18,00,AAXX 20181 33837 32981 02903 10081 21037 30186 40238 53003 333 10116 555 1/002=
33837,2025,01,20,21,00,AAXX 20211 33837 42972 03402 10068 21024 30196 40248 53010==
33837,2025,01,21,00,00,AAXX 21001 33837 31/02 90504 11001 21001 30203 40257 52007 74741 555 1/000=
33837,2025,01,21,03,00,AAXX 21031 33837 41147 80703 10005 21002 30202 40256 58001 71042 886// 333 55049 88703==
33837,2025,01,21,06,00,AAXX 21061 33837 31256 80803 10010 21003 30204 40258 53002 71042 886// 333 21003 88704 555 10001=
33837,2025,01,21,09,00,AAXX 21091 33837 41248 81302 10015 21001 30210 40263 52006 71022 886// 333 88705==
33837,2025,01,21,12,00,AAXX 21121 33837 31250 81002 10014 20001 30191 40244 58019 71022 886// 333 88703 555 1/003=
33837,2025,01,21,15,00,AAXX 21151 33837 41147 81004 10014 20002 30183 40236 56008 71022 886// 333 88703==
33837,2025,01,21,18,00,AAXX 21181 33837 11256 80902 10023 20011 30176 40229 57007 69902 75152 886// 333 10024 555 1/002=
33837,2025,01,21,21,00,AAXX 21211 33837 41/02 91001 10041 20041 30179 40232 53003 74754 89///==
33837,2025,01,22,00,00,AAXX 22001 33837 /1111 81104 10044 20037 30157 40210 58022 72854 886// 333 88702 555 1/004 69901=
33837,2025,01,22,03,00,AAXX 22031 33837 41240 81305 10046 20039 30147 40199 56010 75354 886// 333 55000==
33837,2025,01,22,06,00,AAXX 22061 33837 11457 81306 10045 20036 30145 40198 56002 69942 71054 885// 333 20023 88717 555 11004=
33837,2025,01,22,09,00,AAXX 22091 33837 41458 81305 10048 20036 30144 40196 57001 72582 8635/ 333 86919==
33837,2025,01,22,12,00,AAXX 22121 33837 /1250 81306 10048 20035 30132 40184 58012 71082 8655/ 333 86705 555 1/005 69901=
33837,2025,01,22,15,00,AAXX 22151 33837 41217 81209 10044 20035 30124 40176 57008 76186 8872/==
33837,2025,01,22,18,00,AAXX 22181 33837 11218 81310 10040 20033 30126 40179 53002 60012 76186 8872/ 333 10050 555 1/004=
33837,2025,01,22,21,00,AAXX 22211 33837 41118 81406 10043 20036 30122 40174 58004 71062 886// 333 88702==
33837,2025,01,23,00,00,AAXX 23001 33837 /1/03 91205 10048 20048 30111 40163 58011 74764 555 1/004 69931=
33837,2025,01,23,03,00,AAXX 23031 33837 41218 80000 10052 20045 30107 40159 56004 72854 886// 333 55000 88706==
33837,2025,01,23,06,00,AAXX 23061 33837 11112 80000 10040 20033 30115 40167 53008 69932 72854 886// 333 20039 88702 555 11004=
33837,2025,01,23,09,00,AAXX 23091 33837 41/07 92701 10047 20047 30123 40175 52008 74342 89///==
33837,2025,01,23,12,00,AAXX 23121 33837 31242 80000 10053 20047 30114 40166 58009 71042 885// 333 87705 555 1/008=
33837,2025,01,23,15,00,AAXX 23151 33837 41359 82601 10050 20041 30123 40175 53009 71022 886// 333 88707==
33837,2025,01,23,18,00,AAXX 23181 33837 31350 81901 10044 20031 30128 40180 52005 71022 8565/ 333 10056 85709 555 1/003=
33837,2025,01,23,21,00,AAXX 23211 33837 41129 81901 10050 20040 30127 40179 58001 71022 886// 333 88703==
33837,2025,01,24,00,00,AAXX 24001 33837 31250 81702 10048 20036 30129 40181 53002 71022 886// 333 88704 555 1/004=
33837,2025,01,24,03,00,AAXX 24031 33837 41227 80801 10048 20036 30124 40176 58005 71022 886// 333 55000 88705==
33837,2025,01,24,06,00,AAXX 24061 33837 31119 81301 10047 20038 30132 40184 53008 71022 885// 333 20042 87702 555 11004=
33837,2025,01,24,09,00,AAXX 24091 33837 41/07 90801 10052 20052 30134 40186 51002 74742 89///==
33837,2025,01,24,12,00,AAXX 24121 33837 31/04 90601 10050 20050 30122 40174 58012 74542 555 1/007=
33837,2025,01,24,15,00,AAXX 24151 33837 41112 80000 10051 20047 30119 40171 56003 72842 886// 333 88702==
33837,2025,01,24,18,00,AAXX 24181 33837 11/03 90000 10057 20057 30120 40172 53001 69902 75154 333 10057 96047 555 1/005=
33837,2025,01,24,21,00,AAXX 24211 33837 41/02 90301 10058 20058 30119 40171 58001 74554 89///==
33837,2025,01,25,00,00,AAXX 25001 33837 /1/02 90201 10054 20054 30124 40176 53005 74554 555 1/005 69901=
33837,2025,01,25,03,00,AAXX 25031 33837 41/02 90302 10055 20055 30130 40182 52006 74544 89/// 333 55000==
33837,2025,01,25,06,00,AAXX 25061 33837 11/03 93602 10054 20054 30156 40208 53026 69902 74544 333 20053 555 11005=
33837,2025,01,25,09,00,AAXX 25091 33837 41/02 90202 10062 20062 30169 40221 53013 74554 89///==
33837,2025,01,25,12,00,AAXX 25121 33837 /1/06 90401 10065 20065 30176 40228 51007 74354 555 1/009 69901=
33837,2025,01,25,15,00,AAXX 25151 33837 41/09 90101 10067 20067 30189 40241 53013 74542 89///==
33837,2025,01,25,18,00,AAXX 25181 33837 11112 80502 10062 20056 30201 40253 52012 69902 71042 886// 333 10070 88702 555 1/006=
33837,2025,01,25,21,00,AAXX 25211 33837 41/02 91102 10049 20049 30207 40260 51006 75154 89///==
33837,2025,01,26,00,00,AAXX 26001 33837 /1/02 91202 10045 20045 30208 40261 51001 74554 555 1/005 69901=
33837,2025,01,26,03,00,AAXX 26031 33837 41/02 91302 10039 20039 30203 40256 58005 74544 89/// 333 55000==
33837,2025,01,26,06,00,AAXX 26061 33837 11/02 91603 10039 20039 30205 40258 53002 69912 74554 333 20035 555 11004=
33837,2025,01,26,09,00,AAXX 26091 33837 41/02 91902 10050 20050 30209 40262 52004 74544 89///==
33837,2025,01,26,12,00,AAXX 26121 33837 31/06 91902 10068 20068 30189 40241 58020 74344 555 1/009=
33837,2025,01,26,15,00,AAXX 26151 33837 41480 82203 10066 20060 30187 40239 56002 70242 886// 333 88714==
33837,2025,01,26,18,00,AAXX 26181 33837 31482 82203 10075 20048 30190 40242 53003 70242 885// 333 10076 88718 555 1/006=
33837,2025,01,26,21,00,AAXX 26211 33837 42465 82002 10067 20050 30185 40237 58005 885// 333 88715==
33837,2025,01,27,00,00,AAXX 27001 33837 31258 82002 10071 20059 30181 40233 57004 71022 886// 333 88704 555 1/006=
33837,2025,01,27,03,00,AAXX 27031 33837 42460 82002 10073 20058 30169 40221 58012 885// 333 55000 88716==
33837,2025,01,27,06,00,AAXX 27061 33837 32463 82103 10077 20060 30167 40219 56002 8655/ 333 20065 86713 555 10007=
33837,2025,01,27,09,00,AAXX 27091 33837 41158 82004 10072 20061 30163 40215 57004 72052 885// 333 87703==
33837,2025,01,27,12,00,AAXX 27121 33837 /1461 81902 10076 20057 30141 40193 58022 70252 87504 333 87710 555 1/010 69901=
33837,2025,01,27,15,00,AAXX 27151 33837 42461 81805 10070 20056 30139 40191 56002 885// 333 87711==
33837,2025,01,27,18,00,AAXX 27181 33837 12463 82002 10078 20051 30135 40187 57004 69902 885// 333 10085 87715 555 1/006=
33837,2025,01,27,21,00,AAXX 27211 33837 42463 82103 10075 20050 30135 40187 54000 886// 333 88712==
33837,2025,01,28,00,00,AAXX 28001 33837 31257 82002 10067 20052 30128 40180 58007 71022 886// 333 88706 555 1/006=
33837,2025,01,28,03,00,AAXX 28031 33837 41111 82003 10065 20056 30118 40170 57010 71022 886// 333 55000 88702==
33837,2025,01,28,06,00,AAXX 28061 33837 31126 82102 10071 20062 30125 40177 53007 71022 886// 333 20063 88702 555 10007=
33837,2025,01,28,09,00,AAXX 28091 33837 41133 82104 10071 20065 30124 40176 58001 72842 886// 333 88703==
33837,2025,01,28,12,00,AAXX 28121 33837 31249 82103 10078 20063 30115 40167 58009 71042 886// 333 88705 555 1/010=
33837,2025,01,28,15,00,AAXX 28151 33837 41457 81902 10071 20056 30111 40163 56004 71022 886// 333 88712==
33837,2025,01,28,18,00,AAXX 28181 33837 31356 81705 10072 20060 30113 40165 53002 71022 886// 333 10082 88709 555 1/007=
33837,2025,01,28,21,00,AAXX 28211 33837 41456 81805 10074 20060 30111 40163 58002 71022 886// 333 88711==
33837,2025,01,29,00,00,AAXX 29001 33837 31356 81805 10073 20059 30105 40157 57006 71022 886// 333 88709 555 1/007=
33837,2025,01,29,03,00,AAXX 29031 33837 41119 82102 10071 20062 30097 40149 57008 71022 886// 333 55000 88702==
33837,2025,01,29,06,00,AAXX 29061 33837 31113 81904 10075 20069 30102 40154 53005 72842 886// 333 20070 88702 555 10007=
33837,2025,01,29,09,00,AAXX 29091 33837 41156 81902 10087 20076 30105 40156 52003 71022 886// 333 88702==
33837,2025,01,29,12,00,AAXX 29121 33837 31135 81803 10082 20071 30107 40159 52002 71022 886// 333 88702 555 1/012=
33837,2025,01,29,15,00,AAXX 29151 33837 41/02 92001 10067 20067 30116 40168 53009 74542 89///==
33837,2025,01,29,18,00,AAXX 29181 33837 31/06 93401 10042 20042 30139 40192 53023 74342 333 10088 555 1/003=
33837,2025,01,29,21,00,AAXX 29211 33837 41/03 90000 10034 20034 30155 40208 51016 74544 89///==
33837,2025,01,30,00,00,AAXX 30001 33837 31/02 90000 10042 20042 30169 40222 52014 74544 555 1/004=
33837,2025,01,30,03,00,AAXX 30031 33837 41/02 90802 10063 20063 30176 40228 51007 74544 89/// 333 55000==
33837,2025,01,30,06,00,AAXX 30061 33837 31115 80702 10061 20057 30184 40236 52008 72842 886// 333 20033 88702 555 10006=
33837,2025,01,30,09,00,AAXX 30091 33837 41/02 90802 10059 20059 30189 40241 52005 74542 89///==
33837,2025,01,30,12,00,AAXX 30121 33837 31/01 90802 10060 20060 30185 40237 58004 74542 555 1/008=
33837,2025,01,30,15,00,AAXX 30151 33837 41/02 90803 10061 20061 30190 40242 53005 74544 89///==
33837,2025,01,30,18,00,AAXX 30181 33837 11/01 91003 10060 20060 30192 40244 52002 69902 75154 333 10064 96047 555 1/006=
33837,2025,01,30,21,00,AAXX 30211 33837 41/02 91001 10060 20060 30191 40243 58001 74554 89///==
33837,2025,01,31,00,00,AAXX 31001 33837 /1/01 90702 10061 20061 30194 40246 53003 74554 555 1/006 69911=
33837,2025,01,31,03,00,AAXX 31031 33837 41/01 90604 10063 20063 30188 40240 58006 74544 89/// 333 55000==
33837,2025,01,31,06,00,AAXX 31061 33837 11/01 91002 10063 20063 30196 40248 53008 69912 74544 333 20056 555 11006=
33837,2025,01,31,09,00,AAXX 31091 33837 41/01 91001 10065 20065 30201 40253 52005 74544 89///==
33837,2025,01,31,12,00,AAXX 31121 33837 31/01 91201 10063 20063 30192 40244 58009 74544 555 1/011=
33837,2025,01,31,15,00,AAXX 31151 33837 41/01 90901 10057 20057 30192 40245 54000 74544 89///==
33837,2025,01,31,18,00,AAXX 31181 33837 31136 61801 10064 20060 30193 40245 53001 72842 865// 333 10067 86702 555 1/006=
33837,2025,01,31,21,00,AAXX 31211 33837 41958 62001 10070 20066 30190 40242 58003 71022 80001==
33837,2025,02,01,00,00,AAXX 01001 33837 /1/01 90000 10069 20069 30192 40244 53002 76164 555 1/006 69921=
33837,2025,02,01,03,00,AAXX 01031 33837 41/05 90000 10066 20066 30189 40241 58003 74564 89/// 333 55000==
33837,2025,02,01,06,00,AAXX 01061 33837 11232 83301 10071 20067 30195 40247 53006 60012 72864 886// 333 20063 88703 555 11007=
33837,2025,02,01,09,00,AAXX 01091 33837 41256 83302 10079 20075 30203 40255 52008 71062 8655/ 333 86704==
33837,2025,02,01,12,00,AAXX 01121 33837 /1345 83402 10074 20063 30195 40247 58008 76162 8872/ 555 1/008 69971=
33837,2025,02,01,15,00,AAXX 01151 33837 41481 83303 10056 20028 30213 40266 53018 70262 83531 333 83715==
33837,2025,02,01,18,00,AAXX 01181 33837 11584 53302 10042 20009 30225 40278 51012 60012 70262 82530 333 10081 555 1/002=
33837,2025,02,01,21,00,AAXX 01211 33837 42982 23102 10024 21009 30233 40286 52008 80001==
33837,2025,02,02,00,00,AAXX 02001 33837 32982 03102 10009 21020 30237 40291 52004 555 1/101=
33837,2025,02,02,03,00,AAXX 02031 33837 42972 02702 11007 21027 30233 40287 58004 333 55004==
33837,2025,02,02,06,00,AAXX 02061 33837 32976 02801 11009 21037 30236 40290 53003 333 21016 555 14102=
33837,2025,02,02,09,00,AAXX 02091 33837 42981 03301 10048 21025 30232 40285 58004==
33837,2025,02,02,12,00,AAXX 02121 33837 32579 81402 10040 21016 30212 40265 58020 84531 333 84633 555 1/011=
33837,2025,02,02,15,00,AAXX 02151 33837 42683 82101 10038 21022 30203 40256 56009 8657/ 333 86639==
33837,2025,02,02,18,00,AAXX 02181 33837 11341 82801 10014 21002 30204 40257 53001 69962 76162 8872/ 333 10055 555 1/002=
33837,2025,02,02,21,00,AAXX 02211 33837 41211 80000 10003 21006 30190 40244 58014 76876 8872/==
33837,2025,02,03,00,00,AAXX 03001 33837 /1356 80901 10009 20002 30174 40227 57016 76176 8872/ 555 1/001 60051=
33837,2025,02,03,03,00,AAXX 03031 33837 41258 80903 10009 20000 30155 40208 57019 76166 8872/ 333 55045==
33837,2025,02,03,06,00,AAXX 03061 33837 11257 80504 10010 20001 30153 40206 56002 60092 76876 8872/ 333 20002 555 11001=
33837,2025,02,03,09,00,AAXX 03091 33837 41333 83501 10012 20003 30156 40209 53003 77176 8872/==
33837,2025,02,03,12,00,AAXX 03121 33837 /1359 83602 10014 20004 30153 40206 58003 77176 8872/ 555 1/007 60021=
33837,2025,02,03,15,00,AAXX 03151 33837 41477 73203 10019 21007 30163 40216 53010 72772 85301 333 85917==
33837,2025,02,03,18,00,AAXX 03181 33837 11684 53203 10009 21034 30175 40228 52012 60022 70287 83501 333 10020 83634 555 1/100=
33837,2025,02,03,21,00,AAXX 03211 33837 42584 33104 11004 21056 30187 40241 52012 82501==
33837,2025,02,04,00,00,AAXX 04001 33837 32984 03003 11009 21051 30191 40245 51004 555 1/103=
33837,2025,02,04,03,00,AAXX 04031 33837 42984 03003 11016 21056 30204 40258 53013 333 55006==
33837,2025,02,04,06,00,AAXX 04061 33837 32683 72902 11015 21048 30218 40272 52014 83531 333 21020 83644 555 14102=
33837,2025,02,04,09,00,AAXX 04091 33837 42683 83103 10014 21041 30224 40278 51006 8655/ 333 86646==
33837,2025,02,04,12,00,AAXX 04121 33837 32583 83202 10031 21035 30221 40274 58003 8653/ 333 86626 555 1/009=
33837,2025,02,04,15,00,AAXX 04151 33837 41684 83203 10018 21047 30227 40281 53006 70282 885// 333 88635==
33837,2025,02,04,18,00,AAXX 04181 33837 11683 83202 10008 21040 30237 40291 52010 69902 70282 885// 333 10031 88645 555 1/100=
33837,2025,02,04,21,00,AAXX 04211 33837 42/83 83002 10004 21035 30232 40286 58005 8805/==
33837,2025,02,05,00,00,AAXX 05001 33837 /1983 83103 10002 21034 30225 40279 57007 70282 8805/ 555 1/100 69901=
33837,2025,02,05,03,00,AAXX 05031 33837 41483 83302 10002 21039 30221 40275 57004 78382 8635/ 333 55011==
33837,2025,02,05,06,00,AAXX 05061 33837 11984 83202 11003 21040 30222 40276 53001 69902 70282 8805/ 333 21004 555 14101=
33837,2025,02,05,09,00,AAXX 05091 33837 41484 83502 10006 21033 30221 40275 58001 78382 8637/==
33837,2025,02,05,12,00,AAXX 05121 33837 /1584 83402 10008 21039 30216 40270 58005 78382 8537/ 555 1/003 69901=
33837,2025,02,05,15,00,AAXX 05151 33837 41584 53603 10008 21059 30226 40280 53010 70282 82550 333 82625==
33837,2025,02,05,18,00,AAXX 05181 33837 11584 53401 10000 21044 30243 40297 53017 69902 70282 82551 333 10014 555 1/102=
33837,2025,02,05,21,00,AAXX 05211 33837 42584 83203 11002 21043 30244 40298 51001 8255/==
33837,2025,02,06,00,00,AAXX 06001 33837 32583 83102 11015 21047 30247 40301 52003 8255/ 555 1/102=
33837,2025,02,06,03,00,AAXX 06031 33837 41480 73202 11021 21044 30254 40308 52007 78582 85350 333 55000==
33837,2025,02,06,06,00,AAXX 06061 33837 11468 83402 11019 21041 30266 40320 53012 69902 70282 8557/ 333 21023 85712 555 14101=
33837,2025,02,06,09,00,AAXX 06091 33837 42480 80204 11003 21037 30284 40338 53018 885// 333 86711==
33837,2025,02,06,12,00,AAXX 06121 33837 32483 70305 10002 21048 30288 40342 51004 87500 333 85718 555 1/001=
33837,2025,02,06,15,00,AAXX 06151 33837 42475 60104 11010 21045 30307 40362 53019 86500 333 85715==
33837,2025,02,06,18,00,AAXX 06181 33837 32578 80204 11005 21044 30319 40373 51012 85501 333 10005 85627 555 1/102=
33837,2025,02,06,21,00,AAXX 06211 33837 42470 80205 11014 21044 30323 40378 51004 85604 333 85712==
33837,2025,02,07,00,00,AAXX 07001 33837 32469 80205 11024 21054 30329 40384 52006 86604 333 86711 555 1/103=
33837,2025,02,07,03,00,AAXX 07031 33837 42464 80306 11027 21058 30332 40387 52003 886// 333 55006 88714==
33837,2025,02,07,06,00,AAXX 07061 33837 32468 80104 11025 21056 30340 40395 52008 86501 333 21031 85715 555 14102=
33837,2025,02,07,09,00,AAXX 07091 33837 42471 80306 11009 21057 30341 40396 51001 885// 333 88719==
33837,2025,02,07,12,00,AAXX 07121 33837 32570 70206 10005 21049 30334 40388 58007 87500 333 87626 555 1/002=
33837,2025,02,07,15,00,AAXX 07151 33837 42580 70311 11008 21062 30343 40398 53009 87500 333 87625==
33837,2025,02,07,18,00,AAXX 07181 33837 32480 80510 11028 21073 30355 40410 52012 885// 333 10005 88719 555 1/103=
33837,2025,02,07,21,00,AAXX 07211 33837 42470 80609 11031 21067 30360 40415 51005 885// 333 88715==
33837,2025,02,08,00,00,AAXX 08001 33837 32471 80506 11031 21066 30366 40421 52006 885// 333 88715 555 1/103=
33837,2025,02,08,03,00,AAXX 08031 33837 42462 80507 11023 21053 30362 40417 58004 885// 333 55000 88714==
33837,2025,02,08,06,00,AAXX 08061 33837 11462 80507 11031 21061 30368 40423 53006 69902 70282 885// 333 21034 88714 555 14103=
33837,2025,02,08,09,00,AAXX 08091 33837 42467 80406 11032 21067 30369 40424 51001 87501 333 87715==
33837,2025,02,08,12,00,AAXX 08121 33837 32565 50304 11009 21061 30350 40405 58019 85500 333 85621 555 1/005=
33837,2025,02,08,15,00,AAXX 08151 33837 42980 30407 10003 21070 30343 40397 56007 80001==
33837,2025,02,08,18,00,AAXX 08181 33837 32966 00508 11007 21061 30346 40401 53003 333 10004 555 1/103=
33837,2025,02,08,21,00,AAXX 08211 33837 42/65 30409 11024 21057 30339 40394 58007 82051==
33837,2025,02,09,00,00,AAXX 09001 33837 32465 30406 11035 21064 30338 40393 56001 82501 333 82713 555 1/105=
33837,2025,02,09,03,00,AAXX 09031 33837 42460 50407 11047 21071 30330 40385 58008 85600 333 55025 85715==
33837,2025,02,09,06,00,AAXX 09061 33837 32460 60305 11051 21075 30333 40388 53003 85601 333 21055 85711 555 14104=
33837,2025,02,09,09,00,AAXX 09091 33837 42465 60304 11030 21070 30334 40389 52001 83501 333 83710==
33837,2025,02,09,12,00,AAXX 09121 33837 32978 30304 11006 21070 30310 40364 58024 80001 555 1/006=
33837,2025,02,09,15,00,AAXX 09151 33837 42973 20104 11018 21071 30305 40360 56005 80001==
33837,2025,02,09,18,00,AAXX 09181 33837 32969 00204 11028 21061 30304 40359 57001 333 11002 555 1/102=
33837,2025,02,09,21,00,AAXX 09211 33837 42461 80304 11043 21066 30299 40354 57005 886// 333 88711==
33837,2025,02,10,00,00,AAXX 10001 33837 32461 80204 11052 21072 30288 40343 58011 886// 333 88711 555 1/103=
33837,2025,02,10,03,00,AAXX 10031 33837 41457 60104 11057 21075 30278 40333 57010 71022 86600 333 55060 86711==
33837,2025,02,10,06,00,AAXX 10061 33837 31256 70204 11061 21078 30280 40335 53002 71022 87600 333 21064 87706 555 14103=
33837,2025,02,10,09,00,AAXX 10091 33837 42360 60205 11043 21076 30280 40335 54000 86500 333 86708==
33837,2025,02,10,12,00,AAXX 10121 33837 32460 50304 11007 21067 30265 40319 58015 84501 333 83716 555 1/003=
33837,2025,02,10,15,00,AAXX 10151 33837 42564 23603 11007 21071 30264 40318 56001 82501 333 82630==
33837,2025,02,10,18,00,AAXX 10181 33837 32962 20202 11015 21064 30273 40327 53009 80001 333 10000 555 1/104=
33837,2025,02,10,21,00,AAXX 10211 33837 42960 00203 11024 21054 30276 40331 51003==
33837,2025,02,11,00,00,AAXX 11001 33837 31457 50102 11045 21068 30281 40336 52005 71011 85600 333 85710 555 1/106=
33837,2025,02,11,03,00,AAXX 11031 33837 41456 70204 11055 21076 30284 40339 52003 71022 87600 333 55052 87711==
33837,2025,02,11,06,00,AAXX 11061 33837 31356 70104 11064 21084 30296 40352 53012 71022 87600 333 21066 87707 555 14104=
33837,2025,02,11,09,00,AAXX 11091 33837 41458 80204 11034 21074 30300 40355 51004 71022 82604==
33837,2025,02,11,12,00,AAXX 11121 33837 32976 50607 11004 21058 30289 40343 58011 80004 555 1/009=
33837,2025,02,11,15,00,AAXX 11151 33837 42/75 70507 10005 21068 30292 40346 53003 85031==
33837,2025,02,11,18,00,AAXX 11181 33837 32967 00305 11007 21063 30298 40352 52006 333 10006 555 1/103=
33837,2025,02,11,21,00,AAXX 11211 33837 42962 00406 11024 21062 30302 40357 52004==
33837,2025,02,12,00,00,AAXX 12001 33837 32460 30102 11046 21072 30300 40355 58002 82601 333 82712 555 1/106=
33837,2025,02,12,03,00,AAXX 12031 33837 41957 23602 11065 21086 30292 40348 58008 71000 80001 333 55038==
33837,2025,02,12,06,00,AAXX 12061 33837 31456 23403 11069 21090 30295 40351 53003 71000 82600 333 21074 555 14105=
33837,2025,02,12,09,00,AAXX 12091 33837 42960 00103 11025 21070 30291 40346 58004==
33837,2025,02,12,12,00,AAXX 12121 33837 32962 00302 10003 21074 30274 40328 58017 555 1/011=
33837,2025,02,12,15,00,AAXX 12151 33837 42964 03401 10000 21084 30261 40315 57013==
33837,2025,02,12,18,00,AAXX 12181 33837 32962 03601 11011 21079 30261 40315 54000 333 10012 555 1/104=
33837,2025,02,12,21,00,AAXX 12211 33837 42960 03201 11028 21081 30250 40305 58011==
33837,2025,02,13,00,00,AAXX 13001 33837 32960 02801 11045 21079 30242 40297 57008 555 1/106=
33837,2025,02,13,03,00,AAXX 13031 33837 42960 03401 11057 21089 30230 40285 57012 333 55054==
33837,2025,02,13,06,00,AAXX 13061 33837 31957 00000 11047 21065 30227 40282 56003 71000 333 21060 555 14104=
33837,2025,02,13,09,00,AAXX 13091 33837 42960 20601 11006 21040 30222 40276 57005 80001==
33837,2025,02,13,12,00,AAXX 13121 33837 32962 01502 10023 21013 30202 40255 58020 555 1/015=
33837,2025,02,13,15,00,AAXX 13151 33837 42966 01802 10018 21023 30188 40241 56014==
33837,2025,02,13,18,00,AAXX 13181 33837 32960 02302 10017 21017 30179 40232 57009 333 10026 555 1/102=
33837,2025,02,13,21,00,AAXX 13211 33837 42962 02202 10026 21005 30172 40225 57007==
33837,2025,02,14,00,00,AAXX 14001 33837 32460 52202 10031 20008 30160 40213 57012 85600 333 85718 555 1/101=
33837,2025,02,14,03,00,AAXX 14031 33837 42465 62202 10042 20009 30141 40194 58019 85501 333 55067 85718==
33837,2025,02,14,06,00,AAXX 14061 33837 32563 52103 10048 20023 30136 40188 56005 85500 333 20017 85621 555 10001=
33837,2025,02,14,09,00,AAXX 14091 33837 41565 62102 10060 20026 30129 40181 57007 72582 83554 333 83621==
33837,2025,02,14,12,00,AAXX 14121 33837 /1561 82003 10064 20032 30115 40167 58014 70282 8585/ 333 85621 555 1/007 69901=
33837,2025,02,14,15,00,AAXX 14151 33837 42663 82202 10061 20031 30101 40153 57014 8355/ 333 83639==
33837,2025,02,14,18,00,AAXX 14181 33837 11457 62202 10057 20037 30096 40148 56005 69902 71022 82530 333 10073 82714 555 1/002=
33837,2025,02,14,21,00,AAXX 14211 33837 41457 62302 10061 20039 30087 40139 57009 71022 85604 333 85712==
33837,2025,02,15,00,00,AAXX 15001 33837 31250 82302 10058 20043 30076 40128 57011 71022 886// 333 88705 555 1/003=
33837,2025,02,15,03,00,AAXX 15031 33837 41356 83202 10035 20015 30071 40123 56005 72582 8555/ 333 55010 85707==
33837,2025,02,15,06,00,AAXX 15061 33837 11443 83203 10007 21006 30097 40150 53026 69952 78382 8635/ 333 20007 555 11000=
33837,2025,02,15,09,00,AAXX 15091 33837 41330 83404 11008 21016 30122 40175 52025 77387 8872/==
33837,2025,02,15,12,00,AAXX 15121 33837 /1580 83405 11039 21065 30134 40188 51012 70287 8657/ 333 86621 555 1/102 60031=
33837,2025,02,15,15,00,AAXX 15151 33837 42581 63403 11034 21092 30144 40198 52010 85531 333 85630==
33837,2025,02,15,18,00,AAXX 15181 33837 12684 83301 11038 21102 30162 40216 53018 60032 86531 333 10007 86635 555 1/102=
33837,2025,02,15,21,00,AAXX 15211 33837 42584 63403 11052 21111 30166 40221 51004 82530==
33837,2025,02,16,00,00,AAXX 16001 33837 32980 32601 11069 21102 30165 40220 58001 80001 555 1/107=
33837,2025,02,16,03,00,AAXX 16031 33837 42/84 52901 11071 21111 30161 40216 57004 83031 333 55012==
33837,2025,02,16,06,00,AAXX 16061 33837 32983 62701 11056 21106 30167 40222 53006 82034 333 21074 46001 555 16104=
33837,2025,02,16,09,00,AAXX 16091 33837 42/82 83602 11015 21096 30170 40224 52003 82034==
33837,2025,02,16,12,00,AAXX 16121 33837 32982 60102 11001 21095 30165 40219 58005 80009 555 1/100=
33837,2025,02,16,15,00,AAXX 16151 33837 42/83 70000 11017 21105 30172 40226 53007 86034==
33837,2025,02,16,18,00,AAXX 16181 33837 32984 80000 11026 21097 30179 40233 52007 8805/ 333 10000 555 1/102=
33837,2025,02,16,21,00,AAXX 16211 33837 42677 62801 11025 21090 30186 40240 52007 86500 333 86641==
33837,2025,02,17,00,00,AAXX 17001 33837 32683 80000 11024 21091 30188 40242 52002 885// 333 88641 555 1/102=
33837,2025,02,17,03,00,AAXX 17031 33837 42677 80000 11025 21086 30187 40241 58001 8555/ 333 55059 85643==
33837,2025,02,17,06,00,AAXX 17061 33837 11462 83602 11035 21061 30203 40257 53016 69902 78582 8635/ 333 21036 41998 555 14103=
33837,2025,02,17,09,00,AAXX 17091 33837 41/74 60202 11014 21060 30211 40265 51008 70282 82034==
33837,2025,02,17,12,00,AAXX 17121 33837 /1582 80402 11002 21089 30208 40262 58003 70282 82534 555 1/011 69901=
33837,2025,02,17,15,00,AAXX 17151 33837 42684 61401 11015 21089 30210 40264 53002 85501 333 85641==
33837,2025,02,17,18,00,AAXX 17181 33837 12983 30305 11028 21075 30226 40280 53016 69902 80001 333 11001 555 1/103=
33837,2025,02,17,21,00,AAXX 17211 33837 42982 30303 11043 21093 30229 40284 51003 80001==
33837,2025,02,18,00,00,AAXX 18001 33837 32984 00505 11050 21098 30228 40283 58001 555 1/106=
33837,2025,02,18,03,00,AAXX 18031 33837 42964 00403 11060 21081 30228 40283 54000 333 55053==
33837,2025,02,18,06,00,AAXX 18061 33837 32361 83402 11065 21086 30240 40295 53012 8657/ 333 21066 41998 86707 555 14104=
33837,2025,02,18,09,00,AAXX 18091 33837 42364 60402 11038 21067 30239 40294 58001 86500 333 86709==
33837,2025,02,18,12,00,AAXX 18121 33837 32682 20803 11014 21077 30229 40283 58010 82530 555 1/009=
33837,2025,02,18,15,00,AAXX 18151 33837 42584 20902 11025 21096 30229 40283 54000 82500==
33837,2025,02,18,18,00,AAXX 18181 33837 32684 61002 11028 21104 30235 40290 53006 86500 333 11013 86635 555 1/103=
33837,2025,02,18,21,00,AAXX 18211 33837 42684 60704 11027 21088 30238 40293 52003 85530 333 85638==
33837,2025,02,19,00,00,AAXX 19001 33837 32983 00404 11039 21089 30243 40298 52005 555 1/105=
33837,2025,02,19,03,00,AAXX 19031 33837 42983 03501 11065 21100 30247 40302 52004 333 55051==
33837,2025,02,19,06,00,AAXX 19061 33837 32973 00101 11059 21096 30258 40313 53011 333 21070 555 14105=
33837,2025,02,19,09,00,AAXX 19091 33837 42972 20202 11030 21101 30264 40319 51006 80001==
33837,2025,02,19,12,00,AAXX 19121 33837 32978 51002 11022 21105 30255 40309 58009 82034 555 1/011=
33837,2025,02,19,15,00,AAXX 19151 33837 42/82 60000 11019 21093 30255 40309 54000 82034==
33837,2025,02,19,18,00,AAXX 19181 33837 32963 52701 11036 21094 30263 40318 53008 82031 333 11015 555 1/104=
33837,2025,02,19,21,00,AAXX 19211 33837 42965 52701 11043 21089 30264 40319 51001 80001==
33837,2025,02,20,00,00,AAXX 20001 33837 32980 22802 11044 21100 30260 40315 58004 80001 555 1/106=
33837,2025,02,20,03,00,AAXX 20031 33837 42969 32802 11051 21108 30254 40309 57006 80001 333 55086==
33837,2025,02,20,06,00,AAXX 20061 33837 32765 72902 11043 21097 30259 40314 53005 82551 333 21054 82656 555 14103=
33837,2025,02,20,09,00,AAXX 20091 33837 41350 83203 11017 21047 30259 40313 54000 78582 86374==
33837,2025,02,20,12,00,AAXX 20121 33837 /1477 73402 11003 21063 30259 40313 54000 72682 87300 555 1/003 69951=
33837,2025,02,20,15,00,AAXX 20151 33837 41584 70105 11017 21091 30273 40327 53014 72682 87350 333 87923==
33837,2025,02,20,18,00,AAXX 20181 33837 11984 60207 11031 21118 30288 40343 52015 69982 70282 85051 333 10008 555 1/104=
33837,2025,02,20,21,00,AAXX 20211 33837 42584 80204 11030 21122 30293 40348 51005 8255/==
33837,2025,02,21,00,00,AAXX 21001 33837 32684 60204 11040 21100 30297 40352 52004 86500 333 86648 555 1/105=
33837,2025,02,21,03,00,AAXX 21031 33837 42684 70106 11047 21101 30304 40359 52007 87500 333 55014 87646==
33837,2025,02,21,06,00,AAXX 21061 33837 32583 60104 11054 21109 30314 40369 52010 83550 333 21063 555 14103=
33837,2025,02,21,09,00,AAXX 21091 33837 41581 60206 11030 21101 30322 40377 52008 70282 86500 333 86631==
33837,2025,02,21,12,00,AAXX 21121 33837 /1980 60205 11024 21107 30322 40377 54000 70282 86500 555 1/005 69901=
33837,2025,02,21,15,00,AAXX 21151 33837 41575 60505 11027 21094 30330 40385 53008 70282 86500 333 86629==
33837,2025,02,21,18,00,AAXX 21181 33837 11565 30305 11042 21085 30342 40397 52012 69902 70281 83500 333 11015 555 1/105=
33837,2025,02,21,21,00,AAXX 21211 33837 42960 00404 11051 21080 30344 40400 51002==
33837,2025,02,22,00,00,AAXX 22001 33837 32460 53401 11062 21085 30343 40399 58001 85600 333 85710 555 1/107=
33837,2025,02,22,03,00,AAXX 22031 33837 41956 03501 11080 21099 30337 40393 57006 71011 333 55057==
33837,2025,02,22,06,00,AAXX 22061 33837 31250 53602 11079 21095 30342 40398 53005 71011 85600 333 21087 85705 555 14106=
33837,2025,02,22,09,00,AAXX 22091 33837 42461 30302 11041 21082 30340 40395 58002 82601 333 82710==
33837,2025,02,22,12,00,AAXX 22121 33837 /1465 70302 11033 21102 30330 40385 58010 72681 87300 555 1/005 69901=
33837,2025,02,22,15,00,AAXX 22151 33837 42580 50404 11043 21115 30323 40378 57007 85500 333 85632==
33837,2025,02,22,18,00,AAXX 22181 33837 12473 80303 11049 21101 30325 40380 53002 69902 885// 333 11026 88719 555 1/104=
33837,2025,02,22,21,00,AAXX 22211 33837 42578 30305 11056 21106 30326 40382 52001 83500 333 83624==
33837,2025,02,23,00,00,AAXX 23001 33837 32964 33602 11063 21109 30322 40378 58004 80001 555 1/108=
33837,2025,02,23,03,00,AAXX 23031 33837 42/62 23001 11092 21123 30320 40376 57002 82050 333 55046==
33837,2025,02,23,06,00,AAXX 23061 33837 32971 03001 11075 21117 30322 40378 53002 333 21096 555 14105=
33837,2025,02,23,09,00,AAXX 23091 33837 42581 50303 11031 21098 30316 40371 58006 82501==
33837,2025,02,23,12,00,AAXX 23121 33837 32580 30102 10006 21118 30298 40352 58018 82501 555 1/015=
33837,2025,02,23,15,00,AAXX 23151 33837 42583 23201 10010 21138 30287 40341 56011 81501==
33837,2025,02,23,18,00,AAXX 23181 33837 32970 02801 11021 21136 30283 40338 56004 333 10021 555 1/106=
33837,2025,02,23,21,00,AAXX 23211 33837 42981 02702 11034 21136 30280 40335 57003==
33837,2025,02,24,00,00,AAXX 24001 33837 32979 02802 11042 21136 30270 40325 58010 555 1/107=
33837,2025,02,24,03,00,AAXX 24031 33837 42981 02802 11048 21131 30264 40319 57006 333 55091==
33837,2025,02,24,06,00,AAXX 24061 33837 32980 30000 11041 21130 30264 40319 54000 80001 333 21055 555 14104=
33837,2025,02,24,09,00,AAXX 24091 33837 42975 32801 10015 21127 30257 40311 58007 80001==
33837,2025,02,24,12,00,AAXX 24121 33837 32981 51903 10022 21077 30233 40286 58024 80001 555 1/013=
33837,2025,02,24,15,00,AAXX 24151 33837 42984 22002 10009 21062 30218 40272 56015 80001==
33837,2025,02,24,18,00,AAXX 24181 33837 32968 02701 11010 21063 30209 40263 56009 333 10031 555 1/103=
33837,2025,02,24,21,00,AAXX 24211 33837 42970 00000 11024 21075 30201 40255 57008==
33837,2025,02,25,00,00,AAXX 25001 33837 32964 02901 11023 21097 30186 40240 58015 555 1/105=
33837,2025,02,25,03,00,AAXX 25031 33837 42980 03101 11033 21108 30186 40240 54000 333 55093==
33837,2025,02,25,06,00,AAXX 25061 33837 32970 33501 11034 21088 30191 40245 53005 80001 333 21047 555 14102=
33837,2025,02,25,09,00,AAXX 25091 33837 42975 00603 11013 21094 30202 40256 53011==
33837,2025,02,25,12,00,AAXX 25121 33837 32983 01601 10009 21100 30193 40247 58009 555 1/018=
33837,2025,02,25,15,00,AAXX 25151 33837 42984 02001 10002 21131 30189 40243 56004==
33837,2025,02,25,18,00,AAXX 25181 33837 32984 02301 11012 21108 30190 40244 53001 333 10013 555 1/105=
33837,2025,02,25,21,00,AAXX 25211 33837 42980 00000 11029 21109 30190 40244 54000==
33837,2025,02,26,00,00,AAXX 26001 33837 32965 00000 11044 21098 30188 40243 58002 555 1/107=
33837,2025,02,26,03,00,AAXX 26031 33837 42960 00000 11038 21079 30183 40237 57005 333 55094==
33837,2025,02,26,06,00,AAXX 26061 33837 32963 20000 11004 21050 30187 40241 53004 80001 333 21056 555 14101=
33837,2025,02,26,09,00,AAXX 26091 33837 42980 21503 10025 21047 30196 40249 52009 80001==
33837,2025,02,26,12,00,AAXX 26121 33837 32980 01505 10024 21035 30191 40244 58005 555 1/014=
33837,2025,02,26,15,00,AAXX 26151 33837 42967 01506 10015 21032 30192 40245 53001==
33837,2025,02,26,18,00,AAXX 26181 33837 32968 01605 10011 21025 30201 40255 53009 333 10031 555 1/102=
33837,2025,02,26,21,00,AAXX 26211 33837 42965 01405 10013 21026 30209 40263 52008==
33837,2025,02,27,00,00,AAXX 27001 33837 32963 01405 10015 21017 30211 40264 51002 555 1/102=
33837,2025,02,27,03,00,AAXX 27031 33837 42561 51404 10011 21021 30212 40266 52001 85500 333 55097 85623==
33837,2025,02,27,06,00,AAXX 27061 33837 32960 01205 10013 21011 30218 40272 52006 333 20010 555 14100=
33837,2025,02,27,09,00,AAXX 27091 33837 42361 51105 10018 21013 30226 40279 52008 82601 333 82708==
33837,2025,02,27,12,00,AAXX 27121 33837 32563 61104 10015 21021 30219 40273 58007 83502 333 83623 555 1/016=
33837,2025,02,27,15,00,AAXX 27151 33837 42566 61103 10017 21021 30207 40260 58012 86500 333 86629==
33837,2025,02,27,18,00,AAXX 27181 33837 32464 61301 10018 21008 30206 40259 56001 85501 333 10026 84718 555 1/101=
33837,2025,02,27,21,00,AAXX 27211 33837 42560 81402 10024 20005 30210 40263 53004 87501 333 87620==
33837,2025,02,28,00,00,AAXX 28001 33837 31557 60000 10020 20001 30210 40263 54000 71022 86500 333 86629 555 1/102=
33837,2025,02,28,03,00,AAXX 28031 33837 41458 81001 10017 20001 30208 40261 58002 71022 86501 333 55079 86710==
33837,2025,02,28,06,00,AAXX 28061 33837 31259 70802 10013 21003 30210 40264 53002 71022 87500 333 20009 87705 555 10002=
33837,2025,02,28,09,00,AAXX 28091 33837 42470 60902 10021 21020 30219 40272 53009 83531 333 83712==
33837,2025,02,28,12,00,AAXX 28121 33837 32475 61202 10025 21026 30213 40266 58006 82604 333 82712 555 1/019=
33837,2025,02,28,15,00,AAXX 28151 33837 42969 61502 10014 21037 30208 40261 57005 80004==
33837,2025,02,28,18,00,AAXX 28181 33837 32968 31301 10009 21027 30215 40269 53007 80001 333 10029 555 1/103=
33837,2025,02,28,21,00,AAXX 28211 33837 42980 01402 10012 21027 30215 40269 54000==
33837,2025,03,01,00,00,AAXX 01001 33837 32974 51402 10015 21021 30222 40276 53007 80001 555 1/102=
33837,2025,03,01,03,00,AAXX 01031 33837 42961 31303 10007 21017 30225 40279 52003 80001 333 55077==
33837,2025,03,01,06,00,AAXX 01061 33837 31350 81203 11001 21025 30235 40289 53010 71011 86604 333 21002 86708 555 14100=
33837,2025,03,01,09,00,AAXX 01091 33837 42462 81205 10010 21024 30239 40293 51004 85574 333 85713==
33837,2025,03,01,12,00,AAXX 01121 33837 32461 81104 10000 21029 30236 40290 58003 885// 333 88710 555 1/005=
33837,2025,03,01,15,00,AAXX 01151 33837 42/65 81101 10006 21033 30230 40284 57006 8807/==
33837,2025,03,01,18,00,AAXX 01181 33837 11447 80000 10001 21020 30229 40283 56001 69902 78582 883// 333 10011 555 1/100=
33837,2025,03,01,21,00,AAXX 01211 33837 41448 80000 11004 21020 30223 40277 58006 78588 883//==
33837,2025,03,02,00,00,AAXX 02001 33837 /1347 80000 11002 21012 30216 40270 57007 78588 883// 555 1/101 60011=
33837,2025,03,02,03,00,AAXX 02031 33837 41426 81501 10003 21006 30207 40261 57009 77187 8872/ 333 55002==
33837,2025,03,02,06,00,AAXX 02061 33837 11433 81301 10009 20000 30204 40258 56003 60032 76187 8872/ 333 21004 46002 555 16101=
33837,2025,03,02,09,00,AAXX 02091 33837 41235 80000 10012 20003 30199 40252 57005 76176 8872/==
33837,2025,03,02,12,00,AAXX 02121 33837 /1206 80000 10004 21005 30187 40241 58012 77576 8872/ 555 1/003 60031=
33837,2025,03,02,15,00,AAXX 02151 33837 41/06 90000 10002 20002 30182 40236 56005 77176 89///==
33837,2025,03,02,18,00,AAXX 02181 33837 11227 83301 10003 21004 30185 40239 53003 60052 77176 8872/ 333 10015 96028 555 1/000=
33837,2025,03,02,21,00,AAXX 02211 33837 41231 83402 10004 21005 30186 40240 52001 71072 886// 333 88704==
33837,2025,03,03,00,00,AAXX 03001 33837 /1530 83001 10003 21011 30183 40237 58003 71072 8655/ 333 86720 555 1/101 69931=
33837,2025,03,03,03,00,AAXX 03031 33837 41556 83101 10005 21008 30191 40245 53008 71022 8655/ 333 55000 86623==
33837,2025,03,03,06,00,AAXX 03061 33837 11656 73001 10009 21012 30194 40248 51003 69932 71022 87500 333 21001 46001 87647 555 16100=
33837,2025,03,03,09,00,AAXX 03091 33837 41459 83001 10024 20003 30205 40258 53011 71022 8555/ 333 85712==
33837,2025,03,03,12,00,AAXX 03121 33837 32664 83101 10032 21006 30197 40250 58008 8555/ 333 85646 555 1/009=
33837,2025,03,03,15,00,AAXX 03151 33837 42680 73001 10028 21023 30198 40251 53001 85550 333 85641==
33837,2025,03,03,18,00,AAXX 03181 33837 32572 82901 10023 21022 30205 40258 53007 8655/ 333 10045 86631 555 1/001=
33837,2025,03,03,21,00,AAXX 03211 33837 42669 82702 10019 21021 30202 40255 58003 8655/ 333 86639==
33837,2025,03,04,00,00,AAXX 04001 33837 32578 80000 10022 21016 30199 40252 57003 885// 333 88631 555 1/000=
33837,2025,03,04,03,00,AAXX 04031 33837 42575 82702 10024 21012 30193 40246 57006 885// 333 55001 88630==
33837,2025,03,04,06,00,AAXX 04061 33837 32670 62801 10025 21008 30196 40249 53003 82551 333 20015 82634 555 11002=
33837,2025,03,04,09,00,AAXX 04091 33837 42668 72901 10064 20003 30195 40247 58001 87500 333 87641==
33837,2025,03,04,12,00,AAXX 04121 33837 32676 62902 10085 20005 30182 40234 58013 86500 333 86635 555 1/015=
33837,2025,03,04,15,00,AAXX 04151 33837 42681 52901 10084 21006 30177 40229 56005 85500 333 85637==
33837,2025,03,04,18,00,AAXX 04181 33837 32977 22601 10058 21005 30176 40228 57001 80001 333 10093 555 1/100=
33837,2025,03,04,21,00,AAXX 04211 33837 42968 02704 10044 21004 30177 40230 53001==
33837,2025,03,05,00,00,AAXX 05001 33837 32964 02804 10029 21006 30178 40231 52001 555 1/101=
33837,2025,03,05,03,00,AAXX 05031 33837 42966 02802 10031 21007 30178 40231 54000 333 55035==
33837,2025,03,05,06,00,AAXX 05061 33837 32980 02902 10061 21013 30193 40246 53015 333 20025 555 10004=
33837,2025,03,05,09,00,AAXX 05091 33837 42973 63102 10105 21009 30201 40253 51008 80004==
33837,2025,03,05,12,00,AAXX 05121 33837 32981 83105 10138 20008 30185 40236 58016 80004 555 1/025=
33837,2025,03,05,15,00,AAXX 05151 33837 42981 83005 10134 21006 30184 40235 56001 80004==
33837,2025,03,05,18,00,AAXX 05181 33837 32980 62702 10103 21020 30193 40245 53009 80001 333 10150 555 1/004=
33837,2025,03,05,21,00,AAXX 05211 33837 42981 32802 10086 21024 30188 40240 58005 80001==
33837,2025,03,06,00,00,AAXX 06001 33837 32977 32803 10079 21013 30191 40243 53003 80001 555 1/002=
33837,2025,03,06,03,00,AAXX 06031 33837 42967 02902 10074 21010 30191 40243 54000 333 55092==
33837,2025,03,06,06,00,AAXX 06061 33837 32970 72902 10104 21037 30197 40249 53006 80001 333 20066 555 10009=
33837,2025,03,06,09,00,AAXX 06091 33837 42/76 62901 10149 21025 30202 40253 52005 82059==
33837,2025,03,06,12,00,AAXX 06121 33837 32980 83002 10186 20012 30195 40245 58007 80009 555 1/028=
33837,2025,03,06,15,00,AAXX 06151 33837 42/81 82802 10173 21029 30195 40245 54000 83034==
33837,2025,03,06,18,00,AAXX 06181 33837 32977 52702 10122 21003 30203 40254 53008 80001 333 10189 555 1/005=
33837,2025,03,06,21,00,AAXX 06211 33837 42980 32901 10119 21020 30200 40251 58003 80001==
33837,2025,03,07,00,00,AAXX 07001 33837 32979 02802 10110 21039 30200 40252 54000 555 1/002=
33837,2025,03,07,03,00,AAXX 07031 33837 42984 02702 10078 21034 30203 40255 53003 333 55089==
33837,2025,03,07,06,00,AAXX 07061 33837 32966 30000 10097 20006 30207 40259 52004 80001 333 20065 555 10008=
33837,2025,03,07,09,00,AAXX 07091 33837 42971 21802 10127 21005 30211 40262 52004 80001==
33837,2025,03,07,12,00,AAXX 07121 33837 32980 61903 10162 21023 30194 40245 58017 80001 555 1/031=
33837,2025,03,07,15,00,AAXX 07151 33837 42982 62301 10173 21034 30179 40229 57015 80001==
33837,2025,03,07,18,00,AAXX 07181 33837 32966 32801 10115 21046 30179 40230 56000 80001 333 10182 555 1/003=
33837,2025,03,07,21,00,AAXX 07211 33837 42968 22703 10100 21040 30175 40227 58004 80001==
33837,2025,03,08,00,00,AAXX 08001 33837 32979 22701 10072 21034 30171 40223 57004 80001 555 1/100=
33837,2025,03,08,03,00,AAXX 08031 33837 42978 00000 10061 21030 30164 40216 57007 333 55107==
33837,2025,03,08,06,00,AAXX 08061 33837 32969 20000 10096 21003 30162 40214 56002 80001 333 20051 555 10008=
33837,2025,03,08,09,00,AAXX 08091 33837 42/70 31101 10122 21024 30162 40213 54000 82031==
33837,2025,03,08,12,00,AAXX 08121 33837 32974 01802 10140 21033 30148 40199 58014 555 1/032=
33837,2025,03,08,15,00,AAXX 08151 33837 42984 22201 10149 21072 30137 40188 57011 80001==
33837,2025,03,08,18,00,AAXX 08181 33837 32965 02702 10106 21038 30132 40183 56005 333 10161 555 1/004=
33837,2025,03,08,21,00,AAXX 08211 33837 42971 30000 10097 21043 30131 40183 57001 80001==
33837,2025,03,09,00,00,AAXX 09001 33837 32981 23501 10076 21036 30126 40178 57005 80001 555 1/000=
33837,2025,03,09,03,00,AAXX 09031 33837 42972 00102 10067 21030 30123 40175 57003 333 55106==
33837,2025,03,09,06,00,AAXX 09061 33837 32962 30401 10071 20001 30133 40185 53010 80001 333 20045 555 10006=
33837,2025,03,09,09,00,AAXX 09091 33837 42967 50202 10088 20015 30133 40185 54000 80004==
33837,2025,03,09,12,00,AAXX 09121 33837 32976 30603 10119 20037 30115 40166 58018 81034 555 1/030=
33837,2025,03,09,15,00,AAXX 09151 33837 42984 60901 10141 20004 30106 40157 56009 80004==
33837,2025,03,09,18,00,AAXX 09181 33837 32983 20302 10119 20012 30104 40155 56002 80001 333 10142 555 1/006=
33837,2025,03,09,21,00,AAXX 09211 33837 42972 01403 10074 20038 30108 40160 53004==
33837,2025,03,10,00,00,AAXX 10001 33837 32960 00602 10064 20042 30099 40151 58009 555 1/003=
33837,2025,03,10,03,00,AAXX 10031 33837 41/01 90903 10044 20044 30088 40140 57011 74741 89/// 333 55098==
33837,2025,03,10,06,00,AAXX 10061 33837 31/04 91804 10050 20050 30096 40148 53008 74541 333 20044 555 11006=
33837,2025,03,10,09,00,AAXX 10091 33837 41/08 91803 10049 20043 30100 40152 52004 74344 89///==
33837,2025,03,10,12,00,AAXX 10121 33837 31123 82003 10054 20048 30090 40142 58010 71042 886// 333 88703 555 1/011=
33837,2025,03,10,15,00,AAXX 10151 33837 41250 81902 10059 20042 30082 40134 57008 71022 886// 333 88705==
33837,2025,03,10,18,00,AAXX 10181 33837 31132 71902 10051 20039 30083 40135 53001 71022 85605 333 10061 85703 555 1/003=
33837,2025,03,10,21,00,AAXX 10211 33837 41/03 92103 10043 20043 30077 40129 58006 74742 89///==
33837,2025,03,11,00,00,AAXX 11001 33837 31/02 91704 10049 20049 30067 40119 57010 74542 555 1/005=
33837,2025,03,11,03,00,AAXX 11031 33837 41/02 91703 10054 20054 30055 40107 57012 74544 89/// 333 55000==
33837,2025,03,11,06,00,AAXX 11061 33837 31950 82301 10067 20063 30050 40102 56005 71042 85074 333 20041 555 10008=
33837,2025,03,11,09,00,AAXX 11091 33837 42960 81902 10084 20055 30051 40102 53001 80004==
33837,2025,03,11,12,00,AAXX 11121 33837 32962 81904 10088 20052 30038 40089 58013 80006 555 1/022=
33837,2025,03,11,15,00,AAXX 11151 33837 42/69 82103 10091 20051 30024 40075 57014 8807/==
33837,2025,03,11,18,00,AAXX 11181 33837 32964 82102 10086 20044 30024 40075 54000 80005 333 10127 555 1/006=
33837,2025,03,11,21,00,AAXX 11211 33837 41/63 72203 10091 20064 30012 40063 58012 70282 87030==
33837,2025,03,12,00,00,AAXX 12001 33837 /1961 62202 10084 20059 39999 40050 57013 70282 80004 555 1/006 69901=
33837,2025,03,12,03,00,AAXX 12031 33837 42966 22503 10097 20059 39998 40049 56001 80001 333 55041==
33837,2025,03,12,06,00,AAXX 12061 33837 12974 82802 10117 20060 30022 40073 53024 69902 8807/ 333 20075 555 10010=
33837,2025,03,12,09,00,AAXX 12091 33837 42571 62102 10140 20066 30040 40090 51018 82474==
33837,2025,03,12,12,00,AAXX 12121 33837 /1565 72102 10162 20061 30027 40077 58013 70282 82573 555 1/020 69901=
33837,2025,03,12,15,00,AAXX 12151 33837 42/76 82202 10127 20056 30024 40074 56003 83075==
33837,2025,03,12,18,00,AAXX 12181 33837 12972 82302 10101 20063 30035 40086 53011 69902 80005 333 10181 555 1/007=
33837,2025,03,12,21,00,AAXX 12211 33837 42962 82701 10119 20086 30037 40088 51002 80007==
33837,2025,03,13,00,00,AAXX 13001 33837 31950 81902 10068 20056 30036 40087 58001 71022 80007 555 1/005=
33837,2025,03,13,03,00,AAXX 13031 33837 41957 62102 10080 20068 30026 40077 58010 71022 80001 333 55052==
33837,2025,03,13,06,00,AAXX 13061 33837 31557 82103 10084 20064 30024 40075 56002 71022 82574 333 20066 555 10009=
33837,2025,03,13,09,00,AAXX 13091 33837 41466 82306 10142 20075 30011 40061 58013 72582 86306==
33837,2025,03,13,12,00,AAXX 13121 33837 /1467 82208 10133 20059 39995 40045 57016 72582 85359 555 1/018 69901=
33837,2025,03,13,15,00,AAXX 13151 33837 42564 82103 10091 20053 39990 40041 56005 8347/==
33837,2025,03,13,18,00,AAXX 13181 33837 12967 62206 10106 20049 39995 40046 53005 69902 80004 333 10154 555 1/007=
33837,2025,03,13,21,00,AAXX 13211 33837 42564 82303 10118 20057 39995 40045 54000 82515==
33837,2025,03,14,00,00,AAXX 14001 33837 32965 82404 10113 20062 30004 40055 53009 83032 555 1/007=
33837,2025,03,14,03,00,AAXX 14031 33837 42/75 62703 10114 20067 30015 40066 52011 82032 333 55009==
33837,2025,03,14,06,00,AAXX 14061 33837 11480 72301 10121 20076 30040 40091 53025 69902 72582 85361 333 20097 555 10009=
33837,2025,03,14,09,00,AAXX 14091 33837 42966 52403 10172 20084 30058 40108 51018 80001==
33837,2025,03,14,12,00,AAXX 14121 33837 32970 82003 10164 20071 30057 40107 58001 82031 555 1/033=
33837,2025,03,14,15,00,AAXX 14151 33837 42669 82303 10145 20073 30062 40112 53005 82532==
33837,2025,03,14,18,00,AAXX 14181 33837 32972 72402 10136 20072 30073 40123 53011 82032 333 10200 555 1/010=
33837,2025,03,14,21,00,AAXX 14211 33837 42/60 62403 10137 20068 30071 40121 58002 82031==
33837,2025,03,15,00,00,AAXX 15001 33837 32962 52402 10117 20078 30073 40124 53002 80001 555 1/007=
33837,2025,03,15,03,00,AAXX 15031 33837 42964 52303 10096 20060 30060 40111 58013 80001 333 55078==
33837,2025,03,15,06,00,AAXX 15061 33837 32960 81201 10092 20061 30064 40115 53004 82035 333 20072 555 10010=
33837,2025,03,15,09,00,AAXX 15091 33837 42/62 82402 10138 20071 30058 40108 58006 8807/==
33837,2025,03,15,12,00,AAXX 15121 33837 32962 82102 10114 20067 30049 40100 57009 8807/ 555 1/020=
33837,2025,03,15,15,00,AAXX 15151 33837 42/63 82302 10150 20078 30039 40089 57010 8805/==
33837,2025,03,15,18,00,AAXX 15181 33837 32963 72404 10160 20072 30041 40091 53002 87050 333 10165 555 1/011=
33837,2025,03,15,21,00,AAXX 15211 33837 42/62 82701 10111 20064 30041 40092 54000 8805/==
33837,2025,03,16,00,00,AAXX 16001 33837 32961 80102 10093 20058 30034 40085 58007 8805/ 555 1/009=
33837,2025,03,16,03,00,AAXX 16031 33837 42/63 83403 10083 20045 30027 40078 57007 8805/ 333 55000==
33837,2025,03,16,06,00,AAXX 16061 33837 32970 73304 10072 20036 30050 40102 53023 85074 333 20070 555 10009=
33837,2025,03,16,09,00,AAXX 16091 33837 42/72 83503 10103 20049 30043 40094 58007 86074==
33837,2025,03,16,12,00,AAXX 16121 33837 32983 83503 10121 20046 30039 40090 57004 83056 555 1/023=
33837,2025,03,16,15,00,AAXX 16151 33837 42/84 70102 10100 20046 30032 40083 57007 85035==
33837,2025,03,16,18,00,AAXX 16181 33837 32484 83503 10062 20028 30046 40098 53014 86555 333 10124 86714 555 1/008=
33837,2025,03,16,21,00,AAXX 16211 33837 41566 63301 10053 20035 30047 40099 51001 72582 82374==
33837,2025,03,17,00,00,AAXX 17001 33837 /1442 83402 10040 20027 30043 40095 58004 76186 8672/ 555 1/005 69931=
33837,2025,03,17,03,00,AAXX 17031 33837 41238 83502 10038 20026 30039 40091 57004 71062 886// 333 55027 88706==
33837,2025,03,17,06,00,AAXX 17061 33837 11457 80000 10043 20020 30042 40094 53003 69962 71062 886// 333 20036 88712 555 11006 31004=
33837,2025,03,17,09,00,AAXX 17091 33837 41484 83401 10053 20016 30046 40098 52004 72522 8635/ 333 86917==
33837,2025,03,17,12,00,AAXX 17121 33837 /1580 53102 10066 20021 30037 40089 58009 70282 85500 333 85631 555 1/025 69901=
33837,2025,03,17,15,00,AAXX 17151 33837 42584 83202 10065 20004 30046 40098 53009 885// 333 88629==
33837,2025,03,17,18,00,AAXX 17181 33837 12681 83202 10064 21001 30060 40112 52014 69902 885// 333 10085 88646 555 1/005=
33837,2025,03,17,21,00,AAXX 17211 33837 42/78 83303 10050 21017 30080 40132 53020 8805/==
33837,2025,03,18,00,00,AAXX 18001 33837 32984 53205 10018 21022 30094 40147 51014 85030 555 1/100=
33837,2025,03,18,03,00,AAXX 18031 33837 42584 63407 10000 21052 30118 40171 53024 85501 333 55007 85623==
33837,2025,03,18,06,00,AAXX 18061 33837 32584 63405 11011 21088 30143 40197 52025 82504 333 21013 555 10003 34101=
33837,2025,03,18,09,00,AAXX 18091 33837 42581 53405 10021 21104 30160 40213 51017 82401==
33837,2025,03,18,12,00,AAXX 18121 33837 32465 83505 10044 21134 30167 40220 51007 82601 555 1/026=
33837,2025,03,18,15,00,AAXX 18151 33837 42969 03503 10042 21136 30180 40233 53013==
33837,2025,03,18,18,00,AAXX 18181 33837 32983 03202 10027 21140 30204 40257 53024 333 10054 555 1/101=
33837,2025,03,18,21,00,AAXX 18211 33837 42984 03102 10013 21136 30213 40267 51009==
33837,2025,03,19,00,00,AAXX 19001 33837 32984 03103 10000 21136 30215 40269 51002 555 1/103=
33837,2025,03,19,03,00,AAXX 19031 33837 42984 52802 11007 21109 30220 40274 52005 80001 333 55095==
33837,2025,03,19,06,00,AAXX 19061 33837 32983 63001 10020 21076 30227 40281 52007 86030 333 21013 555 10006 30104=
33837,2025,03,19,09,00,AAXX 19091 33837 42584 73202 10054 21029 30229 40282 51002 83531 333 83630==
33837,2025,03,19,12,00,AAXX 19121 33837 32684 73402 10073 21022 30221 40273 58008 85550 333 85637 555 1/019=
33837,2025,03,19,15,00,AAXX 19151 33837 41583 73501 10072 21003 30219 40271 56002 72582 82370==
33837,2025,03,19,18,00,AAXX 19181 33837 11982 80000 10067 21005 30229 40282 53010 69902 70282 8805/ 333 10083 555 1/005=
33837,2025,03,19,21,00,AAXX 19211 33837 42/70 82701 10061 21004 30234 40287 51005 8805/==
33837,2025,03,20,00,00,AAXX 20001 33837 32979 83002 10056 21007 30238 40291 52004 8805/ 555 1/004=
33837,2025,03,20,03,00,AAXX 20031 33837 42/83 83101 10059 21013 30238 40291 54000 8805/ 333 55031==
33837,2025,03,20,06,00,AAXX 20061 33837 32983 83202 10066 21018 30248 40301 53010 8805/ 333 20056 555 10007 30004=
33837,2025,03,20,09,00,AAXX 20091 33837 42568 20202 10115 21013 30245 40297 58003 82800==
33837,2025,03,20,12,00,AAXX 20121 33837 32582 33202 10135 21046 30228 40279 58017 83400 555 1/034=
33837,2025,03,20,15,00,AAXX 20151 33837 42583 23301 10128 21039 30218 40269 58010 82400==
33837,2025,03,20,18,00,AAXX 20181 33837 32982 03001 10084 21025 30224 40276 53006 333 10141 555 1/004=
33837,2025,03,20,21,00,AAXX 20211 33837 42963 22702 10061 21030 30223 40276 58001 80001==
33837,2025,03,21,00,00,AAXX 21001 33837 32964 02701 10044 21038 30221 40274 57002 555 1/100=
33837,2025,03,21,03,00,AAXX 21031 33837 42972 33201 10038 21039 30219 40272 57002 80001 333 55092==
33837,2025,03,21,06,00,AAXX 21061 33837 32975 00401 10070 21012 30223 40275 53004 333 20033 555 10012 30101=
33837,2025,03,21,09,00,AAXX 21091 33837 42972 01703 10096 21012 30227 40279 52004==
33837,2025,03,21,12,00,AAXX 21121 33837 32981 01804 10121 21011 30210 40261 58017 555 1/031=
33837,2025,03,21,15,00,AAXX 21151 33837 42984 02203 10108 21048 30200 40252 56010==
33837,2025,03,21,18,00,AAXX 21181 33837 32984 02503 10089 21061 30201 40253 53001 333 10125 555 1/004=
33837,2025,03,21,21,00,AAXX 21211 33837 42984 02603 10073 21044 30196 40248 58005==
33837,2025,03,22,00,00,AAXX 22001 33837 32984 02703 10059 21017 30190 40243 57006 555 1/002=
33837,2025,03,22,03,00,AAXX 22031 33837 42984 02703 10054 21024 30183 40236 57007 333 55115==
33837,2025,03,22,06,00,AAXX 22061 33837 32981 02702 10090 21020 30188 40240 53005 333 20054 555 10012 30001=
33837,2025,03,22,09,00,AAXX 22091 33837 42971 21705 10079 20043 30200 40252 53012 80001==
33837,2025,03,22,12,00,AAXX 22121 33837 32980 01805 10084 20050 30198 40250 58002 555 1/029=
33837,2025,03,22,15,00,AAXX 22151 33837 42984 01902 10077 20037 30195 40247 57003==
33837,2025,03,22,18,00,AAXX 22181 33837 32984 02101 10065 20037 30205 40257 53010 333 10112 555 1/002=
33837,2025,03,22,21,00,AAXX 22211 33837 42984 02301 10062 20021 30204 40257 58001==
33837,2025,03,23,00,00,AAXX 23001 33837 32970 01901 10054 20044 30202 40255 57002 555 1/102=
33837,2025,03,23,03,00,AAXX 23031 33837 42981 01701 10059 20042 30208 40261 53006 333 55115==
33837,2025,03,23,06,00,AAXX 23061 33837 32974 61604 10068 20045 30212 40264 52004 82035 333 20050 555 10010 30102=
33837,2025,03,23,09,00,AAXX 23091 33837 42/77 81503 10068 20034 30218 40270 52006 83075==
33837,2025,03,23,12,00,AAXX 23121 33837 32967 81604 10073 20048 30215 40267 58003 83075 555 1/016=
33837,2025,03,23,15,00,AAXX 23151 33837 41/57 81403 10064 20049 30208 40260 57007 71022 8807/==
33837,2025,03,23,18,00,AAXX 23181 33837 32966 81405 10064 20036 30199 40251 57009 8807/ 333 10079 555 1/005=
33837,2025,03,23,21,00,AAXX 23211 33837 42/66 81504 10066 20039 30201 40253 53002 8807/==
33837,2025,03,24,00,00,AAXX 24001 33837 31958 81404 10064 20049 30193 40245 58008 71022 8807/ 555 1/005=
33837,2025,03,24,03,00,AAXX 24031 33837 41556 61404 10063 20049 30180 40232 58013 72582 83350 333 55011==
33837,2025,03,24,06,00,AAXX 24061 33837 11357 61604 10073 20054 30181 40233 53001 69902 71082 85430 333 20062 85708 555 11012 31004=
33837,2025,03,24,09,00,AAXX 24091 33837 41559 81607 10072 20050 30177 40229 58004 71022 8557/ 333 85624==
33837,2025,03,24,12,00,AAXX 24121 33837 32461 81703 10077 20055 30170 40222 57007 8557/ 333 85710 555 1/015=
33837,2025,03,24,15,00,AAXX 24151 33837 41357 81803 10074 20057 30155 40207 58015 71022 8557/ 333 85707==
33837,2025,03,24,18,00,AAXX 24181 33837 31356 81804 10072 20060 30148 40200 56007 71022 886// 333 10080 88707 555 1/007=
33837,2025,03,24,21,00,AAXX 24211 33837 41248 81805 10072 20061 30137 40189 57011 71022 886// 333 88704==
33837,2025,03,25,00,00,AAXX 25001 33837 31249 81805 10073 20064 30112 40164 58025 71022 886// 333 88705 555 1/006=
33837,2025,03,25,03,00,AAXX 25031 33837 41157 82104 10080 20068 30098 40150 56014 71022 8655/ 333 55009 86703==
33837,2025,03,25,06,00,AAXX 25061 33837 32961 62401 10105 20077 30097 40148 56001 85071 333 20070 555 10014=
33837,2025,03,25,09,00,AAXX 25091 33837 42/60 61101 10119 20084 30106 40157 53009 86030==
33837,2025,03,25,12,00,AAXX 25121 33837 32964 20000 10153 20090 30103 40153 58003 82030 555 1/036=
33837,2025,03,25,15,00,AAXX 25151 33837 42/63 63601 10158 20085 30106 40156 53003 86030==
33837,2025,03,25,18,00,AAXX 25181 33837 32966 82001 10132 20083 30114 40165 53008 8807/ 333 10175 555 1/012=
33837,2025,03,25,21,00,AAXX 25211 33837 41561 80000 10126 20096 30115 40166 51001 78082 8635/==
33837,2025,03,26,00,00,AAXX 26001 33837 /1557 83501 10109 20090 30117 40168 52002 72582 8335/ 555 1/010 69971=
33837,2025,03,26,03,00,AAXX 26031 33837 41559 83602 10099 20077 30119 40170 52002 78082 8335/ 333 55077==
33837,2025,03,26,06,00,AAXX 26061 33837 11961 83603 10084 20055 30129 40181 53010 69972 70282 8805/ 333 20081 555 11012=
33837,2025,03,26,09,00,AAXX 26091 33837 41564 60102 10117 20062 30132 40183 51003 78082 84359==
33837,2025,03,26,12,00,AAXX 26121 33837 /1966 60601 10118 20052 30122 40173 58010 70282 80004 555 1/030 69901=
33837,2025,03,26,15,00,AAXX 26151 33837 42968 51801 10128 20066 30115 40166 57007 80001==
33837,2025,03,26,18,00,AAXX 26181 33837 12964 20000 10105 20059 30121 40172 53006 69902 80001 333 10135 555 1/007=
33837,2025,03,26,21,00,AAXX 26211 33837 42960 30000 10091 20058 30118 40169 58003 80001==
33837,2025,03,27,00,00,AAXX 27001 33837 32981 03602 10097 20021 30118 40169 54000 555 1/005=
33837,2025,03,27,03,00,AAXX 27031 33837 42/84 83601 10080 21002 30117 40169 58001 8807/ 333 55075==
33837,2025,03,27,06,00,AAXX 27061 33837 32973 80201 10080 20020 30121 40173 53004 8805/ 333 20071 555 10012 30004=
33837,2025,03,27,09,00,AAXX 27091 33837 42570 80102 10110 20033 30121 40172 54000 8257/==
33837,2025,03,27,12,00,AAXX 27121 33837 32576 80402 10130 20034 30117 40168 58004 8337/ 555 1/019=
33837,2025,03,27,15,00,AAXX 27151 33837 41463 83602 10118 20050 30115 40166 57002 78082 883//==
33837,2025,03,27,18,00,AAXX 27181 33837 11580 83601 10113 20047 30120 40171 53005 69932 70282 86504 333 10133 555 1/009=
33837,2025,03,27,21,00,AAXX 27211 33837 42583 83602 10113 20033 30122 40173 52002 8255/==
33837,2025,03,28,00,00,AAXX 28001 33837 32980 63502 10093 20026 30115 40166 58007 82031 555 1/005=
33837,2025,03,28,03,00,AAXX 28031 33837 42981 50102 10087 20021 30116 40168 53001 80001 333 55000==
33837,2025,03,28,06,00,AAXX 28061 33837 32981 60102 10088 20030 30118 40170 52002 83075 333 20082 555 10012 30004=
33837,2025,03,28,09,00,AAXX 28091 33837 42/81 80504 10106 20043 30113 40164 58005 86075==
33837,2025,03,28,12,00,AAXX 28121 33837 32983 80703 10123 20033 30098 40149 58015 86075 555 1/019=
33837,2025,03,28,15,00,AAXX 28151 33837 42/83 80405 10126 20030 30082 40133 57016 85039==
33837,2025,03,28,18,00,AAXX 28181 33837 32982 60306 10110 20028 30073 40124 56009 83031 333 10136 555 1/008=
33837,2025,03,28,21,00,AAXX 28211 33837 42/81 50507 10099 20030 30062 40113 57011 82031==
33837,2025,03,29,00,00,AAXX 29001 33837 32972 60305 10088 20038 30050 40101 57012 80001 555 1/006=
33837,2025,03,29,03,00,AAXX 29031 33837 42/64 60407 10086 20040 30036 40087 57014 83031 333 55026==
33837,2025,03,29,06,00,AAXX 29061 33837 32962 70405 10092 20044 30040 40091 53004 85031 333 20083 555 10014=
33837,2025,03,29,09,00,AAXX 29091 33837 42/71 80706 10112 20049 30029 40080 58011 86071==
33837,2025,03,29,12,00,AAXX 29121 33837 /1571 80405 10130 20059 30028 40078 56001 72582 8335/ 555 1/023 69901=
33837,2025,03,29,15,00,AAXX 29151 33837 41566 80505 10113 20072 30028 40079 54000 72582 8535/ 333 85931==
33837,2025,03,29,18,00,AAXX 29181 33837 11461 80503 10100 20076 30029 40080 53001 60012 78082 883// 333 10131 555 1/009=
33837,2025,03,29,21,00,AAXX 29211 33837 41565 80305 10105 20077 30026 40077 58003 72998 889// 333 88921==
33837,2025,03,30,00,00,AAXX 30001 33837 /1322 81105 10085 20071 30023 40074 57003 71098 886// 333 88707 555 1/008 60021=
33837,2025,03,30,03,00,AAXX 30031 33837 41/02 90704 10078 20078 30020 40071 57003 76164 89/// 333 55013==
33837,2025,03,30,06,00,AAXX 30061 33837 11/02 90000 10080 20080 30026 40077 53006 60032 76164 333 20077 96045 555 11009=
33837,2025,03,30,09,00,AAXX 30091 33837 41/07 90000 10087 20087 30033 40084 52007 74764 89///==
33837,2025,03,30,12,00,AAXX 30121 33837 /1467 80501 10099 20080 30031 40082 58002 70264 8555/ 333 85715 555 1/017 69931=
33837,2025,03,30,15,00,AAXX 30151 33837 41343 81701 10091 20077 30028 40079 57003 71022 8555/ 333 85707==
33837,2025,03,30,18,00,AAXX 30181 33837 11357 82001 10091 20077 30034 40085 53006 69932 71022 8655/ 333 10103 86708 555 1/009=
33837,2025,03,30,21,00,AAXX 30211 33837 41256 82601 10091 20080 30029 40080 58005 71022 8655/ 333 86706==
33837,2025,03,31,00,00,AAXX 31001 33837 31340 80000 10095 20084 30024 40075 57005 71022 8655/ 333 86709 555 1/008=
33837,2025,03,31,03,00,AAXX 31031 33837 41233 80000 10091 20082 30022 40073 57002 71022 886// 333 55000 88706==
33837,2025,03,31,06,00,AAXX 31061 33837 31250 83202 10096 20082 30032 40083 53010 71022 885// 333 20087 88705 555 11010=
33837,2025,03,31,09,00,AAXX 31091 33837 42461 81201 10106 20080 30045 40096 52013 8555/ 333 85713==
33837,2025,03,31,12,00,AAXX 31121 33837 31559 81803 10102 20081 30052 40103 51007 71022 8557/ 333 85624 555 1/018=
33837,2025,03,31,15,00,AAXX 31151 33837 42580 83401 10125 20078 30056 40107 52004 8653/ 333 86623==
33837,2025,03,31,18,00,AAXX 31181 33837 32566 82601 10115 20084 30072 40123 53016 85531 333 10136 85625 555 1/010=
33837,2025,03,31,21,00,AAXX 31211 33837 42564 82701 10109 20081 30080 40131 51008 8653/ 333 86628==
33837,2025,04,01,00,00,AAXX 01001 33837 32662 82801 10101 20075 30079 40130 58001 83551 333 83646 555 1/008=
33837,2025,04,01,03,00,AAXX 01031 33837 41632 72801 10079 20068 30080 40132 53001 71022 83551 333 55014 83641==
33837,2025,04,01,06,00,AAXX 01061 33837 32964 22701 10114 20075 30089 40140 53009 82031 333 20074 555 10015 30005=
33837,2025,04,01,09,00,AAXX 01091 33837 42569 72702 10150 20080 30093 40143 51004 86201 333 86827==
33837,2025,04,01,12,00,AAXX 01121 33837 32675 71903 10120 20079 30090 40141 58003 87400 333 87841 555 1/026=
33837,2025,04,01,15,00,AAXX 01151 33837 42668 82002 10111 20070 30080 40131 58010 82404==
33837,2025,04,01,18,00,AAXX 01181 33837 32964 22801 10101 20068 30084 40135 53004 80001 333 10169 555 1/007=
33837,2025,04,01,21,00,AAXX 01211 33837 42961 02801 10094 20068 30076 40127 58008==
33837,2025,04,02,00,00,AAXX 02001 33837 32966 02902 10087 20060 30065 40116 57011 555 1/005=
33837,2025,04,02,03,00,AAXX 02031 33837 42966 03102 10094 20065 30052 40103 57013 333 55094==
33837,2025,04,02,06,00,AAXX 02061 33837 32972 33202 10103 20066 30054 40105 53002 80004 333 20087 555 10016 30004=
33837,2025,04,02,09,00,AAXX 02091 33837 42583 63502 10149 20067 30051 40101 58003 85201 333 85825==
33837,2025,04,02,12,00,AAXX 02121 33837 32683 73602 10148 20050 30052 40102 53001 87400 333 87840 555 1/024=
33837,2025,04,02,15,00,AAXX 02151 33837 42684 63203 10127 20065 30050 40100 58002 85401 333 85644==
33837,2025,04,02,18,00,AAXX 02181 33837 32570 53202 10103 20064 30058 40109 53008 82530 333 10159 555 1/007=
33837,2025,04,02,21,00,AAXX 02211 33837 42661 63102 10092 20066 30061 40112 52003 86500 333 86646==
33837,2025,04,03,00,00,AAXX 03001 33837 32669 63002 10089 20063 30060 40111 58001 86500 333 86646 555 1/006=
33837,2025,04,03,03,00,AAXX 03031 33837 42581 83102 10087 20063 30061 40112 53001 8255/ 333 55055==
33837,2025,04,03,06,00,AAXX 03061 33837 32565 83002 10098 20072 30073 40124 53012 84554 333 20086 555 10013=
33837,2025,04,03,09,00,AAXX 03091 33837 42562 83401 10141 20093 30083 40133 52010 83559 333 83633==
33837,2025,04,03,12,00,AAXX 03121 33837 /1457 83501 10144 20102 30090 40140 52007 78182 883// 555 1/015 69941=
33837,2025,04,03,15,00,AAXX 03151 33837 41323 83603 10107 20095 30101 40152 52011 78182 883//==
33837,2025,04,03,18,00,AAXX 03181 33837 11559 83603 10115 20092 30113 40164 52012 60032 71082 885// 333 10155 88621 555 1/010=
33837,2025,04,03,21,00,AAXX 03211 33837 41441 83602 10108 20092 30117 40168 51004 76186 8872/==
33837,2025,04,04,00,00,AAXX 04001 33837 /1459 83402 10109 20088 30111 40162 58006 76186 8852/ 555 1/010 60021=
33837,2025,04,04,03,00,AAXX 04031 33837 41462 83403 10101 20084 30108 40159 57003 72562 883// 333 55008 88916==
33837,2025,04,04,06,00,AAXX 04061 33837 11461 83402 10098 20072 30111 40162 53003 60032 78082 883// 333 20097 88911 555 10010=
33837,2025,04,04,09,00,AAXX 04091 33837 41462 80404 10106 20085 30112 40163 52001 70282 86501 333 86711==
33837,2025,04,04,12,00,AAXX 04121 33837 /1561 80701 10109 20090 30102 40153 58010 70282 86501 333 86625 555 1/015 69931=
33837,2025,04,04,15,00,AAXX 04151 33837 41559 31901 10110 20088 30085 40136 58017 71011 82530==
33837,2025,04,04,18,00,AAXX 04181 33837 11/02 90000 10084 20084 30080 40131 56005 69932 74742 333 10118 555 1/008=
33837,2025,04,04,21,00,AAXX 04211 33837 41/04 90000 10071 20071 30069 40121 58011 74544 89///==
33837,2025,04,05,00,00,AAXX 05001 33837 31/03 92201 10070 20070 30052 40104 58017 74544 555 1/007=
33837,2025,04,05,03,00,AAXX 05031 33837 41/03 90000 10073 20073 30032 40083 57020 74544 89/// 333 55017==
33837,2025,04,05,06,00,AAXX 05061 33837 31/07 90000 10084 20084 30020 40071 56012 74344 333 20068 555 11012=
33837,2025,04,05,09,00,AAXX 05091 33837 41158 61804 10098 20092 30008 40059 57012 71042 86600 333 86702==
33837,2025,04,05,12,00,AAXX 05121 33837 31180 51903 10116 20086 39981 40031 58027 70242 83101 333 83803 555 1/030=
33837,2025,04,05,15,00,AAXX 05151 33837 41156 82203 10096 20080 39956 40007 57025 71022 86609 333 86702==
33837,2025,04,05,18,00,AAXX 05181 33837 31/04 92104 10076 20076 39950 40001 56006 74542 333 10122 555 1/008=
33837,2025,04,05,21,00,AAXX 05211 33837 41/03 92401 10079 20079 39942 49993 57008 74598 89///==
33837,2025,04,06,00,00,AAXX 06001 33837 /1362 83201 10084 20078 39926 49977 58016 72598 883// 333 88909 555 1/007 60021=
33837,2025,04,06,03,00,AAXX 06031 33837 42383 83503 10052 20032 39928 49979 53002 883// 333 55059 88908==
33837,2025,04,06,06,00,AAXX 06061 33837 11484 83305 10020 20005 39947 49999 53019 60032 78082 8637/ 333 20020 555 11003 31003=
33837,2025,04,06,09,00,AAXX 06091 33837 41472 83305 10027 20011 39975 40027 53028 78088 8637/==
33837,2025,04,06,12,00,AAXX 06121 33837 /1569 83203 10048 20004 30001 40053 52026 70282 8537/ 333 85620 555 1/010 60011=
33837,2025,04,06,15,00,AAXX 06151 33837 42684 82903 10064 21010 30013 40065 51012 83854 333 83637==
33837,2025,04,06,18,00,AAXX 06181 33837 12584 63002 10037 21007 30045 40097 53032 60012 82530 333 10066 555 1/002=
33837,2025,04,06,21,00,AAXX 06211 33837 42/84 63006 10009 21038 30062 40115 51017 86030==
33837,2025,04,07,00,00,AAXX 07001 33837 32984 53102 11006 21052 30078 40131 52016 82031 555 1/102=
33837,2025,04,07,03,00,AAXX 07031 33837 42584 83202 11008 21047 30085 40138 51007 82551 333 55006==
33837,2025,04,07,06,00,AAXX 07061 33837 32983 83203 10000 21054 30094 40147 52009 83034 333 21011 555 11000 31102=
33837,2025,04,07,09,00,AAXX 07091 33837 42683 83302 10036 21053 30098 40151 51004 83574 333 83635==
33837,2025,04,07,12,00,AAXX 07121 33837 32683 83302 10057 21059 30092 40144 58006 85571 333 85648 555 1/016=
33837,2025,04,07,15,00,AAXX 07151 33837 42683 83202 10052 21073 30096 40148 53004 8355/==
33837,2025,04,07,18,00,AAXX 07181 33837 32983 83101 10035 21059 30122 40175 53026 86051 333 10068 555 1/003=
33837,2025,04,07,21,00,AAXX 07211 33837 42/84 62901 10007 21066 30130 40183 51008 83031==
33837,2025,04,08,00,00,AAXX 08001 33837 32982 32802 11005 21073 30132 40185 51002 82031 555 1/102=
33837,2025,04,08,03,00,AAXX 08031 33837 42/84 22802 11012 21063 30134 40188 52002 82030 333 55039==
33837,2025,04,08,06,00,AAXX 08061 33837 32981 02902 10035 21042 30140 40193 52006 333 21013 555 10007 30103=
33837,2025,04,08,09,00,AAXX 08091 33837 42680 62804 10069 21071 30144 40196 52004 86200 333 86849==
33837,2025,04,08,12,00,AAXX 08121 33837 32682 62603 10082 21079 30140 40192 58004 85401 333 85847 555 1/025=
33837,2025,04,08,15,00,AAXX 08151 33837 42682 72401 10077 21088 30133 40185 57007 83430==
33837,2025,04,08,18,00,AAXX 08181 33837 32983 22402 10051 21025 30139 40191 53006 82030 333 10099 555 1/003=
33837,2025,04,08,21,00,AAXX 08211 33837 42684 82601 10050 21028 30130 40182 58009 8553/ 333 85646==
33837,2025,04,09,00,00,AAXX 09001 33837 32665 62801 10026 21025 30117 40170 58013 83530 333 83647 555 1/101=
33837,2025,04,09,03,00,AAXX 09031 33837 42/70 83202 10019 21012 30108 40161 57009 85034 333 55106==
33837,2025,04,09,06,00,AAXX 09061 33837 11581 83502 10027 21028 30116 40169 53008 69902 70282 82474 333 20017 555 11008 31101=
33837,2025,04,09,09,00,AAXX 09091 33837 42584 50303 10062 21061 30120 40172 52004 83201==
33837,2025,04,09,12,00,AAXX 09121 33837 32577 73203 10063 21096 30110 40162 58010 85264 555 1/020=
33837,2025,04,09,15,00,AAXX 09151 33837 41583 72202 10045 21042 30109 40161 56001 78382 86370==
33837,2025,04,09,18,00,AAXX 09181 33837 11983 02601 10019 21019 30123 40176 53014 69902 70281 333 10084 555 1/001=
33837,2025,04,09,21,00,AAXX 09211 33837 42975 02702 10004 21035 30112 40165 58011==
33837,2025,04,10,00,00,AAXX 10001 33837 32981 02802 11004 21034 30094 40147 58018 555 1/103=
33837,2025,04,10,03,00,AAXX 10031 33837 42583 62702 11003 21042 30073 40126 57021 83460 333 55061==
33837,2025,04,10,06,00,AAXX 10061 33837 32982 82404 10050 21038 30050 40102 57023 83016 333 21012 555 10009 30103=
33837,2025,04,10,09,00,AAXX 10091 33837 42582 82103 10079 20011 30021 40072 58029 83276==
33837,2025,04,10,12,00,AAXX 10121 33837 /1458 82101 10077 20041 39996 40047 57025 78082 883// 555 1/010 69961=
33837,2025,04,10,15,00,AAXX 10151 33837 41431 83303 10032 20014 30000 40052 53004 78188 883//==
33837,2025,04,10,18,00,AAXX 10181 33837 11465 83308 10008 21026 30018 40071 53018 60032 72688 86304 333 10091 86918 555 1/000=
33837,2025,04,10,21,00,AAXX 10211 33837 41458 83406 10009 21036 30019 40072 51001 78382 883//==
33837,2025,04,11,00,00,AAXX 11001 33837 /1466 83307 10000 21054 30007 40060 58012 70282 86514 333 86718 555 1/101 69931=
33837,2025,04,11,03,00,AAXX 11031 33837 42582 83208 11008 21060 39998 40051 56009 85554 333 55044==
33837,2025,04,11,06,00,AAXX 11061 33837 12684 83207 10002 21062 39997 40050 56001 69932 85531 333 21009 91119 555 11000 31102=
33837,2025,04,11,09,00,AAXX 11091 33837 41681 83306 10020 21061 39987 40039 58010 78782 883// 333 88945==
33837,2025,04,11,12,00,AAXX 11121 33837 /1683 83308 10031 21048 39984 40036 56003 78382 883// 333 88943 91120 555 1/004 69901=
33837,2025,04,11,15,00,AAXX 11151 33837 41349 83406 10014 20001 39995 40047 53011 78082 883//==
33837,2025,04,11,18,00,AAXX 11181 33837 11484 63406 10023 20004 30004 40056 52009 60012 70282 85530 333 10037 85716 555 1/000=
33837,2025,04,11,21,00,AAXX 11211 33837 42370 63503 10022 20004 30011 40063 52007 85630 333 85708==
33837,2025,04,12,00,00,AAXX 12001 33837 32972 23603 10012 21006 30017 40070 52006 80001 555 1/102=
33837,2025,04,12,03,00,AAXX 12031 33837 41258 83403 10001 21012 30040 40093 53023 71011 886// 333 55000 88704==
33837,2025,04,12,06,00,AAXX 12061 33837 32364 63303 10022 21001 30065 40118 52025 85601 333 20000 85707 555 11006 31103=
33837,2025,04,12,09,00,AAXX 12091 33837 42577 50305 10080 20014 30084 40136 51019 83201==
33837,2025,04,12,12,00,AAXX 12121 33837 32682 60903 10086 20024 30095 40147 51011 85401 333 85841 555 1/025=
33837,2025,04,12,15,00,AAXX 12151 33837 42684 60000 10076 20029 30104 40156 52009 85401==
33837,2025,04,12,18,00,AAXX 12181 33837 32984 30000 10055 20003 30114 40166 52010 82031 333 10088 555 1/003=
33837,2025,04,12,21,00,AAXX 12211 33837 42975 22801 10055 20001 30121 40173 52007 80001==
33837,2025,04,13,00,00,AAXX 13001 33837 32983 02802 10050 21004 30123 40175 51002 555 1/000=
33837,2025,04,13,03,00,AAXX 13031 33837 42/76 32801 10031 21005 30128 40181 52005 82031 333 55107==
33837,2025,04,13,06,00,AAXX 13061 33837 32972 01001 10066 20017 30149 40201 53021 333 20030 555 10013 30101=
33837,2025,04,13,09,00,AAXX 13091 33837 42976 01402 10092 20040 30163 40215 51014==
33837,2025,04,13,12,00,AAXX 13121 33837 32571 21804 10098 20044 30162 40214 58001 82200 555 1/033=
33837,2025,04,13,15,00,AAXX 13151 33837 42584 21903 10090 20036 30168 40220 53006 82400==
33837,2025,04,13,18,00,AAXX 13181 33837 32981 02201 10077 20018 30178 40230 52010 333 10100 555 1/004=
33837,2025,04,13,21,00,AAXX 13211 33837 42984 02301 10077 20015 30186 40238 52008==
33837,2025,04,14,00,00,AAXX 14001 33837 32969 02201 10061 20043 30191 40243 52005 555 1/001=
33837,2025,04,14,03,00,AAXX 14031 33837 41956 00000 10052 20043 30197 40250 52006 71011 333 55123==
33837,2025,04,14,06,00,AAXX 14061 33837 32180 61602 10083 20061 30214 40266 53017 85601 333 20049 85703 555 10018 30101=
33837,2025,04,14,09,00,AAXX 14091 33837 42670 21603 10095 20055 30228 40280 52014 82100==
33837,2025,04,14,12,00,AAXX 14121 33837 32280 51705 10089 20058 30225 40277 58003 85500 333 85704 555 1/031=
33837,2025,04,14,15,00,AAXX 14151 33837 41175 61803 10075 20063 30221 40273 57004 70242 85601 333 85702==
33837,2025,04,14,18,00,AAXX 14181 33837 31977 52101 10069 20055 30225 40277 53004 70242 82031 333 10098 555 1/005=
33837,2025,04,14,21,00,AAXX 14211 33837 42984 02201 10066 20046 30225 40278 54000==
33837,2025,04,15,00,00,AAXX 15001 33837 32165 80000 10064 20055 30221 40274 58004 886// 333 88702 555 1/002=
33837,2025,04,15,03,00,AAXX 15031 33837 42973 21901 10056 20049 30219 40272 57002 80001 333 55119==
33837,2025,04,15,06,00,AAXX 15061 33837 32163 60901 10082 20065 30225 40277 53006 85601 333 20054 85702 555 10013 30000=
33837,2025,04,15,09,00,AAXX 15091 33837 42970 61603 10097 20062 30228 40280 52003 80004==
33837,2025,04,15,12,00,AAXX 15121 33837 32983 61703 10119 20021 30216 40268 58012 80004 555 1/034=
33837,2025,04,15,15,00,AAXX 15151 33837 42/84 62002 10109 20032 30212 40264 56004 85054==
33837,2025,04,15,18,00,AAXX 15181 33837 32984 62201 10091 20033 30218 40270 53006 82031 333 10126 555 1/007=
33837,2025,04,15,21,00,AAXX 15211 33837 42984 50000 10105 21003 30214 40266 58004 80001==
33837,2025,04,16,00,00,AAXX 16001 33837 32983 51602 10086 20059 30216 40268 53002 82031 555 1/007=
33837,2025,04,16,03,00,AAXX 16031 33837 42566 50301 10085 20056 30221 40273 52005 82501 333 55091==
33837,2025,04,16,06,00,AAXX 16061 33837 32680 81603 10092 20063 30227 40279 52006 82531 333 20080 555 10011=
33837,2025,04,16,09,00,AAXX 16091 33837 41480 81803 10111 20068 30236 40288 52009 72582 83331==
33837,2025,04,16,12,00,AAXX 16121 33837 /1980 81803 10123 20074 30234 40285 58002 70282 86031 555 1/032 69901=
33837,2025,04,16,15,00,AAXX 16151 33837 42/84 81902 10127 20063 30227 40278 58007 86031==
33837,2025,04,16,18,00,AAXX 16181 33837 12981 22001 10109 20059 30223 40275 57004 69902 80001 333 10138 555 1/008=
33837,2025,04,16,21,00,AAXX 16211 33837 42972 22801 10086 20053 30227 40279 53004 80001==
33837,2025,04,17,00,00,AAXX 17001 33837 31950 20000 10078 20063 30224 40276 58003 71000 80001 555 1/003=
33837,2025,04,17,03,00,AAXX 17031 33837 41950 20000 10069 20060 30220 40272 57004 71000 80001 333 55035==
33837,2025,04,17,06,00,AAXX 17061 33837 32964 20501 10114 20079 30228 40280 53008 80001 333 20068 555 10019 30002=
33837,2025,04,17,09,00,AAXX 17091 33837 42980 01502 10122 20081 30228 40279 54000==
33837,2025,04,17,12,00,AAXX 17121 33837 32980 21803 10127 20078 30218 40269 58010 80004 555 1/038=
33837,2025,04,17,15,00,AAXX 17151 33837 42573 61902 10118 20081 30199 40250 58019 82476==
33837,2025,04,17,18,00,AAXX 17181 33837 32981 52401 10110 20071 30197 40249 56002 80005 333 10135 555 1/009=
33837,2025,04,17,21,00,AAXX 17211 33837 42982 20000 10117 20062 30188 40239 58009 80001==
33837,2025,04,18,00,00,AAXX 18001 33837 31959 22801 10081 20064 30181 40233 57007 71011 80001 555 1/005=
33837,2025,04,18,03,00,AAXX 18031 33837 41/44 30000 10078 20066 30173 40225 57008 71000 82031 333 55097==
33837,2025,04,18,06,00,AAXX 18061 33837 31457 50501 10095 20083 30168 40220 57005 72841 82601 333 20075 555 10020 30003=
33837,2025,04,18,09,00,AAXX 18091 33837 41979 01101 10118 20083 30168 40219 54000 70241==
33837,2025,04,18,12,00,AAXX 18121 33837 31977 00501 10140 20086 30149 40200 58019 70241 555 1/042=
33837,2025,04,18,15,00,AAXX 18151 33837 42983 01501 10154 20056 30134 40184 57015==
33837,2025,04,18,18,00,AAXX 18181 33837 32984 01702 10131 20043 30127 40178 56007 333 10156 555 1/010=
33837,2025,04,18,21,00,AAXX 18211 33837 42984 01403 10125 20063 30118 40169 57009==
33837,2025,04,19,00,00,AAXX 19001 33837 32975 00603 10105 20083 30107 40158 57011 555 1/006=
33837,2025,04,19,03,00,AAXX 19031 33837 42979 00102 10086 20052 30101 40153 57006 333 55111==
33837,2025,04,19,06,00,AAXX 19061 33837 32980 00202 10130 20044 30102 40153 53001 333 20081 555 10022 30003=
33837,2025,04,19,09,00,AAXX 19091 33837 42977 01502 10129 20078 30101 40152 58001==
33837,2025,04,19,12,00,AAXX 19121 33837 32981 21803 10143 20083 30096 40146 57005 80001 555 1/042=
33837,2025,04,19,15,00,AAXX 19151 33837 42981 20000 10138 20095 30084 40134 58012 80001==
33837,2025,04,19,18,00,AAXX 19181 33837 32975 30000 10143 20059 30083 40133 56001 80001 333 10191 555 1/011=
33837,2025,04,19,21,00,AAXX 19211 33837 42972 02901 10126 20064 30078 40129 57005==
33837,2025,04,20,00,00,AAXX 20001 33837 32981 03102 10131 20053 30069 40120 57009 555 1/007=
33837,2025,04,20,03,00,AAXX 20031 33837 42983 02801 10100 20044 30066 40117 56003 333 55130==
33837,2025,04,20,06,00,AAXX 20061 33837 32983 00000 10125 20061 30075 40126 53009 333 20095 555 10022 30005=
33837,2025,04,20,09,00,AAXX 20091 33837 42982 01001 10148 20083 30077 40127 51002==
33837,2025,04,20,12,00,AAXX 20121 33837 32575 21201 10166 20081 30072 40122 58005 82100 555 1/043=
33837,2025,04,20,15,00,AAXX 20151 33837 42584 21801 10184 20023 30065 40115 57007 82400==
33837,2025,04,20,18,00,AAXX 20181 33837 32981 02601 10156 20027 30068 40118 53003 333 10192 555 1/012=
33837,2025,04,20,21,00,AAXX 20211 33837 42983 02801 10133 20059 30068 40118 54000==
33837,2025,04,21,00,00,AAXX 21001 33837 32984 02701 10117 20062 30065 40116 58003 555 1/006=
33837,2025,04,21,03,00,AAXX 21031 33837 42980 00201 10102 20069 30071 40122 53006 333 55129==
33837,2025,04,21,06,00,AAXX 21061 33837 32981 01101 10165 20066 30079 40129 52008 333 20099 555 10027 30005=
33837,2025,04,21,09,00,AAXX 21091 33837 42980 01804 10181 20053 30081 40131 51002==
33837,2025,04,21,12,00,AAXX 21121 33837 32581 21804 10166 20100 30083 40133 52002 82100 555 1/043=
33837,2025,04,21,15,00,AAXX 21151 33837 42582 21903 10166 20093 30077 40127 58006 82101==
33837,2025,04,21,18,00,AAXX 21181 33837 32975 02602 10160 20075 30081 40131 53004 333 10191 555 1/013=
33837,2025,04,21,21,00,AAXX 21211 33837 42983 02702 10138 20078 30083 40133 52002==
33837,2025,04,22,00,00,AAXX 22001 33837 31950 00000 10119 20095 30087 40138 52004 71000 555 1/007=
33837,2025,04,22,03,00,AAXX 22031 33837 41/16 30000 10109 20097 30093 40144 52006 71000 83030 333 55128==
33837,2025,04,22,06,00,AAXX 22061 33837 32973 01601 10157 20107 30103 40153 52010 333 20105 555 10026=
33837,2025,04,22,09,00,AAXX 22091 33837 42981 01903 10176 20092 30109 40159 52006==
33837,2025,04,22,12,00,AAXX 22121 33837 32982 01903 10182 20098 30104 40154 58005 555 1/045=
33837,2025,04,22,15,00,AAXX 22151 33837 42/84 22102 10174 20083 30100 40150 57004 82030==
33837,2025,04,22,18,00,AAXX 22181 33837 32983 02702 10155 20065 30105 40155 53005 333 10196 555 1/012=
33837,2025,04,22,21,00,AAXX 22211 33837 42983 02803 10143 20085 30105 40155 54000==
33837,2025,04,23,00,00,AAXX 23001 33837 32984 72802 10144 20079 30100 40150 58005 87030 555 1/011=
33837,2025,04,23,03,00,AAXX 23031 33837 42967 00000 10125 20091 30099 40150 57001 333 55118==
33837,2025,04,23,06,00,AAXX 23061 33837 32980 00201 10173 20084 30103 40153 53004 333 20117 555 10026=
33837,2025,04,23,09,00,AAXX 23091 33837 41/08 91204 10153 20153 30113 40163 53010 74711 89///==
33837,2025,04,23,12,00,AAXX 23121 33837 31/09 91601 10117 20117 30105 40156 58008 74541 555 1/032=
33837,2025,04,23,15,00,AAXX 23151 33837 41483 21901 10168 20092 30087 40137 58018 70241 82600==
33837,2025,04,23,18,00,AAXX 23181 33837 31484 32801 10157 20091 30079 40129 56008 70241 82601 333 10173 555 1/013=
33837,2025,04,23,21,00,AAXX 23211 33837 42982 02802 10147 20093 30072 40122 57007==
33837,2025,04,24,00,00,AAXX 24001 33837 32976 32802 10145 20066 30062 40112 58010 80001 555 1/010=
33837,2025,04,24,03,00,AAXX 24031 33837 42968 03202 10152 20057 30055 40105 57007 333 55097==
33837,2025,04,24,06,00,AAXX 24061 33837 32970 03601 10190 20071 30057 40106 53002 333 20142 555 10025=
33837,2025,04,24,09,00,AAXX 24091 33837 42980 01202 10199 20079 30057 40106 54000==
33837,2025,04,24,12,00,AAXX 24121 33837 32583 21804 10192 20094 30047 40096 58010 81260 555 1/044=
33837,2025,04,24,15,00,AAXX 24151 33837 42584 62001 10206 20076 30037 40086 57010 83466==
33837,2025,04,24,18,00,AAXX 24181 33837 32980 32102 10153 20115 30039 40089 53002 80001 333 10214 555 1/015=
33837,2025,04,24,21,00,AAXX 24211 33837 42981 22801 10157 20067 30027 40077 58012 80001==
33837,2025,04,25,00,00,AAXX 25001 33837 32981 02902 10168 20069 30019 40069 57008 555 1/013=
33837,2025,04,25,03,00,AAXX 25031 33837 42983 03201 10144 20065 30014 40064 57005 333 55111==
33837,2025,04,25,06,00,AAXX 25061 33837 32970 23502 10196 20056 30019 40068 53005 80001 333 20140 555 10028=
33837,2025,04,25,09,00,AAXX 25091 33837 42971 00102 10228 20066 30019 40068 54000==
33837,2025,04,25,12,00,AAXX 25121 33837 32569 31803 10234 20039 30008 40056 58011 82201 555 1/048=
33837,2025,04,25,15,00,AAXX 25151 33837 41682 81702 10218 20069 30012 40061 53004 70281 83531==
33837,2025,04,25,18,00,AAXX 25181 33837 11981 62501 10198 20094 30018 40067 52006 69902 70281 82031 333 10268 555 1/018=
33837,2025,04,25,21,00,AAXX 25211 33837 42/82 32802 10168 20092 30021 40071 52003 82031==
33837,2025,04,26,00,00,AAXX 26001 33837 32983 22803 10180 20068 30011 40060 58010 82031 555 1/015=
33837,2025,04,26,03,00,AAXX 26031 33837 42/83 63401 10151 20064 30015 40065 53004 84031 333 55114==
33837,2025,04,26,06,00,AAXX 26061 33837 32575 63506 10178 20084 30032 40081 53017 82161 333 20146 555 10030=
33837,2025,04,26,09,00,AAXX 26091 33837 42581 70104 10207 20102 30051 40100 52019 82261==
33837,2025,04,26,12,00,AAXX 26121 33837 32681 63603 10220 20099 30060 40109 51009 85201 333 85847 555 1/042=
33837,2025,04,26,15,00,AAXX 26151 33837 42984 23603 10180 20056 30075 40125 53015 80001==
33837,2025,04,26,18,00,AAXX 26181 33837 32984 23502 10147 20050 30101 40151 53026 80001 333 10220 555 1/011=
33837,2025,04,26,21,00,AAXX 26211 33837 42984 00204 10117 20024 30123 40174 52022==
33837,2025,04,27,00,00,AAXX 27001 33837 32984 00205 10090 20002 30143 40195 52020 555 1/006=
33837,2025,04,27,03,00,AAXX 27031 33837 42983 03503 10071 21006 30163 40215 52020 333 55117==
33837,2025,04,27,06,00,AAXX 27061 33837 32978 00102 10115 21016 30186 40237 52023 333 20070 555 10026 30003=
33837,2025,04,27,09,00,AAXX 27091 33837 42979 00204 10149 21044 30201 40252 51015==
33837,2025,04,27,12,00,AAXX 27121 33837 32981 03603 10157 21059 30204 40255 51003 555 1/044=
33837,2025,04,27,15,00,AAXX 27151 33837 42984 03402 10147 21062 30210 40261 52006==
33837,2025,04,27,18,00,AAXX 27181 33837 32984 03302 10122 21062 30229 40281 53019 333 10166 555 1/008=
33837,2025,04,27,21,00,AAXX 27211 33837 42984 03302 10100 21023 30243 40295 52014==
33837,2025,04,28,00,00,AAXX 28001 33837 32984 01004 10103 21002 30253 40305 52010 555 1/006=
33837,2025,04,28,03,00,AAXX 28031 33837 42984 00804 10090 20014 30261 40313 52008 333 55134==
33837,2025,04,28,06,00,AAXX 28061 33837 32980 01303 10104 20007 30278 40330 53017 333 20090 555 10023 30004=
33837,2025,04,28,09,00,AAXX 28091 33837 42584 21404 10112 20009 30281 40333 51003 82100==
33837,2025,04,28,12,00,AAXX 28121 33837 32580 31604 10118 21004 30270 40322 58011 82101 555 1/038=
33837,2025,04,28,15,00,AAXX 28151 33837 42984 01902 10111 21010 30253 40305 58017==
33837,2025,04,28,18,00,AAXX 28181 33837 32984 02602 10099 21021 30247 40299 56006 333 10121 555 1/007=
33837,2025,04,28,21,00,AAXX 28211 33837 42984 02602 10089 21007 30246 40298 56001==
33837,2025,04,29,00,00,AAXX 29001 33837 32984 02702 10071 21001 30238 40291 58008 555 1/004=
33837,2025,04,29,03,00,AAXX 29031 33837 42984 32701 10057 20003 30234 40287 57004 80001 333 55135==
33837,2025,04,29,06,00,AAXX 29061 33837 32982 22501 10125 21033 30237 40289 53003 80001 333 20056 555 10027 30001=
33837,2025,04,29,09,00,AAXX 29091 33837 42977 21704 10125 20040 30229 40280 58008 80001==
33837,2025,04,29,12,00,AAXX 29121 33837 32983 31805 10130 20042 30210 40261 58019 80001 555 1/037=
33837,2025,04,29,15,00,AAXX 29151 33837 42984 22003 10127 21002 30187 40238 57023 80001==
33837,2025,04,29,18,00,AAXX 29181 33837 32984 02502 10109 20003 30179 40231 56008 333 10142 555 1/007=
33837,2025,04,29,21,00,AAXX 29211 33837 42984 02503 10103 20006 30171 40223 57008==
33837,2025,04,30,00,00,AAXX 30001 33837 32984 22703 10091 20018 30164 40216 57007 80001 555 1/007=
33837,2025,04,30,03,00,AAXX 30031 33837 42984 62703 10087 20007 30152 40204 58012 80004 333 55135==
33837,2025,04,30,06,00,AAXX 30061 33837 32977 62702 10147 21027 30154 40205 53002 80004 333 20084 555 10024=
33837,2025,04,30,09,00,AAXX 30091 33837 42980 32602 10209 20027 30148 40198 58006 80001==
33837,2025,04,30,12,00,AAXX 30121 33837 32984 22103 10191 20056 30139 40189 57009 80001 555 1/044=
33837,2025,04,30,15,00,AAXX 30151 33837 42982 22102 10157 20047 30129 40179 57010 80001==
33837,2025,04,30,18,00,AAXX 30181 33837 32981 02505 10146 20046 30128 40179 56001 333 10212 555 1/012=
33837,2025,04,30,21,00,AAXX 30211 33837 42981 02803 10134 20058 30126 40177 57002==
33837,2025,05,01,00,00,AAXX 01001 33837 32984 02803 10122 20051 30118 40169 58008 555 1/009=
33837,2025,05,01,03,00,AAXX 01031 33837 42982 00000 10106 20054 30113 40164 57005 333 55133==
33837,2025,05,01,06,00,AAXX 01061 33837 32981 00201 10166 20064 30119 40169 53006 333 20098 555 10028=
33837,2025,05,01,09,00,AAXX 01091 33837 42568 51101 10194 20055 30114 40164 58005 82101==
33837,2025,05,01,12,00,AAXX 01121 33837 32582 61902 10194 20055 30098 40148 58016 82101 555 1/047=
33837,2025,05,01,15,00,AAXX 01151 33837 42583 62002 10190 20044 30092 40142 56006 82404==
33837,2025,05,01,18,00,AAXX 01181 33837 32583 52802 10169 20052 30093 40143 53001 82401 333 10207 555 1/014=
33837,2025,05,01,21,00,AAXX 01211 33837 42983 33501 10158 20033 30114 40164 53021 80001==
33837,2025,05,02,00,00,AAXX 02001 33837 32982 00102 10124 20008 30131 40182 52017 555 1/008=
33837,2025,05,02,03,00,AAXX 02031 33837 42983 23501 10098 20004 30149 40201 52018 80001 333 55132==
33837,2025,05,02,06,00,AAXX 02061 33837 32984 00303 10137 20026 30162 40213 51013 333 20097 555 10025=
33837,2025,05,02,09,00,AAXX 02091 33837 42981 00702 10138 20038 30161 40212 58001==
33837,2025,05,02,12,00,AAXX 02121 33837 32982 00202 10186 20007 30149 40199 58012 555 1/047=
33837,2025,05,02,15,00,AAXX 02151 33837 42984 00601 10163 20020 30141 40191 57008==
33837,2025,05,02,18,00,AAXX 02181 33837 32984 00000 10128 20009 30141 40192 54000 333 10199 555 1/011=
33837,2025,05,02,21,00,AAXX 02211 33837 42983 02701 10108 20019 30142 40193 53001==
33837,2025,05,03,00,00,AAXX 03001 33837 32983 02702 10103 20031 30136 40187 58006 555 1/007=
33837,2025,05,03,03,00,AAXX 03031 33837 42984 00000 10087 20041 30131 40183 57005 333 55138==
33837,2025,05,03,06,00,AAXX 03061 33837 32984 01602 10135 20090 30136 40187 53005 333 20083 555 10029 30005=
33837,2025,05,03,09,00,AAXX 03091 33837 42981 21804 10158 20076 30130 40180 58006 80001==
33837,2025,05,03,12,00,AAXX 03121 33837 32981 01903 10161 20051 30120 40170 57010 555 1/044=
33837,2025,05,03,15,00,AAXX 03151 33837 42984 02104 10158 20004 30105 40155 58015==
33837,2025,05,03,18,00,AAXX 03181 33837 32984 02302 10132 20041 30098 40149 56007 333 10178 555 1/012=
33837,2025,05,03,21,00,AAXX 03211 33837 42984 02403 10128 20042 30093 40144 57005==
33837,2025,05,04,00,00,AAXX 04001 33837 32983 02203 10121 20068 30083 40134 58010 555 1/010=
33837,2025,05,04,03,00,AAXX 04031 33837 42982 22204 10117 20084 30072 40123 57011 80001 333 55137==
33837,2025,05,04,06,00,AAXX 04061 33837 32983 01904 10142 20094 30074 40124 53002 333 20116 555 10029=
33837,2025,05,04,09,00,AAXX 04091 33837 42983 01904 10154 20091 30075 40125 52001==
33837,2025,05,04,12,00,AAXX 04121 33837 32968 02104 10151 20081 30064 40114 58011 555 1/043=
33837,2025,05,04,15,00,AAXX 04151 33837 42981 02104 10138 20073 30053 40103 57011==
33837,2025,05,04,18,00,AAXX 04181 33837 32981 32202 10124 20075 30049 40100 56004 80001 333 10160 555 1/013=
33837,2025,05,04,21,00,AAXX 04211 33837 42980 22204 10121 20084 30048 40099 57001 80001==
33837,2025,05,05,00,00,AAXX 05001 33837 32982 52203 10124 20075 30038 40088 58010 85030 555 1/011=
33837,2025,05,05,03,00,AAXX 05031 33837 42/83 52102 10119 20082 30034 40085 56004 82031 333 55131==
33837,2025,05,05,06,00,AAXX 05061 33837 32968 61903 10143 20095 30042 40092 53008 83031 333 20118 555 10027=
33837,2025,05,05,09,00,AAXX 05091 33837 42577 61905 10151 20097 30046 40096 52004 83231==
33837,2025,05,05,12,00,AAXX 05121 33837 32373 51904 10146 20098 30048 40098 52002 85600 333 85707 555 1/039=
33837,2025,05,05,15,00,AAXX 05151 33837 42271 52003 10131 20103 30036 40086 58012 85600 333 85705==
33837,2025,05,05,18,00,AAXX 05181 33837 32977 62101 10124 20101 30040 40090 53004 85031 333 10158 555 1/014=
33837,2025,05,05,21,00,AAXX 05211 33837 42/68 72001 10126 20098 30053 40103 53013 86051==
33837,2025,05,06,00,00,AAXX 06001 33837 32563 70000 10122 20101 30050 40101 58003 82551 555 1/013=
33837,2025,05,06,03,00,AAXX 06031 33837 41459 80000 10120 20102 30056 40107 53006 78082 8635/ 333 55119==
33837,2025,05,06,06,00,AAXX 06061 33837 11460 83601 10136 20113 30069 40119 53013 69902 78082 8635/ 333 20114 555 11018=
33837,2025,05,06,09,00,AAXX 06091 33837 41/73 81302 10147 20120 30077 40127 51008 70282 86074==
33837,2025,05,06,12,00,AAXX 06121 33837 /1965 81704 10146 20117 30071 40121 58006 70282 85074 555 1/040 69901=
33837,2025,05,06,15,00,AAXX 06151 33837 42/80 81703 10139 20105 30065 40115 57006 83034==
33837,2025,05,06,18,00,AAXX 06181 33837 12969 81902 10131 20112 30068 40118 53003 69902 86034 333 10159 555 1/015=
33837,2025,05,06,21,00,AAXX 06211 33837 42262 81902 10123 20110 30066 40117 58002 86601 333 86706==
33837,2025,05,07,00,00,AAXX 07001 33837 31225 81801 10122 20113 30052 40103 58014 71022 886// 333 88704 555 1/012=
33837,2025,05,07,03,00,AAXX 07031 33837 41142 80000 10124 20116 30047 40097 56005 71042 886// 333 55034 88702==
33837,2025,05,07,06,00,AAXX 07061 33837 11318 82601 10126 20118 30057 40107 53010 60012 79598 883// 333 20120 96028 555 11014=
33837,2025,05,07,09,00,AAXX 07091 33837 41563 83601 10139 20119 30047 40097 58010 78098 85374==
33837,2025,05,07,12,00,AAXX 07121 33837 /1471 81501 10139 20125 30041 40091 57006 72598 85374 333 85911 555 1/022 60111=
33837,2025,05,07,15,00,AAXX 07151 33837 42571 80000 10146 20123 30035 40085 57006 8247/==
33837,2025,05,07,18,00,AAXX 07181 33837 11/09 90000 10141 20141 30048 40098 53013 60132 74798 333 10149 555 1/016=
33837,2025,05,07,21,00,AAXX 07211 33837 41384 83401 10118 20104 30057 40108 52009 70242 886// 333 88707==
33837,2025,05,08,00,00,AAXX 08001 33837 /1376 83301 10106 20094 30057 40108 54000 72582 8537/ 333 85707 555 1/011 69901=
33837,2025,05,08,03,00,AAXX 08031 33837 42/74 83302 10101 20080 30064 40115 53007 8805/ 333 55010==
33837,2025,05,08,06,00,AAXX 08061 33837 12980 63501 10151 20086 30072 40122 52008 69902 85051 333 20100 555 11023=
33837,2025,05,08,09,00,AAXX 08091 33837 42580 31002 10168 20080 30079 40129 52007 81132==
33837,2025,05,08,12,00,AAXX 08121 33837 32984 81503 10172 20073 30076 40126 58003 82034 555 1/034=
33837,2025,05,08,15,00,AAXX 08151 33837 42/84 81802 10164 20060 30069 40119 57007 80076==
33837,2025,05,08,18,00,AAXX 08181 33837 32582 52701 10150 20060 30066 40116 56003 82431 333 10181 555 1/015=
33837,2025,05,08,21,00,AAXX 08211 33837 42/83 80000 10125 20065 30059 40110 57007 85054==
33837,2025,05,09,00,00,AAXX 09001 33837 32977 60000 10123 20088 30047 40098 58012 80001 555 1/011=
33837,2025,05,09,03,00,AAXX 09031 33837 41458 81902 10120 20106 30033 40083 57014 78182 883// 333 55097==
33837,2025,05,09,06,00,AAXX 09061 33837 11446 81904 10127 20118 30030 40080 56003 60062 78182 883// 333 20118 555 11013=
33837,2025,05,09,09,00,AAXX 09091 33837 41375 83104 10129 20115 30040 40090 53010 72582 86304 333 86907==
33837,2025,05,09,12,00,AAXX 09121 33837 /1481 83203 10115 20078 30073 40124 53033 70282 86501 333 86717 555 1/017 60051=
33837,2025,05,09,15,00,AAXX 09151 33837 42484 83302 10090 20048 30101 40152 51028 87501 333 87717==
33837,2025,05,09,18,00,AAXX 09181 33837 12583 63203 10089 20039 30121 40173 51020 60052 86500 333 10137 86623 555 1/010=
33837,2025,05,09,21,00,AAXX 09211 33837 42984 23101 10077 20032 30137 40189 52016 80001==
33837,2025,05,10,00,00,AAXX 10001 33837 32980 23002 10060 20032 30135 40187 58002 80001 555 1/004=
33837,2025,05,10,03,00,AAXX 10031 33837 42980 32802 10053 20027 30133 40185 57002 80001 333 55011==
33837,2025,05,10,06,00,AAXX 10061 33837 32981 63202 10119 20041 30140 40191 53007 80001 333 20051 555 11018 31004=
33837,2025,05,10,09,00,AAXX 10091 33837 42568 83502 10144 20003 30134 40185 58006 83401==
33837,2025,05,10,12,00,AAXX 10121 33837 32673 82802 10150 21011 30127 40178 57007 83461 555 1/032=
33837,2025,05,10,15,00,AAXX 10151 33837 42684 31804 10131 20062 30113 40164 58014 82461==
33837,2025,05,10,18,00,AAXX 10181 33837 32984 02302 10119 20058 30116 40167 53003 333 10164 555 1/012=
33837,2025,05,10,21,00,AAXX 10211 33837 42984 02403 10110 20057 30116 40167 54000==
33837,2025,05,11,00,00,AAXX 11001 33837 32681 82803 10095 20049 30111 40162 58005 8355/ 555 1/009=
33837,2025,05,11,03,00,AAXX 11031 33837 42/78 82702 10091 20055 30104 40155 57007 85089 333 55130==
33837,2025,05,11,06,00,AAXX 11061 33837 32580 62801 10121 20070 30106 40157 53002 82169 333 20084 555 11017=
33837,2025,05,11,09,00,AAXX 11091 33837 42580 61302 10144 20081 30103 40153 58003 85464==
33837,2025,05,11,12,00,AAXX 11121 33837 32575 81802 10126 20071 30099 40150 57004 8346/ 555 1/025=
33837,2025,05,11,15,00,AAXX 11151 33837 42582 71902 10134 20089 30090 40141 58009 83469==
33837,2025,05,11,18,00,AAXX 11181 33837 32567 80000 10125 20099 30084 40135 57006 83469 333 10150 555 1/013=
33837,2025,05,11,21,00,AAXX 11211 33837 41481 83203 10083 20059 30091 40142 53007 78082 883//==
33837,2025,05,12,00,00,AAXX 12001 33837 /1463 80302 10074 20065 30078 40130 58013 78082 883// 555 1/008 60071=
33837,2025,05,12,03,00,AAXX 12031 33837 41460 83301 10071 20062 30072 40124 56006 70282 8347/ 333 55060==
33837,2025,05,12,06,00,AAXX 12061 33837 11481 83301 10078 20058 30076 40128 53004 60082 70282 8555/ 333 20070 85715 555 11012=
33837,2025,05,12,09,00,AAXX 12091 33837 42583 70102 10126 20062 30075 40126 58001 85861 333 85824==
33837,2025,05,12,12,00,AAXX 12121 33837 /1583 80502 10126 20058 30072 40123 57003 72522 85361 333 85932 555 1/021 69901=
33837,2025,05,12,15,00,AAXX 12151 33837 41584 60302 10137 20048 30070 40120 57002 70282 85401==
33837,2025,05,12,18,00,AAXX 12181 33837 11584 60000 10096 20058 30080 40131 53010 69902 70282 82401 333 10148 555 1/010=
33837,2025,05,12,21,00,AAXX 12211 33837 42/83 52802 10079 20041 30087 40139 52007 83031==
33837,2025,05,13,00,00,AAXX 13001 33837 32984 62901 10081 20038 30082 40134 58005 86030 555 1/006=
33837,2025,05,13,03,00,AAXX 13031 33837 42/83 32902 10073 20034 30088 40140 53006 82031 333 55089==
33837,2025,05,13,06,00,AAXX 13061 33837 32981 03101 10133 20031 30093 40144 52005 333 20072 555 11021 31005=
33837,2025,05,13,09,00,AAXX 13091 33837 42582 63402 10167 21009 30094 40144 52001 86201==
33837,2025,05,13,12,00,AAXX 13121 33837 32583 73003 10176 20012 30090 40140 58004 85261 555 1/031=
33837,2025,05,13,15,00,AAXX 13151 33837 41584 62801 10165 20006 30086 40136 57004 70282 83461==
33837,2025,05,13,18,00,AAXX 13181 33837 11584 23001 10105 20055 30088 40139 53002 69932 70281 82400 333 10179 555 1/011=
33837,2025,05,13,21,00,AAXX 13211 33837 42981 02801 10095 20051 30092 40143 52004==
33837,2025,05,14,00,00,AAXX 14001 33837 32984 02802 10083 20045 30092 40144 54000 555 1/007=
33837,2025,05,14,03,00,AAXX 14031 33837 42984 02802 10076 20040 30094 40146 53002 333 55122==
33837,2025,05,14,06,00,AAXX 14061 33837 32981 00000 10143 20054 30098 40148 52004 333 20072 555 11022=
33837,2025,05,14,09,00,AAXX 14091 33837 42581 61602 10144 20072 30097 40147 58001 83201==
33837,2025,05,14,12,00,AAXX 14121 33837 /1582 71801 10146 20076 30083 40133 58014 72511 85361 555 1/024 69901=
33837,2025,05,14,15,00,AAXX 14151 33837 41570 81901 10151 20064 30085 40135 53002 78082 85364==
33837,2025,05,14,18,00,AAXX 14181 33837 11584 32402 10135 20052 30082 40133 58003 69902 70281 82401 333 10194 555 1/011=
33837,2025,05,14,21,00,AAXX 14211 33837 42/84 62602 10125 20059 30082 40133 54000 86030==
33837,2025,05,15,00,00,AAXX 15001 33837 32984 02602 10117 20064 30071 40122 58011 555 1/009=
33837,2025,05,15,03,00,AAXX 15031 33837 42984 02502 10119 20060 30065 40116 56006 333 55101==
33837,2025,05,15,06,00,AAXX 15061 33837 32983 31803 10144 20092 30063 40113 57002 80001 333 20114 555 11025=
33837,2025,05,15,09,00,AAXX 15091 33837 42968 51804 10160 20097 30065 40115 53002 80004==
33837,2025,05,15,12,00,AAXX 15121 33837 32980 62004 10164 20118 30063 40113 58002 82031 555 1/037=
33837,2025,05,15,15,00,AAXX 15151 33837 42970 62105 10149 20107 30066 40116 53003 80006==
33837,2025,05,15,18,00,AAXX 15181 33837 32577 52104 10134 20095 30073 40123 52007 82401 333 10169 555 1/013=
33837,2025,05,15,21,00,AAXX 15211 33837 42973 22003 10128 20089 30079 40130 52006 80001==
33837,2025,05,16,00,00,AAXX 16001 33837 32965 01905 10125 20088 30077 40128 58002 555 1/010=
33837,2025,05,16,03,00,AAXX 16031 33837 42/69 61904 10123 20086 30076 40127 57001 82036 333 55127==
33837,2025,05,16,06,00,AAXX 16061 33837 32968 81805 10131 20101 30085 40136 53009 83036 333 20118 555 10019=
33837,2025,05,16,09,00,AAXX 16091 33837 42480 81705 10146 20100 30092 40142 52007 82631 333 82717==
33837,2025,05,16,12,00,AAXX 16121 33837 32465 81704 10135 20101 30088 40138 58004 85536 333 85715 555 1/023=
33837,2025,05,16,15,00,AAXX 16151 33837 42462 81605 10129 20104 30074 40125 58014 83536 333 83712==
33837,2025,05,16,18,00,AAXX 16181 33837 11460 81603 10124 20108 30063 40114 57011 69902 78082 8633/ 333 10147 555 1/014=
33837,2025,05,16,21,00,AAXX 16211 33837 41450 81303 10119 20108 30053 40104 57010 78082 883//==
33837,2025,05,17,00,00,AAXX 17001 33837 /1457 81303 10120 20111 30024 40074 58029 78082 883// 555 1/012 69951=
33837,2025,05,17,03,00,AAXX 17031 33837 41458 80000 10124 20111 30019 40069 56005 78082 883// 333 55028==
33837,2025,05,17,06,00,AAXX 17061 33837 11450 81401 10126 20113 30011 40061 57008 60032 78188 883// 333 20116 555 11015=
33837,2025,05,17,09,00,AAXX 17091 33837 41458 80801 10123 20115 30005 40055 57006 78088 883//==
33837,2025,05,17,12,00,AAXX 17121 33837 /1469 81603 10131 20115 30010 40060 53005 72582 8635/ 333 86911 555 1/020 60041=
33837,2025,05,17,15,00,AAXX 17151 33837 41359 82001 10127 20116 30012 40062 52002 72582 8535/ 333 85907==
33837,2025,05,17,18,00,AAXX 17181 33837 11583 83001 10134 20116 30022 40072 53010 60042 70282 8557/ 333 10136 85622 555 1/014=
33837,2025,05,17,21,00,AAXX 17211 33837 41465 82901 10114 20100 30032 40083 52010 72582 8537/ 333 85911==
33837,2025,05,18,00,00,AAXX 18001 33837 /1983 52802 10092 20075 30042 40093 52010 70282 85030 555 1/008 69911=
33837,2025,05,18,03,00,AAXX 18031 33837 42/81 22801 10083 20064 30059 40110 53017 82030 333 55000==
33837,2025,05,18,06,00,AAXX 18061 33837 12977 32701 10145 20058 30068 40118 51009 69912 80001 333 20081 555 11021=
33837,2025,05,18,09,00,AAXX 18091 33837 42580 61902 10150 20104 30071 40121 51003 85401 333 85831==
33837,2025,05,18,12,00,AAXX 18121 33837 32581 62101 10167 20087 30074 40124 52003 85401 555 1/032=
33837,2025,05,18,15,00,AAXX 18151 33837 42584 72202 10156 20084 30074 40124 54000 83461==
33837,2025,05,18,18,00,AAXX 18181 33837 32582 32201 10141 20087 30078 40128 53004 82401 333 10184 555 1/013=
33837,2025,05,18,21,00,AAXX 18211 33837 42984 22701 10136 20076 30083 40133 52005 80001==
33837,2025,05,19,00,00,AAXX 19001 33837 32984 62502 10125 20070 30075 40126 58008 80001 555 1/010=
33837,2025,05,19,03,00,AAXX 19031 33837 42584 72702 10119 20068 30078 40129 53003 83409 333 55129==
33837,2025,05,19,06,00,AAXX 19061 33837 32584 72802 10161 20083 30081 40131 52003 82189 333 20113 555 10027=
33837,2025,05,19,09,00,AAXX 19091 33837 42581 61804 10159 20098 30074 40124 58007 82104==
33837,2025,05,19,12,00,AAXX 19121 33837 32581 61804 10169 20103 30060 40110 58014 82261 555 1/036=
33837,2025,05,19,15,00,AAXX 19151 33837 41481 82905 10159 20098 30050 40100 57010 79598 86961==
33837,2025,05,19,18,00,AAXX 19181 33837 11462 82501 10139 20103 30046 40096 56004 69932 78098 883// 333 10187 555 1/016=
33837,2025,05,19,21,00,AAXX 19211 33837 41/84 82901 10122 20092 30046 40097 54000 70282 8807/==
33837,2025,05,20,00,00,AAXX 20001 33837 /1984 63001 10108 20071 30046 40097 54000 70282 85051 555 1/010 69931=
33837,2025,05,20,03,00,AAXX 20031 33837 42/82 62902 10086 20053 30051 40102 53005 85031 333 55109==
33837,2025,05,20,06,00,AAXX 20061 33837 12481 32802 10124 20067 30052 40103 52001 69932 82101 333 20083 82818 555 11021=
33837,2025,05,20,09,00,AAXX 20091 33837 42582 83102 10132 20070 30059 40109 53007 85431 333 85621==
33837,2025,05,20,12,00,AAXX 20121 33837 32684 83203 10180 20056 30055 40105 58004 86401 333 86849 555 1/026=
33837,2025,05,20,15,00,AAXX 20151 33837 41682 63103 10187 20033 30061 40111 53006 70282 82460==
33837,2025,05,20,18,00,AAXX 20181 33837 11984 63103 10158 20033 30080 40130 53019 69902 70282 86070 333 10206 555 1/015=
33837,2025,05,20,21,00,AAXX 20211 33837 42/84 23001 10131 20067 30090 40141 51010 82030==
33837,2025,05,21,00,00,AAXX 21001 33837 32983 02902 10116 20073 30099 40150 52009 555 1/009=
33837,2025,05,21,03,00,AAXX 21031 33837 42981 02701 10104 20073 30105 40156 52006 333 55114==
33837,2025,05,21,06,00,AAXX 21061 33837 32982 02901 10170 20094 30115 40165 52010 333 20101 555 10029=
33837,2025,05,21,09,00,AAXX 21091 33837 42580 61902 10184 20100 30118 40168 51003 82101==
33837,2025,05,21,12,00,AAXX 21121 33837 32580 61903 10191 20099 30112 40162 58006 83401 555 1/044=
33837,2025,05,21,15,00,AAXX 21151 33837 42583 32103 10179 20095 30107 40157 57005 82401==
33837,2025,05,21,18,00,AAXX 21181 33837 32584 22202 10159 20071 30108 40158 53001 82400 333 10207 555 1/015=
33837,2025,05,21,21,00,AAXX 21211 33837 42984 02502 10142 20106 30109 40159 52001==
33837,2025,05,22,00,00,AAXX 22001 33837 32980 02101 10133 20112 30105 40156 58004 555 1/011=
33837,2025,05,22,03,00,AAXX 22031 33837 41446 61801 10131 20122 30104 40155 57001 71011 83601 333 55143==
33837,2025,05,22,06,00,AAXX 22061 33837 32577 61802 10143 20123 30109 40159 53005 85550 333 20129 555 10019=
33837,2025,05,22,09,00,AAXX 22091 33837 41461 71803 10148 20123 30112 40162 52003 78082 86360==
33837,2025,05,22,12,00,AAXX 22121 33837 /1562 31704 10158 20125 30104 40154 58008 70281 82460 555 1/037 69951=
33837,2025,05,22,15,00,AAXX 22151 33837 42964 21806 10151 20119 30092 40142 57012 80001==
33837,2025,05,22,18,00,AAXX 22181 33837 12569 52103 10143 20113 30093 40143 53001 69952 82401 333 10162 555 1/014=
33837,2025,05,22,21,00,AAXX 22211 33837 42963 21802 10135 20116 30090 40140 58003 80001==
33837,2025,05,23,00,00,AAXX 23001 33837 31156 61301 10134 20125 30086 40136 57004 71011 86600 333 86702 555 1/013=
33837,2025,05,23,03,00,AAXX 23031 33837 42363 61202 10129 20120 30084 40135 57002 85650 333 55078 85707==
33837,2025,05,23,06,00,AAXX 23061 33837 11571 61302 10149 20117 30087 40137 53003 69902 72582 82331 333 20128 555 11021=
33837,2025,05,23,09,00,AAXX 23091 33837 42/83 51002 10172 20106 30085 40135 58002 83031==
33837,2025,05,23,12,00,AAXX 23121 33837 /1683 61702 10170 20108 30079 40129 57006 70282 82531 555 1/038 69941=
33837,2025,05,23,15,00,AAXX 23151 33837 42/84 81802 10197 20021 30070 40119 57009 82031==
33837,2025,05,23,18,00,AAXX 23181 33837 12980 32101 10173 20017 30067 40117 56003 69942 82031 333 10203 555 1/016=
33837,2025,05,23,21,00,AAXX 23211 33837 42973 21101 10161 20091 30073 40123 53006 80001==
33837,2025,05,24,00,00,AAXX 24001 33837 32984 30901 10159 20063 30068 40118 58005 82031 555 1/013=
33837,2025,05,24,03,00,AAXX 24031 33837 42/84 60201 10138 20104 30066 40116 57002 84031 333 55082==
33837,2025,05,24,06,00,AAXX 24061 33837 32582 81303 10158 20097 30068 40118 53002 84559 333 20137 555 10020=
33837,2025,05,24,09,00,AAXX 24091 33837 42584 61803 10181 20092 30074 40124 52006 82551==
33837,2025,05,24,12,00,AAXX 24121 33837 32576 61503 10180 20127 30073 40123 58001 81162 555 1/043=
33837,2025,05,24,15,00,AAXX 24151 33837 42584 81902 10176 20107 30068 40118 57005 82461==
33837,2025,05,24,18,00,AAXX 24181 33837 32584 60000 10170 21002 30071 40121 53003 83450 333 10193 555 1/017=
33837,2025,05,24,21,00,AAXX 24211 33837 41484 81701 10156 20127 30073 40123 52002 78082 883//==
33837,2025,05,25,00,00,AAXX 25001 33837 /1584 60502 10152 20132 30051 40101 58022 70282 82551 555 1/015 69961=
33837,2025,05,25,03,00,AAXX 25031 33837 42/84 80401 10146 20114 30049 40099 56002 85079 333 55064==
33837,2025,05,25,06,00,AAXX 25061 33837 12582 80601 10169 20132 30046 40096 57003 69962 83479 333 20138 555 11020=
33837,2025,05,25,09,00,AAXX 25091 33837 41582 81601 10165 20140 30057 40107 53011 78082 8636/==
33837,2025,05,25,12,00,AAXX 25121 33837 /1982 51602 10187 20133 30048 40097 58009 70282 82032 555 1/037 69901=
33837,2025,05,25,15,00,AAXX 25151 33837 42583 81802 10181 20134 30047 40096 56001 83464==
33837,2025,05,25,18,00,AAXX 25181 33837 12580 81201 10172 20135 30046 40096 57001 69902 83464 333 10194 555 1/017=
33837,2025,05,25,21,00,AAXX 25211 33837 41467 81703 10171 20134 30052 40102 53006 78082 883//==
33837,2025,05,26,00,00,AAXX 26001 33837 /1566 82401 10163 20140 30042 40092 58010 72582 8337/ 555 1/015 69931=
33837,2025,05,26,03,00,AAXX 26031 33837 41349 81102 10159 20148 30043 40093 53001 78182 883// 333 55057==
33837,2025,05,26,06,00,AAXX 26061 33837 11558 81106 10159 20148 30046 40096 52003 60022 72582 8635/ 333 20156 555 11018=
33837,2025,05,26,09,00,AAXX 26091 33837 41671 82301 10168 20137 30054 40104 53008 70282 8557/ 333 85636==
33837,2025,05,26,12,00,AAXX 26121 33837 /1574 82301 10199 20147 30050 40099 58004 72582 8535/ 333 85931 555 1/023 69911=
33837,2025,05,26,15,00,AAXX 26151 33837 41561 83201 10179 20162 30028 40077 58022 70282 8335/==
33837,2025,05,26,18,00,AAXX 26181 33837 11459 80502 10167 20156 30033 40083 53005 60052 78082 883// 333 10204 555 1/017=
33837,2025,05,26,21,00,AAXX 26211 33837 41/68 61802 10161 20145 30032 40082 58001 70282 85031==
33837,2025,05,27,00,00,AAXX 27001 33837 /1462 82501 10156 20141 30026 40076 58006 78082 8533/ 555 1/015 69931=
33837,2025,05,27,03,00,AAXX 27031 33837 41157 81001 10156 20146 30021 40071 57005 72582 883// 333 55000 88903==
33837,2025,05,27,06,00,AAXX 27061 33837 11456 82102 10143 20133 30029 40079 53008 60112 78082 883// 333 20141 555 11016=
33837,2025,05,27,09,00,AAXX 27091 33837 41578 61704 10165 20127 30032 40082 51003 70282 83460==
33837,2025,05,27,12,00,AAXX 27121 33837 /1483 61704 10170 20119 30036 40086 52004 70282 83461 333 83817 555 1/029 69911=
33837,2025,05,27,15,00,AAXX 27151 33837 42482 61703 10158 20122 30034 40084 58002 83430 333 83711==
33837,2025,05,27,18,00,AAXX 27181 33837 12484 81903 10151 20119 30037 40087 53003 69912 8646/ 333 10174 86714 555 1/015=
33837,2025,05,27,21,00,AAXX 27211 33837 42484 31802 10150 20121 30033 40083 58004 83600 333 83715==
33837,2025,05,28,00,00,AAXX 28001 33837 32484 21802 10147 20126 30028 40078 57005 82600 555 1/013=
33837,2025,05,28,03,00,AAXX 28031 33837 42479 61503 10146 20125 30022 40072 57006 86400 333 55057 86710==
33837,2025,05,28,06,00,AAXX 28061 33837 32570 61503 10157 20130 30029 40079 53007 83462 333 20143 555 11021=
33837,2025,05,28,09,00,AAXX 28091 33837 42581 61504 10164 20131 30036 40086 52007 85401==
33837,2025,05,28,12,00,AAXX 28121 33837 32578 61703 10170 20129 30036 40086 54000 83401 555 1/038=
33837,2025,05,28,15,00,AAXX 28151 33837 41483 81703 10157 20130 30033 40083 58003 72582 83361==
33837,2025,05,28,18,00,AAXX 28181 33837 11484 61802 10150 20127 30028 40078 57005 69902 70282 83401 333 10177 83710 555 1/016=
33837,2025,05,28,21,00,AAXX 28211 33837 42281 71702 10152 20134 30024 40074 57004 87400 333 87705==
33837,2025,05,29,00,00,AAXX 29001 33837 32281 81801 10149 20136 30017 40067 57007 884// 333 88705 555 1/015=
33837,2025,05,29,03,00,AAXX 29031 33837 41257 60000 10140 20129 30016 40066 57001 71022 85401 333 55089 85706==
33837,2025,05,29,06,00,AAXX 29061 33837 32381 82501 10155 20126 30024 40074 53008 8646/ 333 20135 86809 555 10020=
33837,2025,05,29,09,00,AAXX 29091 33837 42480 72402 10168 20115 30033 40083 52009 86460 333 86816==
33837,2025,05,29,12,00,AAXX 29121 33837 32584 61704 10169 20122 30038 40088 52005 85460 333 85829 555 1/032=
33837,2025,05,29,15,00,AAXX 29151 33837 42584 31803 10178 20129 30036 40085 58002 82401==
33837,2025,05,29,18,00,AAXX 29181 33837 32983 52302 10157 20117 30043 40093 53007 80001 333 10180 555 1/015=
33837,2025,05,29,21,00,AAXX 29211 33837 42681 62801 10140 20124 30049 40099 52006 86400 333 86647==
33837,2025,05,30,00,00,AAXX 30001 33837 32683 62801 10152 20127 30047 40097 58002 85501 333 85634 555 1/014=
33837,2025,05,30,03,00,AAXX 30031 33837 42684 63102 10152 20120 30051 40101 53004 84401 333 55049==
33837,2025,05,30,06,00,AAXX 30061 33837 32984 23202 10196 20138 30063 40112 53012 80001 333 20138 555 10031=
33837,2025,05,30,09,00,AAXX 30091 33837 42584 63203 10234 20139 30065 40114 51002 83401==
33837,2025,05,30,12,00,AAXX 30121 33837 32583 53204 10254 20108 30063 40111 58002 83401 555 1/047=
33837,2025,05,30,15,00,AAXX 30151 33837 42584 53203 10228 20112 30068 40117 53005 83401==
33837,2025,05,30,18,00,AAXX 30181 33837 32983 33202 10185 20113 30087 40137 53019 83060 333 10254 555 1/019=
33837,2025,05,30,21,00,AAXX 30211 33837 42981 23203 10160 20107 30094 40144 51007 80001==
33837,2025,05,31,00,00,AAXX 31001 33837 32982 33202 10146 20108 30095 40145 51001 82031 555 1/013=
33837,2025,05,31,03,00,AAXX 31031 33837 42981 23103 10143 20109 30095 40145 54000 80001 333 55143==
33837,2025,05,31,06,00,AAXX 31061 33837 32580 63302 10182 20122 30101 40151 53006 86401 333 20136 86823 555 10028=
33837,2025,05,31,09,00,AAXX 31091 33837 42583 73501 10214 20128 30105 40154 52004 86401 333 86828==
33837,2025,05,31,12,00,AAXX 31121 33837 32583 53402 10249 20128 30096 40145 58009 83201 555 1/048=
33837,2025,05,31,15,00,AAXX 31151 33837 42583 53402 10239 20109 30096 40145 54000 83401==
33837,2025,05,31,18,00,AAXX 31181 33837 32584 53101 10214 20096 30104 40153 53008 82430 333 10261 555 1/020=
33837,2025,05,31,21,00,AAXX 31211 33837 42960 33101 10188 20096 30115 40165 52011 80001==
33837,2025,06,01,00,00,AAXX 01001 33837 32997 03001 10178 20081 30112 40162 58003 555 1/015=
33837,2025,06,01,03,00,AAXX 01031 33837 42/60 33202 10167 20096 30118 40168 53006 82031 333 55142==
33837,2025,06,01,06,00,AAXX 01061 33837 32997 53401 10225 20122 30125 40174 52007 80001 333 20162 555 10036=
33837,2025,06,01,09,00,AAXX 01091 33837 42560 61102 10226 20150 30126 40175 51001 82101==
33837,2025,06,01,12,00,AAXX 01121 33837 32597 61802 10232 20089 30118 40167 58008 85201 555 1/046=
33837,2025,06,01,15,00,AAXX 01151 33837 42560 62301 10232 20116 30110 40159 57008 85461==
33837,2025,06,01,18,00,AAXX 01181 33837 32597 52801 10208 20109 30111 40160 53001 82401 333 10249 555 1/019=
33837,2025,06,01,21,00,AAXX 01211 33837 42960 32901 10192 20118 30119 40169 53008 80001==
33837,2025,06,02,00,00,AAXX 02001 33837 32997 03001 10178 20118 30120 40170 51001 555 1/015=
33837,2025,06,02,03,00,AAXX 02031 33837 42/60 62901 10170 20123 30123 40173 52003 86030 333 55113==
33837,2025,06,02,06,00,AAXX 02061 33837 32997 80301 10235 20119 30132 40181 53009 83034 333 20166 555 10034=
33837,2025,06,02,09,00,AAXX 02091 33837 42560 61502 10231 20112 30137 40186 52005 82104==
33837,2025,06,02,12,00,AAXX 02121 33837 32697 21803 10239 20116 30129 40178 58008 82100 555 1/050=
33837,2025,06,02,15,00,AAXX 02151 33837 42660 32001 10246 20086 30122 40171 57007 82130==
33837,2025,06,02,18,00,AAXX 02181 33837 32997 52502 10228 20089 30124 40173 53002 82031 333 10252 555 1/021=
33837,2025,06,02,21,00,AAXX 02211 33837 42960 22602 10213 20119 30129 40178 52005 80001==
33837,2025,06,03,00,00,AAXX 03001 33837 32997 22802 10201 20126 30122 40171 58007 80001 555 1/017=
33837,2025,06,03,03,00,AAXX 03031 33837 42960 20000 10178 20143 30122 40172 54000 80001 333 55136==
33837,2025,06,03,06,00,AAXX 03061 33837 32997 01702 10225 20144 30123 40172 53001 333 20174 555 10037=
33837,2025,06,03,09,00,AAXX 03091 33837 42960 01705 10247 20136 30122 40171 58001==
33837,2025,06,03,12,00,AAXX 03121 33837 32997 01803 10239 20172 30113 40162 58009 555 1/050=
33837,2025,06,03,15,00,AAXX 03151 33837 42960 02102 10250 20153 30103 40152 57010==
33837,2025,06,03,18,00,AAXX 03181 33837 32997 62302 10227 20143 30097 40146 57006 80001 333 10262 555 1/022=
33837,2025,06,03,21,00,AAXX 03211 33837 42960 22404 10222 20130 30097 40146 54000 80001==
33837,2025,06,04,00,00,AAXX 04001 33837 32997 02504 10214 20143 30088 40137 58009 555 1/019=
33837,2025,06,04,03,00,AAXX 04031 33837 42/60 62802 10198 20155 30096 40145 53008 82031 333 55144==
33837,2025,06,04,06,00,AAXX 04061 33837 32997 03202 10242 20157 30113 40162 53017 333 20198 555 10037=
33837,2025,06,04,09,00,AAXX 04091 33837 42560 53602 10282 20148 30121 40169 51008 85200==
33837,2025,06,04,12,00,AAXX 04121 33837 32597 33501 10299 20123 30118 40166 58003 82201 555 1/055=
33837,2025,06,04,15,00,AAXX 04151 33837 42560 63401 10280 20111 30122 40170 53004 82104==
33837,2025,06,04,18,00,AAXX 04181 33837 32997 53402 10233 20110 30131 40180 52009 80004 333 10305 555 1/022=
33837,2025,06,04,21,00,AAXX 04211 33837 42960 03401 10209 20104 30140 40189 52009==
33837,2025,06,05,00,00,AAXX 05001 33837 32997 00000 10186 20109 30144 40194 52004 555 1/015=
33837,2025,06,05,03,00,AAXX 05031 33837 42960 00602 10187 20136 30152 40202 52008 333 55142==
33837,2025,06,05,06,00,AAXX 05061 33837 32997 20602 10206 20158 30164 40214 52012 80001 333 20172 555 10036=
33837,2025,06,05,09,00,AAXX 05091 33837 42960 61302 10228 20154 30161 40210 58003 80001==
33837,2025,06,05,12,00,AAXX 05121 33837 32997 21704 10224 20157 30156 40205 57005 80004 555 1/049=
33837,2025,06,05,15,00,AAXX 05151 33837 42960 21902 10231 20141 30143 40192 58013 80004==
33837,2025,06,05,18,00,AAXX 05181 33837 32997 22401 10211 20140 30145 40194 53002 80001 333 10235 555 1/021=
33837,2025,06,05,21,00,AAXX 05211 33837 42960 02503 10214 20125 30141 40190 58004==
33837,2025,06,06,00,00,AAXX 06001 33837 32597 61902 10194 20177 30143 40193 53002 83550 555 1/018=
33837,2025,06,06,03,00,AAXX 06031 33837 42560 62101 10200 20162 30142 40192 58001 85401 333 55145==
33837,2025,06,06,06,00,AAXX 06061 33837 32997 21502 10214 20176 30150 40199 53008 80001 333 20192 555 10037=
33837,2025,06,06,09,00,AAXX 06091 33837 42960 61703 10234 20152 30154 40203 52004 80001==
33837,2025,06,06,12,00,AAXX 06121 33837 32997 21704 10231 20171 30149 40198 58005 80001 555 1/053=
33837,2025,06,06,15,00,AAXX 06151 33837 42960 21804 10222 20171 30142 40191 57007 80001==
33837,2025,06,06,18,00,AAXX 06181 33837 32997 32502 10205 20163 30138 40187 57004 80001 333 10239 555 1/021=
33837,2025,06,06,21,00,AAXX 06211 33837 42960 22502 10196 20161 30145 40195 53007 80001==
33837,2025,06,07,00,00,AAXX 07001 33837 32997 22301 10189 20161 30142 40192 58003 80001 555 1/016=
33837,2025,06,07,03,00,AAXX 07031 33837 42960 02704 10186 20164 30139 40189 57003 333 55138==
33837,2025,06,07,06,00,AAXX 07061 33837 32997 21802 10210 20166 30150 40199 53011 80001 333 20184 555 10036=
33837,2025,06,07,09,00,AAXX 07091 33837 42960 01705 10226 20171 30155 40204 51005==
33837,2025,06,07,12,00,AAXX 07121 33837 32997 01805 10227 20155 30149 40198 58006 555 1/049=
33837,2025,06,07,15,00,AAXX 07151 33837 42960 01902 10236 20154 30133 40182 58016==
33837,2025,06,07,18,00,AAXX 07181 33837 32997 22401 10213 20122 30130 40179 56003 80001 333 10239 555 1/019=
33837,2025,06,07,21,00,AAXX 07211 33837 42960 02402 10191 20144 30129 40179 57001==
33837,2025,06,08,00,00,AAXX 08001 33837 32997 02201 10187 20113 30124 40174 57005 555 1/014=
33837,2025,06,08,03,00,AAXX 08031 33837 42960 32501 10170 20117 30124 40174 54000 80001 333 55145==
33837,2025,06,08,06,00,AAXX 08061 33837 32997 22101 10223 20131 30128 40177 53004 80001 333 20163 555 10037=
33837,2025,06,08,09,00,AAXX 08091 33837 42960 01705 10225 20163 30126 40175 58002==
33837,2025,06,08,12,00,AAXX 08121 33837 32997 01804 10240 20158 30114 40163 58012 555 1/051=
33837,2025,06,08,15,00,AAXX 08151 33837 42960 01902 10234 20152 30100 40149 57014==
33837,2025,06,08,18,00,AAXX 08181 33837 32997 02301 10221 20135 30095 40144 56005 333 10246 555 1/020=
33837,2025,06,08,21,00,AAXX 08211 33837 42960 02703 10210 20132 30090 40139 57005==
33837,2025,06,09,00,00,AAXX 09001 33837 32997 02302 10205 20112 30086 40135 57004 555 1/016=
33837,2025,06,09,03,00,AAXX 09031 33837 42960 03101 10182 20120 30093 40143 53007 333 55147==
33837,2025,06,09,06,00,AAXX 09061 33837 32997 01802 10231 20149 30100 40149 52007 333 20174 555 10041=
33837,2025,06,09,09,00,AAXX 09091 33837 42960 01704 10243 20160 30106 40155 52006==
33837,2025,06,09,12,00,AAXX 09121 33837 32697 21804 10264 20161 30101 40149 58005 82100 555 1/052=
33837,2025,06,09,15,00,AAXX 09151 33837 41560 73003 10303 20160 30097 40145 57004 71791 85961==
33837,2025,06,09,18,00,AAXX 09181 33837 31597 63305 10255 20120 30120 40169 53023 70292 82464 333 10309 555 1/024=
33837,2025,06,09,21,00,AAXX 09211 33837 42/60 83303 10214 20125 30135 40184 51015 86051==
33837,2025,06,10,00,00,AAXX 10001 33837 /1997 83602 10185 20129 30147 40197 52012 70282 8805/ 555 1/020 69901=
33837,2025,06,10,03,00,AAXX 10031 33837 42/60 53302 10173 20082 30161 40211 52014 82031 333 55132==
33837,2025,06,10,06,00,AAXX 10061 33837 12997 63301 10210 20093 30171 40221 52010 69902 86030 333 20172 555 10036=
33837,2025,06,10,09,00,AAXX 10091 33837 42960 03402 10258 20054 30170 40219 58001==
33837,2025,06,10,12,00,AAXX 10121 33837 32997 03502 10278 20054 30157 40205 58013 555 1/054=
33837,2025,06,10,15,00,AAXX 10151 33837 42960 03301 10260 20027 30142 40191 57015==
33837,2025,06,10,18,00,AAXX 10181 33837 32997 03301 10218 20025 30140 40189 56002 333 10281 555 1/019=
33837,2025,06,10,21,00,AAXX 10211 33837 42960 00000 10192 20046 30141 40191 53001==
33837,2025,06,11,00,00,AAXX 11001 33837 32997 03501 10167 20074 30137 40187 58004 555 1/013=
33837,2025,06,11,03,00,AAXX 11031 33837 42960 00000 10160 20120 30131 40181 57006 333 55139==
33837,2025,06,11,06,00,AAXX 11061 33837 32997 01002 10205 20132 30126 40175 57005 333 20148 555 10037=
33837,2025,06,11,09,00,AAXX 11091 33837 42960 51503 10219 20110 30120 40169 57006 80004==
33837,2025,06,11,12,00,AAXX 11121 33837 32997 61704 10226 20139 30105 40154 58015 83039 555 1/052=
33837,2025,06,11,15,00,AAXX 11151 33837 42560 31903 10221 20124 30087 40136 57018 81160==
33837,2025,06,11,18,00,AAXX 11181 33837 32997 52201 10211 20062 30083 40132 56004 82034 333 10233 555 1/020=
33837,2025,06,11,21,00,AAXX 11211 33837 41360 82402 10165 20132 30087 40137 53004 78082 883//==
33837,2025,06,12,00,00,AAXX 12001 33837 /1997 83001 10163 20140 30086 40136 58001 70282 8805/ 555 1/016 60011=
33837,2025,06,12,03,00,AAXX 12031 33837 42/60 63104 10164 20128 30097 40147 53011 86030 333 55136==
33837,2025,06,12,06,00,AAXX 12061 33837 12997 33302 10200 20127 30106 40155 52009 60012 80001 333 20159 555 11031=
33837,2025,06,12,09,00,AAXX 12091 33837 42560 33204 10240 20103 30107 40156 51001 82101==
33837,2025,06,12,12,00,AAXX 12121 33837 32597 63304 10235 20102 30107 40156 54000 85260 555 1/042=
33837,2025,06,12,15,00,AAXX 12151 33837 42560 83204 10238 20074 30102 40151 58005 83461==
33837,2025,06,12,18,00,AAXX 12181 33837 32997 33101 10205 20068 30119 40168 53017 81031 333 10259 555 1/019=
33837,2025,06,12,21,00,AAXX 12211 33837 42960 33002 10170 20062 30130 40180 51011 80001==
33837,2025,06,13,00,00,AAXX 13001 33837 32997 52901 10146 20051 30128 40179 58002 85050 555 1/012=
33837,2025,06,13,03,00,AAXX 13031 33837 42/60 72802 10155 20051 30125 40175 57003 87050 333 55131==
33837,2025,06,13,06,00,AAXX 13061 33837 32997 33102 10203 20066 30131 40181 53006 82031 333 20143 555 10035=
33837,2025,06,13,09,00,AAXX 13091 33837 42560 63103 10232 20027 30126 40175 58005 85401==
33837,2025,06,13,12,00,AAXX 13121 33837 32597 63202 10231 20020 30121 40170 57005 82001 555 1/052=
33837,2025,06,13,15,00,AAXX 13151 33837 42660 53303 10227 20060 30123 40172 53002 85400==
33837,2025,06,13,18,00,AAXX 13181 33837 32997 33303 10192 20085 30137 40187 53014 80001 333 10250 555 1/019=
33837,2025,06,13,21,00,AAXX 13211 33837 42960 23202 10172 20101 30141 40191 51004 80001==
33837,2025,06,14,00,00,AAXX 14001 33837 32997 23003 10147 20093 30131 40182 58010 80001 555 1/014=
33837,2025,06,14,03,00,AAXX 14031 33837 42960 22903 10133 20094 30126 40177 56005 80001 333 55122==
33837,2025,06,14,06,00,AAXX 14061 33837 32997 73202 10183 20109 30124 40174 57002 85051 333 20130 555 10031=
33837,2025,06,14,09,00,AAXX 14091 33837 42560 73302 10219 20101 30114 40163 58010 85861 333 85833==
33837,2025,06,14,12,00,AAXX 14121 33837 31597 73103 10240 20084 30100 40149 57014 71722 85961 333 85929 555 1/051=
33837,2025,06,14,15,00,AAXX 14151 33837 41440 83103 10155 20139 30108 40158 53008 79698 8696/==
33837,2025,06,14,18,00,AAXX 14181 33837 11597 60000 10147 20134 30112 40162 52004 60152 70298 85461 333 10257 555 1/017=
33837,2025,06,14,21,00,AAXX 14211 33837 42/60 83002 10149 20120 30109 40159 58003 85051==
33837,2025,06,15,00,00,AAXX 15001 33837 32997 32801 10145 20115 30102 40152 57007 80001 555 1/013=
33837,2025,06,15,03,00,AAXX 15031 33837 42/60 73003 10152 20098 30101 40151 56001 83034 333 55097==
33837,2025,06,15,06,00,AAXX 15061 33837 32997 53202 10189 20107 30100 40150 57001 81031 333 20139 555 11024=
33837,2025,06,15,09,00,AAXX 15091 33837 42560 63402 10243 20106 30093 40142 58007 85201==
33837,2025,06,15,12,00,AAXX 15121 33837 /1597 73202 10209 20123 30084 40133 57009 72582 85360 555 1/028 60011=
33837,2025,06,15,15,00,AAXX 15151 33837 41460 80000 10170 20148 30079 40129 57005 78082 8636/==
33837,2025,06,15,18,00,AAXX 15181 33837 11597 72801 10166 20150 30088 40138 53009 60032 70282 83460 333 10254 555 1/018=
33837,2025,06,15,21,00,AAXX 15211 33837 42/60 52801 10160 20133 30089 40139 51001 85030==
33837,2025,06,16,00,00,AAXX 16001 33837 /1597 72801 10164 20139 30082 40132 58007 72582 83360 555 1/016 69901=
33837,2025,06,16,03,00,AAXX 16031 33837 42960 03002 10162 20112 30080 40130 57002 333 55091==
33837,2025,06,16,06,00,AAXX 16061 33837 12997 03201 10217 20123 30085 40134 53005 69902 333 20155 555 11028=
33837,2025,06,16,09,00,AAXX 16091 33837 42660 23501 10264 20093 30081 40129 58004 82100==
33837,2025,06,16,12,00,AAXX 16121 33837 32697 13501 10288 20080 30071 40119 58010 81100 555 1/043=
33837,2025,06,16,15,00,AAXX 16151 33837 42560 53303 10287 20067 30067 40115 56004 85400==
33837,2025,06,16,18,00,AAXX 16181 33837 32597 23202 10247 20069 30076 40125 53009 82400 333 10297 555 1/020=
33837,2025,06,16,21,00,AAXX 16211 33837 42/60 53202 10216 20092 30087 40136 52011 82031==
33837,2025,06,17,00,00,AAXX 17001 33837 32997 22902 10199 20098 30088 40137 51001 80001 555 1/016=
33837,2025,06,17,03,00,AAXX 17031 33837 42997 22901 10187 20115 30094 40144 53006 80001 333 55149 555 1/017=
33837,2025,06,17,06,00,AAXX 17061 33837 32997 03301 10261 20103 30099 40147 52005 333 20184 555 10038=
33837,2025,06,17,09,00,AAXX 17091 33837 42560 60702 10276 20103 30097 40145 58002 86400==
33837,2025,06,17,12,00,AAXX 17121 33837 32597 51903 10280 20102 30089 40137 58008 85400 555 1/049=
33837,2025,06,17,15,00,AAXX 17151 33837 42560 61901 10271 20120 30083 40131 57006 85401==
33837,2025,06,17,18,00,AAXX 17181 33837 32997 33202 10248 20143 30101 40150 53018 82031 333 10303 555 1/023=
33837,2025,06,17,21,00,AAXX 17211 33837 42960 23203 10217 20136 30118 40167 52017 80001==
33837,2025,06,18,00,00,AAXX 18001 33837 32997 03001 10187 20122 30123 40173 51005 555 1/016=
33837,2025,06,18,03,00,AAXX 18031 33837 42960 53002 10173 20111 30125 40175 52002 80001 333 55140==
33837,2025,06,18,06,00,AAXX 18061 33837 32997 00000 10230 20111 30135 40184 53010 333 20173 555 10036=
33837,2025,06,18,09,00,AAXX 18091 33837 42560 33302 10262 20082 30131 40180 58004 83100==
33837,2025,06,18,12,00,AAXX 18121 33837 32597 31202 10261 20099 30123 40172 57008 82101 555 1/049=
33837,2025,06,18,15,00,AAXX 18151 33837 42560 21802 10258 20100 30113 40162 57010 82100==
33837,2025,06,18,18,00,AAXX 18181 33837 32997 03101 10248 20087 30113 40162 54000 333 10299 555 1/022=
33837,2025,06,18,21,00,AAXX 18211 33837 42960 02901 10214 20106 30119 40168 53006==
33837,2025,06,19,00,00,AAXX 19001 33837 32997 02901 10198 20110 30112 40162 58007 555 1/017=
33837,2025,06,19,03,00,AAXX 19031 33837 42/60 62901 10200 20115 30110 40159 57002 86030 333 55148==
33837,2025,06,19,06,00,AAXX 19061 33837 32997 22802 10261 20118 30105 40153 57005 80001 333 20194 555 10036=
33837,2025,06,19,09,00,AAXX 19091 33837 42560 50901 10274 20126 30093 40141 58012 82161==
33837,2025,06,19,12,00,AAXX 19121 33837 32597 82004 10285 20116 30075 40123 58018 84261 555 1/043=
33837,2025,06,19,15,00,AAXX 19151 33837 42560 72303 10264 20161 30063 40111 56012 86261==
33837,2025,06,19,18,00,AAXX 19181 33837 32597 83301 10255 20137 30068 40116 53005 84401 333 10324 555 1/025=
33837,2025,06,19,21,00,AAXX 19211 33837 41460 83302 10218 20142 30068 40117 54000 72522 8636/==
33837,2025,06,20,00,00,AAXX 20001 33837 /1997 53202 10208 20114 30075 40124 53007 70282 83031 555 1/017 69951=
33837,2025,06,20,03,00,AAXX 20031 33837 42560 83204 10180 20122 30079 40129 52004 83454 333 55118==
33837,2025,06,20,06,00,AAXX 20061 33837 12597 83203 10187 20113 30087 40137 52008 69952 82434 333 20173 555 11023=
33837,2025,06,20,09,00,AAXX 20091 33837 42960 23304 10231 20031 30091 40140 52004 80001==
33837,2025,06,20,12,00,AAXX 20121 33837 32997 23303 10244 20019 30085 40134 58006 80001 555 1/049=
33837,2025,06,20,15,00,AAXX 20151 33837 42560 33302 10234 20023 30089 40138 53004 82101==
33837,2025,06,20,18,00,AAXX 20181 33837 32997 23202 10207 20025 30101 40150 53012 80001 333 10254 555 1/019=
33837,2025,06,20,21,00,AAXX 20211 33837 42960 23103 10178 20033 30115 40165 52014 80001==
33837,2025,06,21,00,00,AAXX 21001 33837 32997 22901 10153 20047 30112 40162 58003 80001 555 1/013=
33837,2025,06,21,03,00,AAXX 21031 33837 42960 32901 10145 20053 30113 40164 53001 80001 333 55111==
33837,2025,06,21,06,00,AAXX 21061 33837 32597 33202 10184 20075 30121 40171 53008 81101 333 20144 555 10033=
33837,2025,06,21,09,00,AAXX 21091 33837 42560 73203 10209 20079 30127 40176 52006 86461==
33837,2025,06,21,12,00,AAXX 21121 33837 32597 63302 10215 20073 30127 40176 54000 84460 555 1/034=
33837,2025,06,21,15,00,AAXX 21151 33837 42560 53203 10221 20086 30127 40176 54000 82461==
33837,2025,06,21,18,00,AAXX 21181 33837 32597 63202 10205 20078 30134 40184 53007 82461 333 10238 555 1/021=
33837,2025,06,21,21,00,AAXX 21211 33837 42960 33101 10179 20082 30146 40196 53012 80001==
33837,2025,06,22,00,00,AAXX 22001 33837 32997 02801 10155 20090 30147 40197 51001 555 1/014=
33837,2025,06,22,03,00,AAXX 22031 33837 42960 22801 10141 20076 30147 40198 54000 80001 333 55098==
33837,2025,06,22,06,00,AAXX 22061 33837 32997 03201 10211 20073 30146 40196 58001 333 20141 555 10036=
33837,2025,06,22,09,00,AAXX 22091 33837 42597 33502 10254 20056 30133 40182 58013 83100 555 1/048=
33837,2025,06,22,12,00,AAXX 22121 33837 32597 21605 10219 20122 30115 40164 57018 82100 555 1/047=
33837,2025,06,22,15,00,AAXX 22151 33837 42960 02203 10243 20106 30090 40139 58025==
33837,2025,06,22,18,00,AAXX 22181 33837 32997 22402 10201 20136 30090 40139 54000 80001 333 10257 555 1/021=
33837,2025,06,22,21,00,AAXX 22211 33837 42/60 70000 10196 20126 30080 40129 58010 87050==
33837,2025,06,23,00,00,AAXX 23001 33837 /1997 52901 10171 20130 30077 40127 56003 70281 85030 555 1/017 69951=
33837,2025,06,23,03,00,AAXX 23031 33837 42960 03002 10174 20131 30070 40120 57007 333 55142==
33837,2025,06,23,06,00,AAXX 23061 33837 12997 03102 10219 20140 30079 40128 53009 69952 333 20154 555 11035=
33837,2025,06,23,09,00,AAXX 23091 33837 42660 23204 10258 20049 30085 40133 52006 82100==
33837,2025,06,23,12,00,AAXX 23121 33837 32697 23303 10282 20057 30080 40128 58005 81101 555 1/053=
33837,2025,06,23,15,00,AAXX 23151 33837 42960 23401 10270 20041 30078 40126 57002 80001==
33837,2025,06,23,18,00,AAXX 23181 33837 32997 23201 10228 20043 30085 40134 53007 80001 333 10288 555 1/022=
33837,2025,06,23,21,00,AAXX 23211 33837 42960 31901 10200 20141 30092 40141 52007 80001==
33837,2025,06,24,00,00,AAXX 24001 33837 32997 02301 10189 20160 30083 40132 58009 555 1/017=
33837,2025,06,24,03,00,AAXX 24031 33837 42960 50000 10191 20176 30072 40121 57011 80001 333 55151==
33837,2025,06,24,06,00,AAXX 24061 33837 32197 71703 10221 20193 30067 40116 56005 86601 333 20172 86703 555 10035=
33837,2025,06,24,09,00,AAXX 24091 33837 42960 21806 10245 20184 30057 40105 58010 80001==
33837,2025,06,24,12,00,AAXX 24121 33837 32597 71804 10256 20180 30036 40084 58021 81264 555 1/053=
33837,2025,06,24,15,00,AAXX 24151 33837 41560 83301 10281 20121 30038 40086 53002 72598 83464==
33837,2025,06,24,18,00,AAXX 24181 33837 11997 30000 10246 20119 30059 40107 53021 69902 70298 82089 333 10288 555 1/024=
33837,2025,06,24,21,00,AAXX 24211 33837 42/60 20000 10215 20149 30071 40120 51012 82030==
33837,2025,06,25,00,00,AAXX 25001 33837 32997 50000 10198 20137 30074 40123 51003 85030 555 1/018=
33837,2025,06,25,03,00,AAXX 25031 33837 42/60 63302 10208 20130 30074 40123 54000 86030 333 55092==
33837,2025,06,25,06,00,AAXX 25061 33837 32997 00402 10225 20103 30086 40135 53012 333 20191 555 10037=
33837,2025,06,25,09,00,AAXX 25091 33837 42560 21804 10231 20147 30087 40136 51001 82100==
33837,2025,06,25,12,00,AAXX 25121 33837 32597 51803 10266 20144 30068 40116 58019 85200 555 1/051=
33837,2025,06,25,15,00,AAXX 25151 33837 42560 52304 10259 20117 30061 40109 56007 85100==
33837,2025,06,25,18,00,AAXX 25181 33837 32997 22503 10245 20143 30055 40103 57006 82030 333 10273 555 1/024=
33837,2025,06,25,21,00,AAXX 25211 33837 42960 02404 10240 20160 30051 40099 57004==
33837,2025,06,26,00,00,AAXX 26001 33837 32997 02702 10230 20143 30035 40084 58016 555 1/021=
33837,2025,06,26,03,00,AAXX 26031 33837 42960 03103 10223 20147 30044 40093 53009 333 55135==
33837,2025,06,26,06,00,AAXX 26061 33837 32997 33203 10264 20125 30060 40108 53016 82031 333 20219 555 10037=
33837,2025,06,26,09,00,AAXX 26091 33837 42560 23306 10296 20097 30066 40114 51006 81161==
33837,2025,06,26,12,00,AAXX 26121 33837 32597 13307 10306 20089 30064 40112 58002 81100 555 1/056=
33837,2025,06,26,15,00,AAXX 26151 33837 42960 03304 10294 20073 30071 40119 53007==
33837,2025,06,26,18,00,AAXX 26181 33837 32997 03201 10257 20068 30089 40137 53018 333 10315 555 1/024=
33837,2025,06,26,21,00,AAXX 26211 33837 42960 03301 10219 20081 30110 40159 52021==
33837,2025,06,27,00,00,AAXX 27001 33837 32997 03301 10193 20086 30115 40165 51005 555 1/017=
33837,2025,06,27,03,00,AAXX 27031 33837 42960 23201 10175 20099 30123 40173 52008 80001 333 55148==
33837,2025,06,27,06,00,AAXX 27061 33837 32997 30602 10207 20105 30126 40175 51003 80001 333 20166 555 10037=
33837,2025,06,27,09,00,AAXX 27091 33837 42/60 61502 10234 20133 30124 40173 58002 82031==
33837,2025,06,27,12,00,AAXX 27121 33837 32997 51704 10241 20142 30107 40156 58017 80001 555 1/050=
33837,2025,06,27,15,00,AAXX 27151 33837 42960 21903 10242 20149 30095 40144 56012 80001==
33837,2025,06,27,18,00,AAXX 27181 33837 32997 52403 10228 20156 30085 40134 57010 80001 333 10250 555 1/024=
33837,2025,06,27,21,00,AAXX 27211 33837 42/60 62502 10232 20160 30079 40128 57006 83031==
33837,2025,06,28,00,00,AAXX 28001 33837 32997 62801 10223 20168 30072 40121 57007 83031 555 1/023=
33837,2025,06,28,03,00,AAXX 28031 33837 42/60 63102 10221 20155 30070 40119 56002 85031 333 55138==
33837,2025,06,28,06,00,AAXX 28061 33837 11597 73202 10236 20169 30069 40118 57001 69902 72582 83364 333 20216 555 11032=
33837,2025,06,28,09,00,AAXX 28091 33837 42560 73203 10270 20137 30062 40110 58007 83464==
33837,2025,06,28,12,00,AAXX 28121 33837 32597 83205 10272 20117 30058 40106 57004 83261 555 1/046=
33837,2025,06,28,15,00,AAXX 28151 33837 42560 83204 10261 20099 30056 40104 57002 83464==
33837,2025,06,28,18,00,AAXX 28181 33837 32597 63205 10228 20089 30065 40114 53009 82431 333 10307 555 1/022=
33837,2025,06,28,21,00,AAXX 28211 33837 42960 33103 10203 20080 30080 40129 53015 80001==
33837,2025,06,29,00,00,AAXX 29001 33837 32997 23103 10185 20088 30081 40131 51001 80001 555 1/016=
33837,2025,06,29,03,00,AAXX 29031 33837 42960 23103 10170 20089 30079 40129 58002 80001 333 55078==
33837,2025,06,29,06,00,AAXX 29061 33837 32597 13303 10219 20088 30078 40127 57001 81100 333 20165 555 10037=
33837,2025,06,29,09,00,AAXX 29091 33837 42660 53204 10251 20068 30068 40116 58010 85100==
33837,2025,06,29,12,00,AAXX 29121 33837 32997 03204 10293 20047 30058 40106 57010 555 1/055=
33837,2025,06,29,15,00,AAXX 29151 33837 42660 83305 10267 20112 30054 40102 56004 85409==
33837,2025,06,29,18,00,AAXX 29181 33837 32697 33202 10235 20145 30054 40103 54000 81460 333 10299 555 1/025=
33837,2025,06,29,21,00,AAXX 29211 33837 42960 03001 10225 20149 30055 40104 53001==
33837,2025,06,30,00,00,AAXX 30001 33837 32997 02801 10215 20151 30050 40099 58005 555 1/021=
33837,2025,06,30,03,00,AAXX 30031 33837 42/60 83003 10213 20154 30046 40095 57004 86031 333 55146==
33837,2025,06,30,06,00,AAXX 30061 33837 32697 63202 10254 20151 30041 40089 57005 82131 333 20210 555 10038=
33837,2025,06,30,09,00,AAXX 30091 33837 42597 63304 10276 20116 30037 40085 57004 86100 555 1/051=
33837,2025,06,30,12,00,AAXX 30121 33837 32597 63304 10312 20082 30030 40077 57007 86100 555 1/056=
33837,2025,06,30,15,00,AAXX 30151 33837 42960 23305 10280 20056 30033 40081 53003 80001==
33837,2025,06,30,18,00,AAXX 30181 33837 32997 03202 10246 20049 30044 40092 53011 333 10323 555 1/023=
33837,2025,06,30,21,00,AAXX 30211 33837 42984 03102 10210 20062 30065 40114 53021==
33837,2025,07,01,00,00,AAXX 01001 33837 32984 03102 10190 20065 30066 40115 51001 555 1/017=
33837,2025,07,01,03,00,AAXX 01031 33837 42983 03002 10170 20084 30075 40125 53009 333 55117==
33837,2025,07,01,06,00,AAXX 01061 33837 32979 03502 10223 20081 30085 40134 52010 333 20165 555 10037=
33837,2025,07,01,09,00,AAXX 01091 33837 42672 53303 10238 20061 30085 40134 54000 85400==
33837,2025,07,01,12,00,AAXX 01121 33837 32681 23203 10275 20032 30077 40125 58008 82100 555 1/055=
33837,2025,07,01,15,00,AAXX 01151 33837 42684 63202 10262 20028 30076 40124 56001 86100==
33837,2025,07,01,18,00,AAXX 01181 33837 32584 23301 10233 20052 30089 40138 53013 81430 333 10284 555 1/023=
33837,2025,07,01,21,00,AAXX 01211 33837 42984 03001 10200 20071 30102 40151 52013==
33837,2025,07,02,00,00,AAXX 02001 33837 32984 23102 10188 20066 30106 40156 51004 82030 555 1/017=
33837,2025,07,02,03,00,AAXX 02031 33837 42/83 23102 10174 20083 30110 40160 52004 82030 333 55146==
33837,2025,07,02,06,00,AAXX 02061 33837 32982 23102 10231 20080 30113 40162 52003 82030 333 20171 555 10037=
33837,2025,07,02,09,00,AAXX 02091 33837 42582 63301 10272 20060 30104 40152 58009 85201==
33837,2025,07,02,12,00,AAXX 02121 33837 32584 63202 10290 20038 30090 40138 58014 86200 555 1/057=
33837,2025,07,02,15,00,AAXX 02151 33837 42584 53202 10289 20037 30082 40130 56008 83101==
33837,2025,07,02,18,00,AAXX 02181 33837 32584 33302 10259 20055 30088 40136 53006 82401 333 10308 555 1/025=
33837,2025,07,02,21,00,AAXX 02211 33837 42983 03302 10234 20053 30103 40152 53015==
33837,2025,07,03,00,00,AAXX 03001 33837 32983 03102 10203 20063 30110 40159 51007 555 1/018=
33837,2025,07,03,03,00,AAXX 03031 33837 42983 03302 10195 20073 30119 40169 52009 333 55151==
33837,2025,07,03,06,00,AAXX 03061 33837 32983 00101 10240 20092 30134 40183 53015 333 20192 555 10039=
33837,2025,07,03,09,00,AAXX 03091 33837 42579 21402 10243 20138 30132 40181 58002 82100==
33837,2025,07,03,12,00,AAXX 03121 33837 32182 31805 10254 20136 30126 40175 57006 82161 555 1/053=
33837,2025,07,03,15,00,AAXX 03151 33837 42583 22102 10268 20132 30117 40165 57009 81160==
33837,2025,07,03,18,00,AAXX 03181 33837 32583 22602 10249 20115 30124 40173 53007 81401 333 10269 555 1/025=
33837,2025,07,03,21,00,AAXX 03211 33837 42984 02702 10232 20106 30127 40176 52003==
33837,2025,07,04,00,00,AAXX 04001 33837 32984 02802 10214 20138 30122 40171 58005 555 1/020=
33837,2025,07,04,03,00,AAXX 04031 33837 42981 20000 10201 20149 30124 40173 53002 80001 333 55149==
33837,2025,07,04,06,00,AAXX 04061 33837 32984 00201 10277 20129 30127 40175 52003 333 20197 555 10039=
33837,2025,07,04,09,00,AAXX 04091 33837 42981 21602 10276 20139 30128 40176 52001 80001==
33837,2025,07,04,12,00,AAXX 04121 33837 32982 21904 10282 20137 30114 40162 58014 80001 555 1/055=
33837,2025,07,04,15,00,AAXX 04151 33837 42983 02003 10295 20106 30100 40148 57014==
33837,2025,07,04,18,00,AAXX 04181 33837 32983 22503 10276 20099 30098 40146 56002 80030 333 10316 555 1/027=
33837,2025,07,04,21,00,AAXX 04211 33837 42983 02603 10258 20108 30099 40147 53001==
33837,2025,07,05,00,00,AAXX 05001 33837 32981 02802 10243 20141 30096 40145 58003 555 1/023=
33837,2025,07,05,03,00,AAXX 05031 33837 42982 23304 10234 20130 30098 40147 53002 80001 333 55148==
33837,2025,07,05,06,00,AAXX 05061 33837 32983 33302 10271 20138 30113 40161 53015 82031 333 20225 555 10040=
33837,2025,07,05,09,00,AAXX 05091 33837 42581 83301 10273 20129 30119 40167 51006 83461==
33837,2025,07,05,12,00,AAXX 05121 33837 32581 53402 10274 20134 30123 40171 52004 82261 555 1/052=
33837,2025,07,05,15,00,AAXX 05151 33837 42981 30601 10267 20127 30114 40162 58009 80001==
33837,2025,07,05,18,00,AAXX 05181 33837 32981 00000 10237 20144 30115 40164 53001 333 10303 555 1/026=
33837,2025,07,05,21,00,AAXX 05211 33837 42/82 60000 10242 20143 30118 40167 52003 86050==
33837,2025,07,06,00,00,AAXX 06001 33837 32981 23501 10222 20130 30117 40166 58001 80001 555 1/021=
33837,2025,07,06,03,00,AAXX 06031 33837 42/82 30701 10217 20167 30116 40165 57001 82031 333 55111==
33837,2025,07,06,06,00,AAXX 06061 33837 32981 01202 10239 20157 30118 40167 53002 333 20211 555 10038=
33837,2025,07,06,09,00,AAXX 06091 33837 42/81 51402 10252 20174 30115 40163 58003 82032==
33837,2025,07,06,12,00,AAXX 06121 33837 32980 51602 10257 20198 30101 40149 58014 80004 555 1/055=
33837,2025,07,06,15,00,AAXX 06151 33837 42982 61902 10257 20198 30086 40134 57015 80001==
33837,2025,07,06,18,00,AAXX 06181 33837 32980 62102 10238 20195 30078 40126 56008 80004 333 10261 555 1/026=
33837,2025,07,06,21,00,AAXX 06211 33837 42980 32202 10244 20172 30076 40124 56002 80001==
33837,2025,07,07,00,00,AAXX 07001 33837 32982 02102 10245 20175 30069 40117 58007 555 1/022=
33837,2025,07,07,03,00,AAXX 07031 33837 42580 52102 10232 20209 30066 40114 56003 83460 333 55141==
33837,2025,07,07,06,00,AAXX 07061 33837 32980 22102 10268 20202 30067 40115 53001 82031 333 20224 555 10042=
33837,2025,07,07,09,00,AAXX 07091 33837 42981 21705 10260 20217 30071 40119 52004 80001==
33837,2025,07,07,12,00,AAXX 07121 33837 32982 01805 10266 20204 30061 40109 58010 555 1/052=
33837,2025,07,07,15,00,AAXX 07151 33837 42984 01903 10262 20191 30049 40097 57012==
33837,2025,07,07,18,00,AAXX 07181 33837 32984 02402 10250 20170 30045 40093 56004 333 10279 555 1/025=
33837,2025,07,07,21,00,AAXX 07211 33837 42983 02201 10239 20183 30043 40091 57002==
33837,2025,07,08,00,00,AAXX 08001 33837 32983 02101 10230 20209 30043 40091 54000 555 1/021=
33837,2025,07,08,03,00,AAXX 08031 33837 42982 00000 10228 20207 30045 40093 53002 333 55134==
33837,2025,07,08,06,00,AAXX 08061 33837 32974 01603 10251 20212 30049 40097 52004 333 20226 555 10041=
33837,2025,07,08,09,00,AAXX 08091 33837 42975 01703 10260 20217 30049 40097 54000==
33837,2025,07,08,12,00,AAXX 08121 33837 32984 01704 10271 20197 30038 40086 58011 555 1/054=
33837,2025,07,08,15,00,AAXX 08151 33837 42981 01803 10271 20187 30026 40074 57012==
33837,2025,07,08,18,00,AAXX 08181 33837 32982 02001 10247 20151 30015 40063 57011 333 10276 555 1/023=
33837,2025,07,08,21,00,AAXX 08211 33837 42982 02301 10233 20192 30023 40071 53008==
33837,2025,07,09,00,00,AAXX 09001 33837 32982 01901 10232 20198 30018 40066 58005 555 1/021=
33837,2025,07,09,03,00,AAXX 09031 33837 42963 00000 10213 20199 30020 40069 53002 333 55145==
33837,2025,07,09,06,00,AAXX 09061 33837 32270 50802 10233 20203 30016 40064 58004 85600 333 20211 85704 555 10038=
33837,2025,07,09,09,00,AAXX 09091 33837 42978 31502 10271 20192 30010 40058 57006 80001==
33837,2025,07,09,12,00,AAXX 09121 33837 32581 21803 10283 20190 39998 40045 58012 82100 555 1/055=
33837,2025,07,09,15,00,AAXX 09151 33837 42584 11802 10269 20203 39988 40036 57010 81100==
33837,2025,07,09,18,00,AAXX 09181 33837 32980 52002 10245 20216 39983 40031 56005 80001 333 10290 555 1/025=
33837,2025,07,09,21,00,AAXX 09211 33837 42474 62202 10243 20220 39991 40039 53008 86600 333 86710==
33837,2025,07,10,00,00,AAXX 10001 33837 32976 62401 10236 20213 39985 40033 58006 80001 555 1/022=
33837,2025,07,10,03,00,AAXX 10031 33837 42577 63101 10215 20189 39987 40035 53002 83101 333 55129==
33837,2025,07,10,06,00,AAXX 10061 33837 32578 63001 10254 20188 39992 40040 52005 85460 333 20215 85821 555 10037=
33837,2025,07,10,09,00,AAXX 10091 33837 42682 62802 10293 20151 30002 40049 52010 85101 333 85845==
33837,2025,07,10,12,00,AAXX 10121 33837 32684 31402 10274 20187 30002 40050 54000 82161 555 1/052=
33837,2025,07,10,15,00,AAXX 10151 33837 42984 22103 10275 20131 30000 40048 58002 80001==
33837,2025,07,10,18,00,AAXX 10181 33837 32984 00000 10253 20164 30006 40054 53006 333 10302 555 1/025=
33837,2025,07,10,21,00,AAXX 10211 33837 42984 03203 10226 20117 30029 40078 53023==
33837,2025,07,11,00,00,AAXX 11001 33837 32984 53206 10194 20122 30039 40088 51010 85050 555 1/019=
33837,2025,07,11,03,00,AAXX 11031 33837 42984 23101 10175 20122 30049 40099 52010 80001 333 55138==
33837,2025,07,11,06,00,AAXX 11061 33837 32984 23201 10221 20124 30060 40109 52011 80001 333 20170 555 10039=
33837,2025,07,11,09,00,AAXX 11091 33837 42984 03501 10268 20101 30065 40113 51005 555 1/057=
33837,2025,07,11,12,00,AAXX 11121 33837 32684 51704 10265 20129 30063 40111 58002 82161 555 1/054=
33837,2025,07,11,15,00,AAXX 11151 33837 42984 31803 10269 20102 30063 40111 54000 82061 555 1/043=
33837,2025,07,11,18,00,AAXX 11181 33837 32984 30000 10238 20125 30067 40116 53004 80001 333 10301 555 1/024=
33837,2025,07,11,21,00,AAXX 11211 33837 42984 23202 10235 20088 30077 40126 53010 80001==
33837,2025,07,12,00,00,AAXX 12001 33837 32984 23302 10220 20092 30085 40134 52008 80001 555 1/019=
33837,2025,07,12,03,00,AAXX 12031 33837 42982 03101 10204 20096 30091 40140 52006 333 55137==
33837,2025,07,12,06,00,AAXX 12061 33837 32983 03402 10267 20100 30096 40144 52005 333 20203 555 10042=
33837,2025,07,12,09,00,AAXX 12091 33837 42681 20303 10284 20106 30099 40147 52003 82100==
33837,2025,07,12,12,00,AAXX 12121 33837 32582 31804 10286 20112 30096 40144 58003 83200 555 1/058=
33837,2025,07,12,15,00,AAXX 12151 33837 42682 21902 10300 20105 30087 40135 58009 82400==
33837,2025,07,12,18,00,AAXX 12181 33837 32581 32801 10262 20104 30092 40140 53005 82430 333 10317 555 1/024=
33837,2025,07,12,21,00,AAXX 12211 33837 42969 02801 10238 20098 30100 40149 52008==
33837,2025,07,13,00,00,AAXX 13001 33837 32983 03002 10227 20102 30106 40155 52006 555 1/020=
33837,2025,07,13,03,00,AAXX 13031 33837 42983 03201 10212 20104 30114 40163 52008 333 55148==
33837,2025,07,13,06,00,AAXX 13061 33837 32980 00201 10272 20128 30119 40167 52005 333 20210 555 10043=
33837,2025,07,13,09,00,AAXX 13091 33837 42584 21401 10289 20147 30121 40169 52002 82100==
33837,2025,07,13,12,00,AAXX 13121 33837 32583 21804 10316 20098 30113 40161 58008 82100 555 1/059=
33837,2025,07,13,15,00,AAXX 13151 33837 42569 22302 10314 20071 30105 40153 57008 82100==
33837,2025,07,13,18,00,AAXX 13181 33837 32584 20000 10268 20078 30104 40152 56001 82400 333 10319 555 1/025=
33837,2025,07,13,21,00,AAXX 13211 33837 42983 03102 10270 20080 30110 40158 53006==
33837,2025,07,14,00,00,AAXX 14001 33837 32984 03202 10260 20076 30111 40160 51001 555 1/022=
33837,2025,07,14,03,00,AAXX 14031 33837 42983 00000 10212 20101 30110 40159 58001 333 55145==
33837,2025,07,14,06,00,AAXX 14061 33837 32982 00401 10250 20126 30115 40164 53005 333 20212 555 10041=
33837,2025,07,14,09,00,AAXX 14091 33837 42680 21302 10267 20160 30111 40159 58004 82100==
33837,2025,07,14,12,00,AAXX 14121 33837 32581 61804 10277 20160 30099 40147 58012 82104 555 1/058=
33837,2025,07,14,15,00,AAXX 14151 33837 42583 62103 10299 20100 30083 40131 57016 82464==
33837,2025,07,14,18,00,AAXX 14181 33837 32984 62603 10277 20129 30078 40126 56005 83031 333 10305 555 1/027=
33837,2025,07,14,21,00,AAXX 14211 33837 42/83 52802 10253 20129 30074 40122 57004 82031==
33837,2025,07,15,00,00,AAXX 15001 33837 32984 22802 10245 20108 30065 40113 58009 80001 555 1/022=
33837,2025,07,15,03,00,AAXX 15031 33837 42/83 52901 10233 20110 30063 40112 56002 82031 333 55131==
33837,2025,07,15,06,00,AAXX 15061 33837 32983 63401 10296 20112 30060 40108 57003 82031 333 20232 555 10043=
33837,2025,07,15,09,00,AAXX 15091 33837 42578 53502 10355 20112 30053 40100 57007 82101==
33837,2025,07,15,12,00,AAXX 15121 33837 32581 61702 10318 20140 30038 40085 58015 85201 555 1/059=
33837,2025,07,15,15,00,AAXX 15151 33837 41583 63201 10329 20120 30026 40073 57012 78082 85301==
33837,2025,07,15,18,00,AAXX 15181 33837 11583 62702 10275 20145 30029 40077 53003 69902 70282 83401 333 10358 555 1/028=
33837,2025,07,15,21,00,AAXX 15211 33837 42581 52902 10260 20135 30035 40083 52006 82401==
33837,2025,07,16,00,00,AAXX 16001 33837 32984 53302 10260 20094 30036 40084 51001 80001 555 1/023=
33837,2025,07,16,03,00,AAXX 16031 33837 42984 03302 10243 20098 30033 40081 58003 333 55120==
33837,2025,07,16,06,00,AAXX 16061 33837 32969 53601 10295 20106 30036 40084 53003 80004 333 20240 555 10040=
33837,2025,07,16,09,00,AAXX 16091 33837 42983 21301 10300 20110 30035 40082 58001 80001==
33837,2025,07,16,12,00,AAXX 16121 33837 32579 51803 10302 20112 30020 40067 58015 81104 555 1/054=
33837,2025,07,16,15,00,AAXX 16151 33837 42583 72402 10302 20097 30015 40062 56005 82164==
33837,2025,07,16,18,00,AAXX 16181 33837 11583 83206 10223 20154 30040 40089 53025 69902 72522 8536/ 333 10321 555 1/026=
33837,2025,07,16,21,00,AAXX 16211 33837 41584 82701 10219 20157 30037 40086 58003 70282 8246/==
33837,2025,07,17,00,00,AAXX 17001 33837 /1983 70000 10212 20166 30038 40087 53001 70282 87050 555 1/023 69901=
33837,2025,07,17,03,00,AAXX 17031 33837 42/83 73101 10206 20162 30032 40081 58006 87030 333 55108==
33837,2025,07,17,06,00,AAXX 17061 33837 12580 63601 10239 20167 30041 40089 53009 69902 82452 333 20206 555 10038=
33837,2025,07,17,09,00,AAXX 17091 33837 41580 80201 10233 20168 30050 40099 52009 78082 85361==
33837,2025,07,17,12,00,AAXX 17121 33837 /1583 53201 10257 20145 30050 40098 54000 72582 82361 555 1/047 69901=
33837,2025,07,17,15,00,AAXX 17151 33837 42983 61602 10251 20168 30039 40087 58011 80001==
33837,2025,07,17,18,00,AAXX 17181 33837 12584 52201 10234 20167 30041 40089 53002 69902 82401 333 10278 555 1/024=
33837,2025,07,17,21,00,AAXX 17211 33837 42984 82401 10226 20173 30033 40082 58008 80009==
33837,2025,07,18,00,00,AAXX 18001 33837 /1356 82501 10210 20186 30037 40086 53004 79598 889// 555 1/021 69991=
33837,2025,07,18,03,00,AAXX 18031 33837 41480 81302 10197 20171 30025 40074 58012 72598 86961 333 55084 86914==
33837,2025,07,18,06,00,AAXX 18061 33837 11481 62404 10230 20190 30024 40072 56001 60052 70298 82661 333 20194 82716 555 11026=
33837,2025,07,18,09,00,AAXX 18091 33837 42582 31805 10243 20183 30028 40076 53004 82401 333 82826==
33837,2025,07,18,12,00,AAXX 18121 33837 32675 61903 10245 20162 30026 40074 58002 82401 333 82845 555 1/040=
33837,2025,07,18,15,00,AAXX 18151 33837 42684 32504 10276 20094 30026 40074 54000 82101==
33837,2025,07,18,18,00,AAXX 18181 33837 32984 20000 10231 20130 30034 40083 53008 80001 333 10281 555 1/022=
33837,2025,07,18,21,00,AAXX 18211 33837 42984 22902 10202 20114 30048 40097 53014 80001==
33837,2025,07,19,00,00,AAXX 19001 33837 32984 23001 10170 20113 30051 40101 51003 82030 555 1/016=
33837,2025,07,19,03,00,AAXX 19031 33837 42984 22701 10167 20114 30051 40101 54000 80001 333 55108==
33837,2025,07,19,06,00,AAXX 19061 33837 32981 02702 10227 20114 30057 40106 53006 333 20162 555 10036=
33837,2025,07,19,09,00,AAXX 19091 33837 42582 22502 10268 20105 30054 40102 58003 82100==
33837,2025,07,19,12,00,AAXX 19121 33837 32584 51902 10244 20130 30047 40095 57007 84260 555 1/038=
33837,2025,07,19,15,00,AAXX 19151 33837 42584 62104 10241 20148 30042 40090 57005 84261==
33837,2025,07,19,18,00,AAXX 19181 33837 32584 32401 10235 20161 30049 40097 53007 82401 333 10281 555 1/022=
33837,2025,07,19,21,00,AAXX 19211 33837 42984 22701 10212 20160 30055 40104 52006 80001==
33837,2025,07,20,00,00,AAXX 20001 33837 32983 32801 10196 20164 30046 40095 58009 80001 555 1/018=
33837,2025,07,20,03,00,AAXX 20031 33837 42980 00000 10186 20155 30043 40092 56003 333 55143==
33837,2025,07,20,06,00,AAXX 20061 33837 32981 51001 10219 20122 30048 40097 53005 80001 333 20186 555 10036=
33837,2025,07,20,09,00,AAXX 20091 33837 42583 51502 10239 20181 30041 40089 58007 82101==
33837,2025,07,20,12,00,AAXX 20121 33837 32582 61903 10263 20199 30027 40075 58014 85201 555 1/057=
33837,2025,07,20,15,00,AAXX 20151 33837 42582 62203 10257 20189 30023 40071 56004 85461==
33837,2025,07,20,18,00,AAXX 20181 33837 32583 52402 10249 20155 30025 40073 53002 83460 333 10264 555 1/024=
33837,2025,07,20,21,00,AAXX 20211 33837 42/84 22602 10233 20151 30025 40073 54000 82030==
33837,2025,07,21,00,00,AAXX 21001 33837 32984 02801 10218 20152 30021 40070 58004 555 1/019=
33837,2025,07,21,03,00,AAXX 21031 33837 41582 61901 10213 20149 30020 40069 57001 72511 83360 333 55137==
33837,2025,07,21,06,00,AAXX 21061 33837 11980 21802 10281 20144 30023 40071 53003 69902 70281 82030 333 20198 555 10041=
33837,2025,07,21,09,00,AAXX 21091 33837 42581 31803 10259 20175 30024 40072 52001 83100==
33837,2025,07,21,12,00,AAXX 21121 33837 32581 61903 10250 20170 30020 40068 58004 86400 555 1/048=
33837,2025,07,21,15,00,AAXX 21151 33837 42581 62402 10286 20175 30016 40063 57004 85460==
33837,2025,07,21,18,00,AAXX 21181 33837 32584 32403 10278 20137 30023 40071 53007 83400 333 10301 555 1/027=
33837,2025,07,21,21,00,AAXX 21211 33837 42983 02802 10244 20186 30031 40079 52008==
33837,2025,07,22,00,00,AAXX 22001 33837 32982 02801 10226 20179 30031 40080 54000 555 1/021=
33837,2025,07,22,03,00,AAXX 22031 33837 42/67 21601 10214 20174 30030 40079 58001 82030 333 55113==
33837,2025,07,22,06,00,AAXX 22061 33837 32982 31803 10252 20191 30028 40076 57002 82031 333 20205 555 10039=
33837,2025,07,22,09,00,AAXX 22091 33837 42979 01903 10276 20194 30027 40075 57001==
33837,2025,07,22,12,00,AAXX 22121 33837 32580 72104 10280 20190 30020 40068 58007 83461 555 1/054=
33837,2025,07,22,15,00,AAXX 22151 33837 41467 81804 10236 20207 30024 40072 53004 79598 8596/==
33837,2025,07,22,18,00,AAXX 22181 33837 11580 62203 10232 20187 30020 40068 58004 60042 70298 82431 333 10291 555 1/022=
33837,2025,07,22,21,00,AAXX 22211 33837 42/84 52702 10257 20168 30027 40075 53007 85030==
33837,2025,07,23,00,00,AAXX 23001 33837 32970 52802 10245 20165 30030 40078 52003 83031 555 1/020=
33837,2025,07,23,03,00,AAXX 23031 33837 42981 33102 10244 20179 30039 40087 53009 80001 333 55107==
33837,2025,07,23,06,00,AAXX 23061 33837 32980 63201 10272 20179 30055 40103 53016 82031 333 20232 555 11031=
33837,2025,07,23,09,00,AAXX 23091 33837 42584 30103 10321 20143 30060 40107 51005 82101==
33837,2025,07,23,12,00,AAXX 23121 33837 32581 61902 10281 20151 30052 40100 58008 85101 555 1/054=
33837,2025,07,23,15,00,AAXX 23151 33837 42584 61903 10289 20140 30050 40098 56002 85161==
33837,2025,07,23,18,00,AAXX 23181 33837 32584 32901 10260 20163 30054 40102 53004 82401 333 10345 555 1/025=
33837,2025,07,23,21,00,AAXX 23211 33837 42984 02802 10248 20143 30066 40114 53012==
33837,2025,07,24,00,00,AAXX 24001 33837 32981 03101 10233 20126 30071 40120 51005 555 1/020=
33837,2025,07,24,03,00,AAXX 24031 33837 42983 53001 10222 20127 30078 40127 52007 80001 333 55139==
33837,2025,07,24,06,00,AAXX 24061 33837 32983 60302 10275 20127 30081 40129 52003 82034 333 20219 555 10038=
33837,2025,07,24,09,00,AAXX 24091 33837 42581 31602 10289 20123 30086 40134 52005 83200==
33837,2025,07,24,12,00,AAXX 24121 33837 32584 51903 10311 20120 30078 40125 58008 82260 555 1/057=
33837,2025,07,24,15,00,AAXX 24151 33837 42584 52001 10305 20105 30071 40119 57007 83160==
33837,2025,07,24,18,00,AAXX 24181 33837 32584 22504 10283 20100 30070 40118 56001 82400 333 10315 555 1/027=
33837,2025,07,24,21,00,AAXX 24211 33837 42984 22603 10271 20095 30074 40122 53004 80001==
33837,2025,07,25,00,00,AAXX 25001 33837 32984 02702 10255 20137 30074 40122 54000 555 1/023=
33837,2025,07,25,03,00,AAXX 25031 33837 42/83 72401 10229 20180 30080 40129 53006 86031 333 55140==
33837,2025,07,25,06,00,AAXX 25061 33837 11584 61702 10246 20188 30082 40130 52002 69902 72511 82361 333 20227 555 11029=
33837,2025,07,25,09,00,AAXX 25091 33837 42/69 31804 10288 20167 30081 40129 58001 83060==
33837,2025,07,25,12,00,AAXX 25121 33837 32984 21804 10265 20201 30074 40122 58007 80001 555 1/052=
33837,2025,07,25,15,00,AAXX 25151 33837 42/84 62202 10295 20145 30068 40116 57006 83039==
33837,2025,07,25,18,00,AAXX 25181 33837 32984 82403 10279 20145 30068 40116 54000 82039 333 10306 555 1/027=
33837,2025,07,25,21,00,AAXX 25211 33837 42984 62704 10267 20151 30068 40116 54000 80001==
33837,2025,07,26,00,00,AAXX 26001 33837 32984 52802 10257 20145 30067 40115 58001 80001 555 1/024=
33837,2025,07,26,03,00,AAXX 26031 33837 42984 22702 10246 20152 30067 40115 54000 80001 333 55079==
33837,2025,07,26,06,00,AAXX 26061 33837 32982 01501 10298 20162 30067 40115 54000 333 20245 555 10041=
33837,2025,07,26,09,00,AAXX 26091 33837 42980 01804 10303 20170 30065 40112 58002==
33837,2025,07,26,12,00,AAXX 26121 33837 32580 51902 10308 20175 30061 40108 57004 83201 555 1/054=
33837,2025,07,26,15,00,AAXX 26151 33837 42581 52002 10291 20176 30053 40101 57008 82101==
33837,2025,07,26,18,00,AAXX 26181 33837 32983 02504 10308 20156 30053 40100 54000 333 10330 555 1/029=
33837,2025,07,26,21,00,AAXX 26211 33837 42984 02702 10283 20149 30054 40102 53001==
33837,2025,07,27,00,00,AAXX 27001 33837 32984 02401 10267 20134 30053 40101 58001 555 1/024=
33837,2025,07,27,03,00,AAXX 27031 33837 42982 23301 10249 20131 30042 40090 58011 80001 333 55136==
33837,2025,07,27,06,00,AAXX 27061 33837 32973 50202 10275 20193 30047 40095 53005 83039 333 20243 555 10040=
33837,2025,07,27,09,00,AAXX 27091 33837 42980 00903 10287 20182 30046 40094 58001==
33837,2025,07,27,12,00,AAXX 27121 33837 32975 01402 10308 20195 30031 40078 58015 555 1/061=
33837,2025,07,27,15,00,AAXX 27151 33837 42982 01802 10295 20198 30018 40065 57013==
33837,2025,07,27,18,00,AAXX 27181 33837 32984 00000 10287 20163 30003 40050 57015 333 10312 555 1/029=
33837,2025,07,27,21,00,AAXX 27211 33837 42982 00000 10248 20205 30002 40050 56001 555 1/025=
33837,2025,07,28,00,00,AAXX 28001 33837 32981 00501 10264 20190 39996 40044 58006 555 1/024=
33837,2025,07,28,03,00,AAXX 28031 33837 42981 00401 10252 20211 39988 40036 57008 333 55130==
33837,2025,07,28,06,00,AAXX 28061 33837 32980 01003 10276 20204 39991 40038 53003 333 20238 555 10039=
33837,2025,07,28,09,00,AAXX 28091 33837 42979 01506 10284 20214 39988 40035 58003==
33837,2025,07,28,12,00,AAXX 28121 33837 32970 01404 10291 20205 39981 40028 57007 555 1/057=
33837,2025,07,28,15,00,AAXX 28151 33837 42972 01705 10276 20209 39966 40013 58015==
33837,2025,07,28,18,00,AAXX 28181 33837 32962 01603 10256 20227 39967 40015 53001 333 10298 555 1/027=
33837,2025,07,28,21,00,AAXX 28211 33837 42565 51204 10258 20227 39971 40019 53004 85500 333 85625==
33837,2025,07,29,00,00,AAXX 29001 33837 32561 31505 10253 20234 39963 40011 58008 83500 333 83630 555 1/025=
33837,2025,07,29,03,00,AAXX 29031 33837 42565 82102 10250 20225 39976 40024 53013 85861 333 55138 85822==
33837,2025,07,29,06,00,AAXX 29061 33837 32569 61201 10271 20223 39972 40019 58004 82104 333 20248 555 10039=
33837,2025,07,29,09,00,AAXX 29091 33837 42577 61203 10278 20227 39979 40026 53007 82164==
33837,2025,07,29,12,00,AAXX 29121 33837 32580 21503 10284 20233 39977 40024 58002 82100 555 1/058=
33837,2025,07,29,15,00,AAXX 29151 33837 42576 61101 10284 20219 39974 40021 57003 85461==
33837,2025,07,29,18,00,AAXX 29181 33837 32984 63102 10269 20177 39986 40034 53012 85031 333 10302 555 1/028=
33837,2025,07,29,21,00,AAXX 29211 33837 42/81 63202 10252 20186 39995 40043 52009 83031==
33837,2025,07,30,00,00,AAXX 30001 33837 32983 52901 10239 20164 39989 40037 58006 82031 555 1/023=
33837,2025,07,30,03,00,AAXX 30031 33837 42366 53203 10216 20188 39997 40045 53008 85500 333 55117 85708==
33837,2025,07,30,06,00,AAXX 30061 33837 32482 73102 10229 20180 30013 40061 53016 87500 333 20216 87711 555 10031=
33837,2025,07,30,09,00,AAXX 30091 33837 42576 73102 10247 20169 30024 40072 52011 87500 333 87624==
33837,2025,07,30,12,00,AAXX 30121 33837 32684 63202 10288 20146 30025 40073 51001 86260 333 86841 555 1/049=
33837,2025,07,30,15,00,AAXX 30151 33837 42584 53101 10283 20126 30027 40075 52002 85200==
33837,2025,07,30,18,00,AAXX 30181 33837 32984 03104 10242 20134 30028 40076 52001 333 10301 555 1/024=
33837,2025,07,30,21,00,AAXX 30211 33837 42984 03201 10220 20136 30059 40108 53031==
33837,2025,07,31,00,00,AAXX 31001 33837 32982 02901 10200 20135 30068 40117 51009 555 1/019=
33837,2025,07,31,03,00,AAXX 31031 33837 42983 02801 10179 20128 30068 40118 54000 333 55097==
33837,2025,07,31,06,00,AAXX 31061 33837 32980 00000 10235 20128 30071 40120 53003 333 20178 555 10035=
33837,2025,07,31,09,00,AAXX 31091 33837 42582 13403 10290 20092 30065 40113 58006 81100==
33837,2025,07,31,12,00,AAXX 31121 33837 32580 23303 10309 20080 30054 40101 57011 81101 555 1/060=
33837,2025,07,31,15,00,AAXX 31151 33837 42584 33202 10297 20070 30049 40097 56005 82101==
33837,2025,07,31,18,00,AAXX 31181 33837 32984 03101 10255 20071 30058 40106 53009 333 10317 555 1/024=
33837,2025,07,31,21,00,AAXX 31211 33837 42984 03101 10230 20098 30062 40111 52004==
33837,2025,08,01,00,00,AAXX 01001 33837 32984 02902 10206 20107 30067 40116 52005 555 1/019=
33837,2025,08,01,03,00,AAXX 01031 33837 42984 03101 10192 20107 30068 40117 51001 333 55142==
33837,2025,08,01,06,00,AAXX 01061 33837 32981 10202 10254 20112 30076 40124 53008 80001 333 20192 555 10035=
33837,2025,08,01,09,00,AAXX 01091 33837 42584 20101 10302 20074 30074 40122 58002 82101 555 1/054=
33837,2025,08,01,12,00,AAXX 01121 33837 32575 31804 10263 20127 30069 40117 57005 82101 555 1/055=
33837,2025,08,01,15,00,AAXX 01151 33837 42583 52002 10267 20100 30064 40112 57005 82161==
33837,2025,08,01,18,00,AAXX 01181 33837 32983 22603 10247 20130 30068 40116 53004 80001 333 10311 555 1/024=
33837,2025,08,01,21,00,AAXX 01211 33837 42/84 32801 10229 20122 30069 40118 52001 82031==
33837,2025,08,02,00,00,AAXX 02001 33837 32983 00000 10218 20109 30074 40123 52005 555 1/019=
33837,2025,08,02,03,00,AAXX 02031 33837 42982 20000 10204 20124 30081 40130 52007 80001 333 55133==
33837,2025,08,02,06,00,AAXX 02061 33837 32977 30303 10255 20137 30085 40133 52004 80001 333 20203 555 10037=
33837,2025,08,02,09,00,AAXX 02091 33837 42576 21303 10281 20157 30090 40138 52005 82100==
33837,2025,08,02,12,00,AAXX 02121 33837 32581 11704 10269 20162 30084 40132 58006 81100 555 1/056=
33837,2025,08,02,15,00,AAXX 02151 33837 42583 52101 10291 20107 30080 40128 57004 82161==
33837,2025,08,02,18,00,AAXX 02181 33837 32982 32101 10259 20101 30080 40128 54000 80001 333 10294 555 1/025=
33837,2025,08,02,21,00,AAXX 02211 33837 42984 22901 10240 20110 30080 40129 54000 80001==
33837,2025,08,03,00,00,AAXX 03001 33837 32983 03501 10220 20117 30085 40134 53005 555 1/019=
33837,2025,08,03,03,00,AAXX 03031 33837 42982 00000 10209 20123 30086 40135 51001 333 55139==
33837,2025,08,03,06,00,AAXX 03061 33837 32983 53501 10264 20110 30086 40134 54000 82031 333 20206 555 10038=
33837,2025,08,03,09,00,AAXX 03091 33837 42583 50702 10297 20103 30081 40129 58005 82101==
33837,2025,08,03,12,00,AAXX 03121 33837 32581 50702 10311 20075 30071 40119 58010 83101 555 1/061=
33837,2025,08,03,15,00,AAXX 03151 33837 42584 31801 10294 20105 30066 40114 56005 82101==
33837,2025,08,03,18,00,AAXX 03181 33837 32584 23401 10265 20110 30076 40124 53010 81401 333 10322 555 1/025=
33837,2025,08,03,21,00,AAXX 03211 33837 42983 03301 10257 20095 30081 40129 51005==
33837,2025,08,04,00,00,AAXX 04001 33837 32970 03001 10226 20104 30081 40130 54000 555 1/020=
33837,2025,08,04,03,00,AAXX 04031 33837 42982 03201 10212 20110 30086 40135 53005 333 55137==
33837,2025,08,04,06,00,AAXX 04061 33837 32981 03101 10276 20120 30095 40143 52009 333 20212 555 10040=
33837,2025,08,04,09,00,AAXX 04091 33837 42582 30203 10315 20097 30095 40143 54000 83100==
33837,2025,08,04,12,00,AAXX 04121 33837 32582 51804 10285 20147 30087 40135 58008 82101 555 1/055=
33837,2025,08,04,15,00,AAXX 04151 33837 42584 32003 10283 20142 30083 40131 57004 82101==
33837,2025,08,04,18,00,AAXX 04181 33837 32984 32503 10271 20108 30094 40142 53011 82031 333 10341 555 1/025=
33837,2025,08,04,21,00,AAXX 04211 33837 42984 02901 10241 20142 30103 40152 52009==
33837,2025,08,05,00,00,AAXX 05001 33837 32984 03401 10244 20117 30105 40154 51002 555 1/021=
33837,2025,08,05,03,00,AAXX 05031 33837 42984 00000 10226 20123 30109 40158 52004 333 55141==
33837,2025,08,05,06,00,AAXX 05061 33837 32982 00101 10273 20125 30119 40167 53010 333 20222 555 10037=
33837,2025,08,05,09,00,AAXX 05091 33837 42582 11001 10280 20150 30124 40172 51005 81100==
33837,2025,08,05,12,00,AAXX 05121 33837 32583 11602 10302 20143 30119 40167 58005 81100 555 1/059=
33837,2025,08,05,15,00,AAXX 05151 33837 42984 01802 10302 20107 30107 40155 58012==
33837,2025,08,05,18,00,AAXX 05181 33837 32984 02602 10273 20101 30107 40155 54000 333 10306 555 1/026=
33837,2025,08,05,21,00,AAXX 05211 33837 42983 02701 10256 20106 30112 40161 53005==
33837,2025,08,06,00,00,AAXX 06001 33837 32984 03101 10247 20109 30111 40160 58001 555 1/021=
33837,2025,08,06,03,00,AAXX 06031 33837 42982 00000 10234 20130 30111 40160 54000 333 55138==
33837,2025,08,06,06,00,AAXX 06061 33837 32983 00301 10290 20120 30112 40160 53001 333 20234 555 10040=
33837,2025,08,06,09,00,AAXX 06091 33837 42583 21201 10297 20158 30114 40162 52002 82100 555 1/059=
33837,2025,08,06,12,00,AAXX 06121 33837 32569 21803 10321 20102 30101 40148 58013 82100 555 1/061=
33837,2025,08,06,15,00,AAXX 06151 33837 42984 02001 10321 20118 30085 40132 57016==
33837,2025,08,06,18,00,AAXX 06181 33837 32983 32801 10291 20103 30092 40140 53007 83030 333 10330 555 1/028=
33837,2025,08,06,21,00,AAXX 06211 33837 42984 03301 10240 20144 30109 40158 53017==
33837,2025,08,07,00,00,AAXX 07001 33837 32984 33103 10224 20148 30117 40166 51008 83030 555 1/022=
33837,2025,08,07,03,00,AAXX 07031 33837 42/82 63202 10200 20156 30126 40175 52009 84031 333 55135==
33837,2025,08,07,06,00,AAXX 07061 33837 32980 63303 10230 20161 30138 40187 52012 80009 333 20198 555 10032=
33837,2025,08,07,09,00,AAXX 07091 33837 42980 33502 10292 20157 30137 40185 58001 80009==
33837,2025,08,07,12,00,AAXX 07121 33837 32583 23503 10318 20126 30131 40179 58006 81101 555 1/058=
33837,2025,08,07,15,00,AAXX 07151 33837 42983 03502 10292 20117 30130 40178 56001==
33837,2025,08,07,18,00,AAXX 07181 33837 32984 23303 10254 20088 30146 40195 53016 80001 333 10321 555 1/024=
33837,2025,08,07,21,00,AAXX 07211 33837 42984 53601 10226 20104 30154 40203 53008 80001==
33837,2025,08,08,00,00,AAXX 08001 33837 32984 33601 10207 20108 30158 40208 52004 80001 555 1/019=
33837,2025,08,08,03,00,AAXX 08031 33837 42/83 33403 10188 20104 30161 40211 52003 82031 333 55126==
33837,2025,08,08,06,00,AAXX 08061 33837 32983 53502 10237 20107 30167 40216 52006 80001 333 20187 555 1/033=
33837,2025,08,08,09,00,AAXX 08091 33837 42983 30903 10261 20095 30164 40213 58003 80001==
33837,2025,08,08,12,00,AAXX 08121 33837 32984 21602 10260 20098 30155 40204 58009 80001 555 1/054=
33837,2025,08,08,15,00,AAXX 08151 33837 42984 01802 10265 20102 30145 40194 57010==
33837,2025,08,08,18,00,AAXX 08181 33837 32980 02801 10226 20097 30149 40198 53004 333 10270 555 1/021=
33837,2025,08,08,21,00,AAXX 08211 33837 42981 22801 10213 20086 30154 40203 52005 80001==
33837,2025,08,09,00,00,AAXX 09001 33837 32984 20000 10196 20106 30152 40202 58002 80001 555 1/015=
33837,2025,08,09,03,00,AAXX 09031 33837 42982 20000 10186 20145 30155 40205 53003 80001 333 55133==
33837,2025,08,09,06,00,AAXX 09061 33837 32980 00902 10238 20145 30160 40209 52005 333 20183 555 10037=
33837,2025,08,09,09,00,AAXX 09091 33837 42980 01502 10251 20165 30163 40212 52003==
33837,2025,08,09,12,00,AAXX 09121 33837 32583 21704 10278 20161 30151 40199 58012 82100 555 1/055=
33837,2025,08,09,15,00,AAXX 09151 33837 42583 52202 10286 20121 30142 40190 57009 83101==
33837,2025,08,09,18,00,AAXX 09181 33837 32584 62601 10268 20113 30148 40197 53006 82431 333 10298 555 1/026=
33837,2025,08,09,21,00,AAXX 09211 33837 42/82 33102 10256 20110 30157 40206 52009 82031==
33837,2025,08,10,00,00,AAXX 10001 33837 32984 23302 10240 20103 30162 40211 52005 80001 555 1/020=
33837,2025,08,10,03,00,AAXX 10031 33837 42983 23202 10216 20104 30163 40212 51001 80001 333 55136==
33837,2025,08,10,06,00,AAXX 10061 33837 32980 20101 10258 20112 30169 40218 53006 80001 333 20215 555 10038=
33837,2025,08,10,09,00,AAXX 10091 33837 42581 51402 10276 20116 30171 40219 52002 81101==
33837,2025,08,10,12,00,AAXX 10121 33837 32981 51202 10283 20134 30154 40202 58017 80001 555 1/059=
33837,2025,08,10,15,00,AAXX 10151 33837 42984 21803 10273 20087 30144 40192 56010 80001==
33837,2025,08,10,18,00,AAXX 10181 33837 32984 02502 10257 20082 30135 40184 57009 333 10293 555 1/024=
33837,2025,08,10,21,00,AAXX 10211 33837 42983 02702 10240 20099 30134 40183 56001==
33837,2025,08,11,00,00,AAXX 11001 33837 32984 52702 10236 20103 30124 40173 58010 82031 555 1/021=
33837,2025,08,11,03,00,AAXX 11031 33837 42/81 62801 10228 20109 30119 40168 56005 82031 333 55135==
33837,2025,08,11,06,00,AAXX 11061 33837 32583 83202 10253 20144 30122 40171 53003 83261 333 20226 555 10028=
33837,2025,08,11,09,00,AAXX 11091 33837 41573 73202 10277 20178 30130 40178 52008 70282 83461 333 83823==
33837,2025,08,11,12,00,AAXX 11121 33837 /1580 53403 10321 20070 30126 40174 58004 70282 82161 555 1/053 69931=
33837,2025,08,11,15,00,AAXX 11151 33837 42984 03303 10289 20063 30127 40175 53001==
33837,2025,08,11,18,00,AAXX 11181 33837 12983 53202 10243 20079 30141 40190 53014 69932 80001 333 10322 555 1/023=
33837,2025,08,11,21,00,AAXX 11211 33837 42983 23203 10217 20079 30154 40203 52013 80001==
33837,2025,08,12,00,00,AAXX 12001 33837 32984 23202 10193 20086 30161 40211 51007 80001 555 1/017=
33837,2025,08,12,03,00,AAXX 12031 33837 42982 23102 10181 20084 30168 40218 52007 80001 333 55102==
33837,2025,08,12,06,00,AAXX 12061 33837 32982 00000 10216 20092 30175 40225 52007 333 20173 555 10033=
33837,2025,08,12,09,00,AAXX 12091 33837 42981 01302 10240 20099 30174 40223 58001==
33837,2025,08,12,12,00,AAXX 12121 33837 32981 01503 10248 20103 30164 40213 58010 555 1/056=
33837,2025,08,12,15,00,AAXX 12151 33837 42983 01703 10239 20116 30155 40204 57009==
33837,2025,08,12,18,00,AAXX 12181 33837 32983 02402 10226 20107 30157 40206 53002 333 10254 555 1/022=
33837,2025,08,12,21,00,AAXX 12211 33837 42984 02801 10205 20109 30162 40212 52005==
33837,2025,08,13,00,00,AAXX 13001 33837 32984 03201 10209 20079 30166 40216 52004 555 1/017=
33837,2025,08,13,03,00,AAXX 13031 33837 42984 03301 10184 20095 30166 40216 54000 333 55135==
33837,2025,08,13,06,00,AAXX 13061 33837 32983 00101 10238 20098 30173 40222 53007 333 20182 555 10034=
33837,2025,08,13,09,00,AAXX 13091 33837 42968 01002 10244 20145 30177 40226 52004==
33837,2025,08,13,12,00,AAXX 13121 33837 32981 01604 10267 20163 30168 40217 58009 555 1/055=
33837,2025,08,13,15,00,AAXX 13151 33837 42983 01803 10254 20160 30161 40210 57007==
33837,2025,08,13,18,00,AAXX 13181 33837 32983 22502 10238 20134 30160 40209 56001 82031 333 10267 555 1/023=
33837,2025,08,13,21,00,AAXX 13211 33837 42984 22701 10220 20139 30161 40210 53001 80001==
33837,2025,08,14,00,00,AAXX 14001 33837 32984 00000 10200 20110 30161 40211 54000 555 1/018=
33837,2025,08,14,03,00,AAXX 14031 33837 42983 20000 10185 20136 30162 40212 53001 80001 333 55134==
33837,2025,08,14,06,00,AAXX 14061 33837 32970 00801 10239 20164 30166 40215 52004 333 20185 555 10035=
33837,2025,08,14,09,00,AAXX 14091 33837 42982 01302 10262 20165 30168 40217 52002==
33837,2025,08,14,12,00,AAXX 14121 33837 32980 01504 10261 20161 30159 40208 58009 555 1/054=
33837,2025,08,14,15,00,AAXX 14151 33837 42984 01902 10266 20119 30143 40192 58016==
33837,2025,08,14,18,00,AAXX 14181 33837 32983 22601 10247 20116 30142 40191 56001 80001 333 10269 555 1/024=
33837,2025,08,14,21,00,AAXX 14211 33837 42982 00000 10225 20141 30149 40198 53007==
33837,2025,08,15,00,00,AAXX 15001 33837 32983 00000 10214 20131 30150 40199 51001 555 1/019=
33837,2025,08,15,03,00,AAXX 15031 33837 42983 20301 10205 20151 30151 40201 52001 80001 333 55130==
33837,2025,08,15,06,00,AAXX 15061 33837 32982 03601 10248 20107 30155 40204 52004 333 20203 555 10033=
33837,2025,08,15,09,00,AAXX 15091 33837 42583 51201 10264 20093 30157 40206 52002 82101==
33837,2025,08,15,12,00,AAXX 15121 33837 32582 51402 10269 20122 30147 40195 58010 82101 555 1/058=
33837,2025,08,15,15,00,AAXX 15151 33837 42984 61702 10260 20154 30135 40184 57012 80004==
33837,2025,08,15,18,00,AAXX 15181 33837 32983 00000 10218 20103 30137 40186 53002 333 10279 555 1/022=
33837,2025,08,15,21,00,AAXX 15211 33837 42982 00202 10220 20136 30139 40188 52002==
33837,2025,08,16,00,00,AAXX 16001 33837 32983 00402 10221 20137 30136 40185 58003 555 1/020=
33837,2025,08,16,03,00,AAXX 16031 33837 42984 00000 10186 20126 30132 40182 57004 333 55135==
33837,2025,08,16,06,00,AAXX 16061 33837 32983 00201 10230 20104 30134 40183 53002 333 20182 555 10033=
33837,2025,08,16,09,00,AAXX 16091 33837 42984 21101 10244 20107 30126 40175 58008 80001==
33837,2025,08,16,12,00,AAXX 16121 33837 32983 01603 10254 20097 30116 40165 57010 555 1/056=
33837,2025,08,16,15,00,AAXX 16151 33837 42984 21802 10246 20119 30101 40150 58015 80001==
33837,2025,08,16,18,00,AAXX 16181 33837 32984 32402 10231 20095 30092 40141 56009 80001 333 10258 555 1/022=
33837,2025,08,16,21,00,AAXX 16211 33837 42984 02503 10211 20114 30086 40135 57006==
33837,2025,08,17,00,00,AAXX 17001 33837 32984 02701 10194 20104 30076 40125 57010 555 1/017=
33837,2025,08,17,03,00,AAXX 17031 33837 42/84 30000 10180 20113 30074 40124 56002 80031 333 55135==
33837,2025,08,17,06,00,AAXX 17061 33837 32983 00402 10228 20121 30071 40120 57003 333 20177 555 10033=
33837,2025,08,17,09,00,AAXX 17091 33837 42984 01202 10253 20125 30065 40113 57006==
33837,2025,08,17,12,00,AAXX 17121 33837 32984 01603 10259 20159 30055 40103 57010 555 1/055=
33837,2025,08,17,15,00,AAXX 17151 33837 42984 01802 10258 20126 30039 40087 58016==
33837,2025,08,17,18,00,AAXX 17181 33837 32984 02402 10242 20101 30039 40087 54000 333 10264 555 1/023=
33837,2025,08,17,21,00,AAXX 17211 33837 42984 02602 10222 20119 30036 40085 58003==
33837,2025,08,18,00,00,AAXX 18001 33837 32984 00000 10199 20138 30031 40080 57005 555 1/017=
33837,2025,08,18,03,00,AAXX 18031 33837 42/82 22601 10186 20135 30032 40081 53001 82031 333 55131==
33837,2025,08,18,06,00,AAXX 18061 33837 32974 23302 10240 20123 30043 40091 53011 82030 333 20181 555 10034=
33837,2025,08,18,09,00,AAXX 18091 33837 42/75 30304 10277 20136 30052 40100 52009 82039==
33837,2025,08,18,12,00,AAXX 18121 33837 32581 63204 10306 20100 30058 40105 52006 82261 555 1/056=
33837,2025,08,18,15,00,AAXX 18151 33837 42581 83304 10246 20068 30072 40121 53014 8246/==
33837,2025,08,18,18,00,AAXX 18181 33837 11584 83302 10227 20108 30085 40134 52013 69902 70282 8246/ 333 10315 555 1/024=
33837,2025,08,18,21,00,AAXX 18211 33837 42/84 33302 10214 20093 30094 40143 52009 82031==
33837,2025,08,19,00,00,AAXX 19001 33837 32984 33202 10194 20072 30101 40151 52007 80001 555 1/016=
33837,2025,08,19,03,00,AAXX 19031 33837 42984 23201 10169 20088 30109 40159 52008 80001 333 55093==
33837,2025,08,19,06,00,AAXX 19061 33837 32983 03402 10211 20090 30116 40165 52007 333 20165 555 10033=
33837,2025,08,19,09,00,AAXX 19091 33837 42/80 10703 10236 20077 30114 40163 58002 81030==
33837,2025,08,19,12,00,AAXX 19121 33837 32984 21302 10242 20086 30100 40149 58014 80001 555 1/055=
33837,2025,08,19,15,00,AAXX 19151 33837 42984 51702 10232 20106 30088 40137 57012 80001==
33837,2025,08,19,18,00,AAXX 19181 33837 32982 82402 10220 20102 30088 40137 54000 82034 333 10250 555 1/021=
33837,2025,08,19,21,00,AAXX 19211 33837 42984 22701 10193 20098 30083 40132 58005 80001==
33837,2025,08,20,00,00,AAXX 20001 33837 32984 02701 10185 20093 30077 40127 57006 555 1/017=
33837,2025,08,20,03,00,AAXX 20031 33837 42/84 60000 10163 20078 30071 40121 57006 82031 333 55131==
33837,2025,08,20,06,00,AAXX 20061 33837 32983 70301 10204 20141 30069 40118 57002 82034 333 20161 555 10027=
33837,2025,08,20,09,00,AAXX 20091 33837 42582 71502 10237 20124 30064 40113 57005 82104==
33837,2025,08,20,12,00,AAXX 20121 33837 /1575 82402 10237 20117 30055 40104 57009 78082 85364 555 1/027 69901=
33837,2025,08,20,15,00,AAXX 20151 33837 41584 72001 10245 20080 30048 40096 57007 70282 83460==
33837,2025,08,20,18,00,AAXX 20181 33837 11583 62402 10230 20098 30047 40096 56001 69902 70282 82461 333 10249 555 1/021=
33837,2025,08,20,21,00,AAXX 20211 33837 42984 32502 10216 20130 30046 40095 57001 80001==
33837,2025,08,21,00,00,AAXX 21001 33837 32984 02702 10200 20135 30046 40095 54000 555 1/018=
33837,2025,08,21,03,00,AAXX 21031 33837 42584 52602 10199 20138 30046 40095 54000 82401 333 55012==
33837,2025,08,21,06,00,AAXX 21061 33837 32980 22401 10240 20144 30051 40099 53005 80001 333 20197 555 10033=
33837,2025,08,21,09,00,AAXX 21091 33837 42580 21603 10252 20177 30058 40106 52007 81201==
33837,2025,08,21,12,00,AAXX 21121 33837 32583 21704 10255 20184 30057 40105 58001 81160 555 1/051=
33837,2025,08,21,15,00,AAXX 21151 33837 42983 21802 10252 20182 30053 40101 57004 80001==
33837,2025,08,21,18,00,AAXX 21181 33837 32981 32102 10241 20200 30058 40106 53005 80004 333 10259 555 1/023=
33837,2025,08,21,21,00,AAXX 21211 33837 42981 22302 10237 20190 30053 40101 58005 80001==
33837,2025,08,22,00,00,AAXX 22001 33837 32983 02301 10230 20190 30043 40091 58010 555 1/020=
33837,2025,08,22,03,00,AAXX 22031 33837 42/78 32002 10230 20198 30034 40082 57009 82031 333 55126==
33837,2025,08,22,06,00,AAXX 22061 33837 32978 21804 10252 20189 30028 40076 57006 80001 333 20228 555 10033=
33837,2025,08,22,09,00,AAXX 22091 33837 42979 31703 10260 20194 30022 40070 57006 80004==
33837,2025,08,22,12,00,AAXX 22121 33837 32979 01906 10261 20185 30008 40056 58014 555 1/050=
33837,2025,08,22,15,00,AAXX 22151 33837 42/80 51905 10237 20188 39989 40037 58019 82034==
33837,2025,08,22,18,00,AAXX 22181 33837 32981 72004 10235 20194 39985 40033 56004 87030 333 10269 555 1/024=
33837,2025,08,22,21,00,AAXX 22211 33837 42/78 62202 10237 20196 39981 40029 57004 86030==
33837,2025,08,23,00,00,AAXX 23001 33837 /1371 82702 10213 20179 39965 40013 58016 79598 889// 555 1/020 60011=
33837,2025,08,23,03,00,AAXX 23031 33837 41582 73006 10192 20155 39970 40019 53005 70298 84550 333 55115==
33837,2025,08,23,06,00,AAXX 23061 33837 11483 83103 10176 20156 39996 40045 53026 60022 78098 8636/ 333 20175 555 11020=
33837,2025,08,23,09,00,AAXX 23091 33837 41483 83203 10196 20142 30014 40063 51018 70282 8586/ 333 85818==
33837,2025,08,23,12,00,AAXX 23121 33837 /1584 63203 10249 20125 30019 40067 51005 70282 85101 333 85830 555 1/046 69901=
33837,2025,08,23,15,00,AAXX 23151 33837 42684 83402 10238 20125 30025 40073 52006 83461 333 83848==
33837,2025,08,23,18,00,AAXX 23181 33837 12984 70000 10219 20127 30038 40087 53013 69902 87050 333 10266 555 1/022=
33837,2025,08,23,21,00,AAXX 23211 33837 42/84 72901 10208 20106 30047 40096 52009 86051==
33837,2025,08,24,00,00,AAXX 24001 33837 32983 63202 10193 20083 30054 40103 52007 83031 555 1/017=
33837,2025,08,24,03,00,AAXX 24031 33837 42584 63302 10174 20085 30059 40109 52005 82531 333 55051==
33837,2025,08,24,06,00,AAXX 24061 33837 32982 53601 10211 20094 30067 40116 52008 83031 333 20169 555 10029=
33837,2025,08,24,09,00,AAXX 24091 33837 42584 61101 10206 20101 30070 40119 51003 82161==
33837,2025,08,24,12,00,AAXX 24121 33837 32584 71601 10206 20110 30068 40117 58002 85460 555 1/031=
33837,2025,08,24,15,00,AAXX 24151 33837 41575 63102 10152 20123 30086 40136 53018 72582 82361==
33837,2025,08,24,18,00,AAXX 24181 33837 11584 23004 10158 20051 30109 40159 53023 60012 70281 82400 333 10229 555 1/011=
33837,2025,08,24,21,00,AAXX 24211 33837 42984 03103 10138 20054 30124 40175 51015==
33837,2025,08,25,00,00,AAXX 25001 33837 32984 02801 10116 20065 30131 40182 51007 555 1/009=
33837,2025,08,25,03,00,AAXX 25031 33837 42984 02701 10115 20066 30136 40187 52005 333 55098==
33837,2025,08,25,06,00,AAXX 25061 33837 32984 52901 10176 20062 30143 40193 52007 80001 333 20114 555 11025=
33837,2025,08,25,09,00,AAXX 25091 33837 42582 62903 10226 20037 30143 40192 54000 82101==
33837,2025,08,25,12,00,AAXX 25121 33837 32581 31403 10207 20084 30132 40181 58011 82101 555 1/048=
33837,2025,08,25,15,00,AAXX 25151 33837 42584 51803 10198 20069 30124 40174 57008 83101==
33837,2025,08,25,18,00,AAXX 25181 33837 32984 32402 10182 20093 30123 40173 56001 82031 333 10239 555 1/017=
33837,2025,08,25,21,00,AAXX 25211 33837 42984 22502 10176 20095 30120 40170 57003 80001==
33837,2025,08,26,00,00,AAXX 26001 33837 32984 32801 10159 20100 30112 40162 58008 83030 555 1/015=
33837,2025,08,26,03,00,AAXX 26031 33837 42584 62202 10155 20087 30108 40158 57004 82531 333 55129==
33837,2025,08,26,06,00,AAXX 26061 33837 32984 62502 10191 20109 30109 40159 53001 86030 333 20150 555 10024=
33837,2025,08,26,09,00,AAXX 26091 33837 42575 22503 10241 20064 30111 40160 52002 82200==
33837,2025,08,26,12,00,AAXX 26121 33837 32584 22902 10261 20007 30106 40155 58005 82200 555 1/051=
33837,2025,08,26,15,00,AAXX 26151 33837 42984 31903 10224 20082 30110 40159 53004 80001==
33837,2025,08,26,18,00,AAXX 26181 33837 32984 22303 10211 20097 30121 40170 53011 80001 333 10266 555 1/019=
33837,2025,08,26,21,00,AAXX 26211 33837 42984 02502 10196 20114 30128 40178 52007==
33837,2025,08,27,00,00,AAXX 27001 33837 32984 02502 10184 20100 30126 40176 58002 555 1/015=
33837,2025,08,27,03,00,AAXX 27031 33837 42984 22503 10186 20114 30124 40174 57002 80001 333 55120==
33837,2025,08,27,06,00,AAXX 27061 33837 32982 02402 10223 20098 30132 40181 53008 333 20181 555 10032=
33837,2025,08,27,09,00,AAXX 27091 33837 42984 01703 10243 20116 30132 40181 54000==
33837,2025,08,27,12,00,AAXX 27121 33837 32982 01804 10241 20118 30126 40175 58006 555 1/049=
33837,2025,08,27,15,00,AAXX 27151 33837 42984 52003 10231 20121 30127 40176 53001 80009==
33837,2025,08,27,18,00,AAXX 27181 33837 32984 22202 10217 20123 30134 40183 53007 80001 333 10254 555 1/020=
33837,2025,08,27,21,00,AAXX 27211 33837 42984 02503 10204 20131 30138 40187 52004==
33837,2025,08,28,00,00,AAXX 28001 33837 32984 02601 10185 20129 30140 40190 52002 555 1/015=
33837,2025,08,28,03,00,AAXX 28031 33837 42982 00000 10161 20130 30147 40197 53007 333 55125==
33837,2025,08,28,06,00,AAXX 28061 33837 32981 21202 10218 20140 30156 40205 52009 80004 333 20157 555 10032=
33837,2025,08,28,09,00,AAXX 28091 33837 42983 01503 10239 20149 30163 40212 52007==
33837,2025,08,28,12,00,AAXX 28121 33837 32983 21603 10240 20160 30156 40205 58007 80004 555 1/052=
33837,2025,08,28,15,00,AAXX 28151 33837 42983 01801 10237 20107 30145 40194 57011==
33837,2025,08,28,18,00,AAXX 28181 33837 32981 00000 10209 20064 30146 40196 53001 333 10272 555 1/019=
33837,2025,08,28,21,00,AAXX 28211 33837 42983 02501 10191 20062 30146 40196 54000==
33837,2025,08,29,00,00,AAXX 29001 33837 32983 03001 10186 20058 30135 40185 58011 555 1/015=
33837,2025,08,29,03,00,AAXX 29031 33837 42984 20000 10172 20078 30137 40187 53002 80001 333 55124==
33837,2025,08,29,06,00,AAXX 29061 33837 32982 00202 10228 20089 30138 40187 52001 333 20171 555 10032=
33837,2025,08,29,09,00,AAXX 29091 33837 42981 00802 10238 20148 30134 40183 58004==
33837,2025,08,29,12,00,AAXX 29121 33837 32982 20602 10265 20118 30115 40163 58019 80001 555 1/054=
33837,2025,08,29,15,00,AAXX 29151 33837 42984 00501 10274 20093 30103 40151 56012==
33837,2025,08,29,18,00,AAXX 29181 33837 32981 21302 10244 20114 30102 40151 56001 80001 333 10284 555 1/022=
33837,2025,08,29,21,00,AAXX 29211 33837 42983 00601 10235 20156 30092 40141 58010 555 1/020=
33837,2025,08,30,00,00,AAXX 30001 33837 32980 00101 10214 20125 30082 40131 57010 555 1/018=
33837,2025,08,30,03,00,AAXX 30031 33837 42980 00201 10204 20116 30076 40125 57006 333 55121==
33837,2025,08,30,06,00,AAXX 30061 33837 32982 00402 10226 20150 30075 40124 56001 333 20197 555 10031=
33837,2025,08,30,09,00,AAXX 30091 33837 42982 00602 10236 20159 30070 40119 57005==
33837,2025,08,30,12,00,AAXX 30121 33837 32980 01502 10265 20126 30058 40106 58012 555 1/054=
33837,2025,08,30,15,00,AAXX 30151 33837 42983 02001 10277 20104 30047 40095 57011==
33837,2025,08,30,18,00,AAXX 30181 33837 32981 02502 10253 20100 30046 40094 56001 333 10294 555 1/023=
33837,2025,08,30,21,00,AAXX 30211 33837 42982 03301 10224 20121 30041 40090 57005==
33837,2025,08,31,00,00,AAXX 31001 33837 32981 00000 10202 20134 30036 40085 57005 555 1/017=
33837,2025,08,31,03,00,AAXX 31031 33837 42979 02601 10189 20156 30033 40082 57003 333 55123==
33837,2025,08,31,06,00,AAXX 31061 33837 32978 01701 10239 20176 30035 40083 53002 333 20186 555 10034=
33837,2025,08,31,09,00,AAXX 31091 33837 42978 01704 10260 20196 30034 40082 58001==
33837,2025,08,31,12,00,AAXX 31121 33837 32983 01704 10269 20200 30028 40076 58006 555 1/052=
33837,2025,08,31,15,00,AAXX 31151 33837 42983 32102 10252 20191 30028 40076 54000 80009==
33837,2025,08,31,18,00,AAXX 31181 33837 32973 52102 10232 20202 30023 40071 58005 82039 333 10280 555 1/022=
33837,2025,08,31,21,00,AAXX 31211 33837 41472 72304 10233 20204 30019 40067 57004 71322 85950 333 85910==
33837,2025,09,01,00,00,AAXX 01001 33837 32978 62301 10220 20194 30016 40064 57003 86030 555 1/021=
33837,2025,09,01,03,00,AAXX 01031 33837 41582 82602 10210 20160 30015 40064 57001 72922 8495/ 333 55123==
33837,2025,09,01,06,00,AAXX 01061 33837 11684 82302 10218 20156 30018 40067 53003 69902 70298 8354/ 333 20207 555 11024=
33837,2025,09,01,09,00,AAXX 01091 33837 42684 51604 10238 20171 30017 40065 58001 81269==
33837,2025,09,01,12,00,AAXX 01121 33837 32678 51804 10250 20159 30016 40064 57001 82201 555 1/049=
33837,2025,09,01,15,00,AAXX 01151 33837 42683 31902 10234 20169 30016 40064 54000 81461==
33837,2025,09,01,18,00,AAXX 01181 33837 32980 52302 10223 20172 30024 40073 53008 85030 333 10264 555 1/023=
33837,2025,09,01,21,00,AAXX 01211 33837 42/81 22302 10222 20176 30021 40070 58003 82030==
33837,2025,09,02,00,00,AAXX 02001 33837 32970 02801 10209 20185 30021 40070 54000 555 1/020=
33837,2025,09,02,03,00,AAXX 02031 33837 42/82 23002 10201 20145 30025 40074 53004 82030 333 55087==
33837,2025,09,02,06,00,AAXX 02061 33837 32972 23201 10226 20157 30036 40085 53011 82030 333 20200 555 10032=
33837,2025,09,02,09,00,AAXX 02091 33837 42982 00202 10274 20157 30043 40091 52007==
33837,2025,09,02,12,00,AAXX 02121 33837 32684 11201 10282 20144 30042 40090 58001 81100 555 1/054=
33837,2025,09,02,15,00,AAXX 02151 33837 42981 00000 10279 20138 30044 40092 53002==
33837,2025,09,02,18,00,AAXX 02181 33837 32971 60000 10240 20152 30056 40104 53012 86030 333 10291 555 1/025=
33837,2025,09,02,21,00,AAXX 02211 33837 42/83 63201 10244 20136 30066 40114 52010 86030==
33837,2025,09,03,00,00,AAXX 03001 33837 32984 00000 10215 20146 30068 40117 51002 555 1/019=
33837,2025,09,03,03,00,AAXX 03031 33837 42984 03202 10205 20122 30073 40122 52005 333 55119==
33837,2025,09,03,06,00,AAXX 03061 33837 32980 00000 10232 20119 30084 40133 53011 333 20195 555 10033=
33837,2025,09,03,09,00,AAXX 03091 33837 42980 00302 10270 20123 30091 40139 52007==
33837,2025,09,03,12,00,AAXX 03121 33837 32984 01302 10273 20096 30085 40133 58006 555 1/054=
33837,2025,09,03,15,00,AAXX 03151 33837 42984 01602 10258 20123 30083 40131 57002==
33837,2025,09,03,18,00,AAXX 03181 33837 32975 02701 10221 20126 30091 40140 53008 333 10280 555 1/022=
33837,2025,09,03,21,00,AAXX 03211 33837 42984 00000 10208 20117 30097 40146 52006==
33837,2025,09,04,00,00,AAXX 04001 33837 32984 03101 10193 20133 30107 40157 53010 555 1/017=
33837,2025,09,04,03,00,AAXX 04031 33837 42984 00000 10178 20116 30108 40158 51001 333 55120==
33837,2025,09,04,06,00,AAXX 04061 33837 32984 03502 10222 20116 30116 40165 53008 333 20176 555 10030=
33837,2025,09,04,09,00,AAXX 04091 33837 42983 00802 10240 20135 30122 40171 52006==
33837,2025,09,04,12,00,AAXX 04121 33837 32983 01403 10257 20125 30118 40167 58004 555 1/051=
33837,2025,09,04,15,00,AAXX 04151 33837 42984 21801 10259 20084 30113 40162 57005 80004==
33837,2025,09,04,18,00,AAXX 04181 33837 32980 32701 10217 20105 30118 40167 53005 83030 333 10268 555 1/021=
33837,2025,09,04,21,00,AAXX 04211 33837 42983 33301 10206 20101 30120 40169 52002 80004==
33837,2025,09,05,00,00,AAXX 05001 33837 32982 00605 10221 20142 30123 40172 52003 555 1/020=
33837,2025,09,05,03,00,AAXX 05031 33837 42983 03501 10178 20116 30126 40176 52003 333 55120==
33837,2025,09,05,06,00,AAXX 05061 33837 32981 03601 10214 20111 30132 40181 52006 333 20173 555 10030=
33837,2025,09,05,09,00,AAXX 05091 33837 42969 00703 10240 20107 30136 40185 52004==
33837,2025,09,05,12,00,AAXX 05121 33837 32980 01202 10247 20109 30128 40177 58008 555 1/050=
33837,2025,09,05,15,00,AAXX 05151 33837 42983 01501 10244 20071 30120 40169 57008==
33837,2025,09,05,18,00,AAXX 05181 33837 32983 00202 10220 20105 30127 40176 53007 333 10253 555 1/020=
33837,2025,09,05,21,00,AAXX 05211 33837 42982 00606 10226 20125 30131 40180 52004==
33837,2025,09,06,00,00,AAXX 06001 33837 32980 00504 10205 20139 30133 40182 52002 555 1/018=
33837,2025,09,06,03,00,AAXX 06031 33837 42978 03201 10165 20104 30134 40184 52001 333 55120==
33837,2025,09,06,06,00,AAXX 06061 33837 32977 03501 10197 20101 30144 40194 53010 333 20162 555 10027=
33837,2025,09,06,09,00,AAXX 06091 33837 42972 00604 10229 20107 30142 40191 58002==
33837,2025,09,06,12,00,AAXX 06121 33837 32982 01103 10235 20112 30139 40188 57003 555 1/049=
33837,2025,09,06,15,00,AAXX 06151 33837 42983 00000 10233 20097 30133 40182 57006==
33837,2025,09,06,18,00,AAXX 06181 33837 32981 00505 10229 20128 30137 40186 53004 333 10243 555 1/021=
33837,2025,09,06,21,00,AAXX 06211 33837 42982 00204 10203 20110 30142 40192 52005==
33837,2025,09,07,00,00,AAXX 07001 33837 32984 03401 10181 20107 30142 40192 54000 555 1/016=
33837,2025,09,07,03,00,AAXX 07031 33837 42983 03301 10168 20092 30139 40189 58003 333 55118==
33837,2025,09,07,06,00,AAXX 07061 33837 32983 03301 10200 20093 30140 40190 53001 333 20165 555 10029=
33837,2025,09,07,09,00,AAXX 07091 33837 42582 20302 10247 20098 30137 40186 58003 81101==
33837,2025,09,07,12,00,AAXX 07121 33837 32581 51401 10252 20103 30129 40178 58008 82161 555 1/051=
33837,2025,09,07,15,00,AAXX 07151 33837 42581 51201 10249 20092 30124 40173 57005 82401==
33837,2025,09,07,18,00,AAXX 07181 33837 32581 20403 10229 20122 30133 40182 53009 82400 333 10262 555 1/022=
33837,2025,09,07,21,00,AAXX 07211 33837 42/82 30102 10200 20112 30130 40180 58003 82031==
33837,2025,09,08,00,00,AAXX 08001 33837 32982 03201 10196 20106 30124 40174 57006 555 1/017=
33837,2025,09,08,03,00,AAXX 08031 33837 42981 03001 10176 20100 30118 40168 57006 333 55118==
33837,2025,09,08,06,00,AAXX 08061 33837 32977 33301 10206 20110 30119 40168 53001 83030 333 20172 555 10028=
33837,2025,09,08,09,00,AAXX 08091 33837 42/75 20602 10243 20132 30117 40166 58002 82030==
33837,2025,09,08,12,00,AAXX 08121 33837 32582 21402 10265 20098 30107 40155 58010 82200 555 1/052=
33837,2025,09,08,15,00,AAXX 08151 33837 42983 00000 10266 20076 30098 40146 57009==
33837,2025,09,08,18,00,AAXX 08181 33837 32979 02701 10216 20104 30102 40151 53004 333 10272 555 1/021=
33837,2025,09,08,21,00,AAXX 08211 33837 42980 03301 10220 20099 30104 40153 52002==
33837,2025,09,09,00,00,AAXX 09001 33837 32981 00902 10213 20145 30102 40151 58002 555 1/019=
33837,2025,09,09,03,00,AAXX 09031 33837 42981 00403 10197 20149 30102 40151 54000 333 55113==
33837,2025,09,09,06,00,AAXX 09061 33837 32974 03501 10218 20132 30108 40157 53006 333 20193 555 10029=
33837,2025,09,09,09,00,AAXX 09091 33837 42980 10702 10244 20136 30112 40161 52004 80001==
33837,2025,09,09,12,00,AAXX 09121 33837 32582 21302 10250 20148 30105 40154 58007 82201 555 1/052=
33837,2025,09,09,15,00,AAXX 09151 33837 42/84 61001 10242 20125 30104 40153 56001 83039==
33837,2025,09,09,18,00,AAXX 09181 33837 32972 60805 10227 20172 30116 40165 53012 83031 333 10254 555 1/023=
33837,2025,09,09,21,00,AAXX 09211 33837 42/80 80704 10223 20156 30121 40170 51005 86034==
33837,2025,09,10,00,00,AAXX 10001 33837 32981 70506 10210 20146 30128 40177 52007 87030 555 1/020=
33837,2025,09,10,03,00,AAXX 10031 33837 42/83 60605 10201 20133 30130 40180 51002 86030 333 55114==
33837,2025,09,10,06,00,AAXX 10061 33837 32683 83401 10196 20133 30142 40192 53012 8547/ 333 20193 85841 555 10022=
33837,2025,09,10,09,00,AAXX 10091 33837 41569 83602 10190 20143 30148 40198 51006 78082 8637/==
33837,2025,09,10,12,00,AAXX 10121 33837 /1583 63303 10228 20138 30137 40186 58011 70282 82461 555 1/036 69931=
33837,2025,09,10,15,00,AAXX 10151 33837 41456 80808 10193 20165 30143 40193 53006 78182 883//==
33837,2025,09,10,18,00,AAXX 10181 33837 11566 53402 10175 20160 30150 40200 52007 60022 70282 82460 333 10244 555 1/016=
33837,2025,09,10,21,00,AAXX 10211 33837 42982 00504 10206 20152 30147 40196 58003==
33837,2025,09,11,00,00,AAXX 11001 33837 32969 00506 10186 20143 30145 40195 57002 555 1/015=
33837,2025,09,11,03,00,AAXX 11031 33837 42982 00604 10184 20133 30146 40196 53001 333 55010==
33837,2025,09,11,06,00,AAXX 11061 33837 32580 60706 10188 20139 30145 40195 58001 85404 333 20173 85829 555 11023=
33837,2025,09,11,09,00,AAXX 11091 33837 42981 30705 10210 20139 30149 40198 53004 80001==
33837,2025,09,11,12,00,AAXX 11121 33837 32979 60902 10227 20140 30150 40199 51001 80001 555 1/044=
33837,2025,09,11,15,00,AAXX 11151 33837 42981 60702 10215 20149 30140 40189 58010 80006==
33837,2025,09,11,18,00,AAXX 11181 33837 32978 51206 10222 20151 30144 40193 53004 80001 333 10231 555 1/020=
33837,2025,09,11,21,00,AAXX 11211 33837 42/81 21306 10215 20149 30145 40194 51001 82030==
33837,2025,09,12,00,00,AAXX 12001 33837 32976 00908 10201 20157 30140 40190 58005 555 1/018=
33837,2025,09,12,03,00,AAXX 12031 33837 42975 01006 10201 20149 30142 40192 53002 333 55115==
33837,2025,09,12,06,00,AAXX 12061 33837 32972 60806 10200 20148 30151 40201 53009 85031 333 20198 555 10023=
33837,2025,09,12,09,00,AAXX 12091 33837 42/81 61106 10211 20133 30160 40209 52009 85031==
33837,2025,09,12,12,00,AAXX 12121 33837 32980 70702 10220 20120 30167 40216 52007 85031 555 1/030=
33837,2025,09,12,15,00,AAXX 12151 33837 42/83 80000 10214 20114 30164 40213 58003 87031==
33837,2025,09,12,18,00,AAXX 12181 33837 32984 80000 10193 20121 30175 40225 53011 86031 333 10220 555 1/019=
33837,2025,09,12,21,00,AAXX 12211 33837 42/83 80000 10186 20124 30182 40232 52007 8805/==
33837,2025,09,13,00,00,AAXX 13001 33837 32984 63201 10186 20074 30180 40230 58002 80001 555 1/015=
33837,2025,09,13,03,00,AAXX 13031 33837 42983 50000 10166 20075 30189 40239 53009 80001 333 55006==
33837,2025,09,13,06,00,AAXX 13061 33837 32580 70803 10207 20139 30206 40256 53017 82550 333 20163 555 10024=
33837,2025,09,13,09,00,AAXX 13091 33837 42575 21005 10220 20158 30218 40268 51012 82101==
33837,2025,09,13,12,00,AAXX 13121 33837 32580 21304 10226 20123 30216 40266 58002 82100 555 1/044=
33837,2025,09,13,15,00,AAXX 13151 33837 42983 61702 10213 20124 30213 40263 57003 80002==
33837,2025,09,13,18,00,AAXX 13181 33837 32984 21303 10205 20135 30220 40270 53007 80001 333 10232 555 1/019=
33837,2025,09,13,21,00,AAXX 13211 33837 42983 01303 10198 20097 30222 40272 51002==
33837,2025,09,14,00,00,AAXX 14001 33837 32984 00903 10192 20100 30219 40269 58003 555 1/016=
33837,2025,09,14,03,00,AAXX 14031 33837 42/84 50907 10186 20086 30213 40263 57006 83031 333 55091==
33837,2025,09,14,06,00,AAXX 14061 33837 32569 50806 10186 20114 30214 40264 53001 85100 333 20179 85824 555 10024=
33837,2025,09,14,09,00,AAXX 14091 33837 42581 20705 10197 20096 30210 40260 58004 82100==
33837,2025,09,14,12,00,AAXX 14121 33837 32975 00903 10210 20069 30191 40241 58019 555 1/042=
33837,2025,09,14,15,00,AAXX 14151 33837 42981 01401 10206 20079 30176 40226 57015==
33837,2025,09,14,18,00,AAXX 14181 33837 32984 00501 10166 20102 30169 40219 56007 333 10220 555 1/016=
33837,2025,09,14,21,00,AAXX 14211 33837 42977 01107 10199 20131 30156 40206 58013==
33837,2025,09,15,00,00,AAXX 15001 33837 32975 01003 10192 20140 30149 40199 56007 555 1/016=
33837,2025,09,15,03,00,AAXX 15031 33837 42968 00903 10187 20152 30139 40189 57010 333 55116==
33837,2025,09,15,06,00,AAXX 15061 33837 32978 70904 10202 20137 30142 40192 53003 80004 333 20165 555 10025=
33837,2025,09,15,09,00,AAXX 15091 33837 42580 51105 10212 20126 30145 40194 52003 82162==
33837,2025,09,15,12,00,AAXX 15121 33837 32581 61403 10209 20131 30135 40184 58010 82101 555 1/043=
33837,2025,09,15,15,00,AAXX 15151 33837 42983 60000 10210 20129 30133 40182 56002 80001==
33837,2025,09,15,18,00,AAXX 15181 33837 32982 60000 10190 20120 30135 40185 53002 85031 333 10223 555 1/020=
33837,2025,09,15,21,00,AAXX 15211 33837 42/82 63001 10190 20123 30130 40180 58005 83031==
33837,2025,09,16,00,00,AAXX 16001 33837 32984 33001 10175 20120 30125 40175 57005 80001 555 1/015=
33837,2025,09,16,03,00,AAXX 16031 33837 42984 02902 10157 20121 30123 40173 57002 333 55106==
33837,2025,09,16,06,00,AAXX 16061 33837 32981 03001 10178 20118 30124 40174 53001 333 20150 555 10026=
33837,2025,09,16,09,00,AAXX 16091 33837 42982 03302 10246 20059 30125 40174 52001==
33837,2025,09,16,12,00,AAXX 16121 33837 32574 21402 10232 20122 30120 40169 58005 82200 555 1/047=
33837,2025,09,16,15,00,AAXX 16151 33837 42982 01701 10217 20102 30117 40166 57003==
33837,2025,09,16,18,00,AAXX 16181 33837 32978 02401 10186 20107 30119 40169 53002 333 10265 555 1/017=
33837,2025,09,16,21,00,AAXX 16211 33837 42983 02101 10196 20142 30118 40168 58001==
33837,2025,09,17,00,00,AAXX 17001 33837 32983 02201 10196 20138 30108 40157 58010 555 1/015=
33837,2025,09,17,03,00,AAXX 17031 33837 42984 32101 10182 20133 30101 40151 57007 80001 333 55115==
33837,2025,09,17,06,00,AAXX 17061 33837 32983 51602 10219 20110 30102 40151 53001 80001 333 20178 555 10028=
33837,2025,09,17,09,00,AAXX 17091 33837 42/83 61603 10226 20114 30097 40146 58005 82034==
33837,2025,09,17,12,00,AAXX 17121 33837 /1581 82002 10212 20121 30085 40134 58012 78082 8537/ 555 1/026 69901=
33837,2025,09,17,15,00,AAXX 17151 33837 41456 80000 10157 20142 30081 40131 56004 78088 883//==
33837,2025,09,17,18,00,AAXX 17181 33837 11560 80000 10143 20132 30080 40130 57001 60062 78088 883// 333 10231 555 1/016=
33837,2025,09,17,21,00,AAXX 17211 33837 41581 82902 10150 20139 30073 40123 58007 72582 8335/==
33837,2025,09,18,00,00,AAXX 18001 33837 /1484 83103 10138 20115 30077 40127 53004 70282 8555/ 333 85715 555 1/013 69931=
33837,2025,09,18,03,00,AAXX 18031 33837 42569 83103 10139 20109 30084 40134 52007 8257/ 333 55057==
33837,2025,09,18,06,00,AAXX 18061 33837 12580 63106 10146 20098 30097 40147 53013 69932 82531 333 20136 555 11019=
33837,2025,09,18,09,00,AAXX 18091 33837 42582 63107 10184 20097 30104 40154 51007 85461 333 85831==
33837,2025,09,18,12,00,AAXX 18121 33837 32683 63106 10202 20072 30109 40158 52005 85460 555 1/036=
33837,2025,09,18,15,00,AAXX 18151 33837 42584 53107 10195 20066 30119 40169 53010 82461==
33837,2025,09,18,18,00,AAXX 18181 33837 32984 33106 10179 20082 30138 40188 53019 80001 333 10212 555 1/015=
33837,2025,09,18,21,00,AAXX 18211 33837 42984 23003 10165 20082 30149 40199 51011 80001==
33837,2025,09,19,00,00,AAXX 19001 33837 32983 03006 10150 20087 30154 40205 51005 555 1/012=
33837,2025,09,19,03,00,AAXX 19031 33837 42984 03105 10138 20090 30162 40213 52008 333 55108 555 1/011=
33837,2025,09,19,06,00,AAXX 19061 33837 32981 23101 10162 20094 30173 40223 52011 81031 333 20136 555 10023=
33837,2025,09,19,09,00,AAXX 19091 33837 42584 33202 10212 20095 30178 40228 51005 82401==
33837,2025,09,19,12,00,AAXX 19121 33837 32683 23102 10232 20052 30169 40218 58009 82101 555 1/041=
33837,2025,09,19,15,00,AAXX 19151 33837 42684 33103 10223 20073 30169 40218 54000 82460==
33837,2025,09,19,18,00,AAXX 19181 33837 32984 23002 10199 20106 30182 40232 53013 80001 333 10242 555 1/016=
33837,2025,09,19,21,00,AAXX 19211 33837 42/84 62902 10188 20116 30184 40234 51002 82031==
33837,2025,09,20,00,00,AAXX 20001 33837 32983 62902 10175 20126 30183 40233 58001 85031 333 85300 555 1/016=
33837,2025,09,20,03,00,AAXX 20031 33837 42684 32702 10163 20125 30178 40228 58005 82501 333 55109 82644==
33837,2025,09,20,06,00,AAXX 20061 33837 32980 23003 10189 20137 30183 40233 53005 80001 333 20160 555 10026=
33837,2025,09,20,09,00,AAXX 20091 33837 42581 63203 10239 20143 30187 40236 52004 86200 333 86828==
33837,2025,09,20,12,00,AAXX 20121 33837 32580 53302 10251 20102 30178 40227 58009 85100 555 1/040=
33837,2025,09,20,15,00,AAXX 20151 33837 42984 03202 10236 20088 30177 40226 56001==
33837,2025,09,20,18,00,AAXX 20181 33837 32984 03201 10205 20097 30188 40238 53011 333 10266 555 1/017=
33837,2025,09,20,21,00,AAXX 20211 33837 42983 03401 10190 20100 30194 40244 52006==
33837,2025,09,21,00,00,AAXX 21001 33837 32984 00000 10164 20100 30196 40247 52002 555 1/012=
33837,2025,09,21,03,00,AAXX 21031 33837 42984 00000 10146 20114 30196 40247 54000 333 55118==
33837,2025,09,21,06,00,AAXX 21061 33837 32980 20101 10189 20135 30204 40254 53008 80001 333 20144 555 10026=
33837,2025,09,21,09,00,AAXX 21091 33837 42581 11102 10215 20134 30215 40265 52011 81100==
33837,2025,09,21,12,00,AAXX 21121 33837 32981 01402 10212 20131 30203 40253 58012 555 1/042=
33837,2025,09,21,15,00,AAXX 21151 33837 42983 01802 10199 20131 30197 40247 56006==
33837,2025,09,21,18,00,AAXX 21181 33837 32984 02201 10192 20115 30192 40242 57005 333 10219 555 1/015=
33837,2025,09,21,21,00,AAXX 21211 33837 42984 02401 10170 20133 30192 40242 54000==
33837,2025,09,22,00,00,AAXX 22001 33837 32983 00000 10153 20126 30186 40237 58006 555 1/012=
33837,2025,09,22,03,00,AAXX 22031 33837 42960 00000 10147 20134 30182 40233 57004 333 55113==
33837,2025,09,22,06,00,AAXX 22061 33837 32473 50402 10186 20155 30187 40237 53005 85600 333 20139 85711 555 10026=
33837,2025,09,22,09,00,AAXX 22091 33837 42983 01203 10215 20132 30190 40240 52003==
33837,2025,09,22,12,00,AAXX 22121 33837 32983 01502 10207 20141 30180 40230 58010 555 1/041=
33837,2025,09,22,15,00,AAXX 22151 33837 42984 01803 10196 20148 30171 40221 57009==
33837,2025,09,22,18,00,AAXX 22181 33837 32984 01901 10180 20139 30168 40218 56003 333 10218 555 1/014=
33837,2025,09,22,21,00,AAXX 22211 33837 42982 02601 10158 20135 30160 40210 57008==
33837,2025,09,23,00,00,AAXX 23001 33837 32980 00000 10162 20140 30150 40200 57010 555 1/012=
33837,2025,09,23,03,00,AAXX 23031 33837 41924 00000 10150 20139 30152 40202 53002 71000 333 55110==
33837,2025,09,23,06,00,AAXX 23061 33837 32481 60101 10180 20151 30148 40198 58004 86600 333 20146 86713 555 10026=
33837,2025,09,23,09,00,AAXX 23091 33837 42481 20902 10209 20161 30152 40201 53004 82600==
33837,2025,09,23,12,00,AAXX 23121 33837 32981 01604 10214 20155 30142 40191 58010 555 1/040=
33837,2025,09,23,15,00,AAXX 23151 33837 42982 01902 10201 20147 30130 40179 57012==
33837,2025,09,23,18,00,AAXX 23181 33837 32978 02402 10187 20150 30128 40178 56002 333 10222 555 1/016=
33837,2025,09,23,21,00,AAXX 23211 33837 42969 02702 10170 20150 30129 40179 53001==
33837,2025,09,24,00,00,AAXX 24001 33837 31959 02802 10162 20149 30125 40175 58004 71000 555 1/014=
33837,2025,09,24,03,00,AAXX 24031 33837 41959 02801 10147 20136 30122 40172 57003 71000 333 55101==
33837,2025,09,24,06,00,AAXX 24061 33837 32981 20000 10194 20142 30127 40177 53005 80001 333 20143 555 10023=
33837,2025,09,24,09,00,AAXX 24091 33837 42980 20502 10216 20143 30125 40174 58002 80001==
33837,2025,09,24,12,00,AAXX 24121 33837 32984 51602 10250 20126 30109 40158 58016 80001 555 1/046=
33837,2025,09,24,15,00,AAXX 24151 33837 42984 31501 10231 20144 30103 40152 56006 80001==
33837,2025,09,24,18,00,AAXX 24181 33837 32981 63403 10194 20104 30126 40176 53023 86030 333 10270 555 1/018=
33837,2025,09,24,21,00,AAXX 24211 33837 42981 03603 10160 20077 30141 40191 51015==
33837,2025,09,25,00,00,AAXX 25001 33837 32684 60106 10145 20061 30153 40204 52012 85501 333 85636 555 1/015=
33837,2025,09,25,03,00,AAXX 25031 33837 42584 80106 10138 20038 30158 40209 51005 82551 333 55113==
33837,2025,09,25,06,00,AAXX 25061 33837 32584 70106 10144 20055 30174 40225 53016 83550 333 20134 555 10018=
33837,2025,09,25,09,00,AAXX 25091 33837 42581 80107 10160 20050 30186 40237 52012 8457/==
33837,2025,09,25,12,00,AAXX 25121 33837 32584 70105 10150 20019 30191 40242 51005 83550 555 1/022=
33837,2025,09,25,15,00,AAXX 25151 33837 42584 50404 10166 20011 30191 40242 54000 82551==
33837,2025,09,25,18,00,AAXX 25181 33837 32984 30206 10155 20023 30211 40262 53020 80001 333 10172 555 1/012=
33837,2025,09,25,21,00,AAXX 25211 33837 42984 30307 10134 20029 30224 40275 53013 80001==
33837,2025,09,26,00,00,AAXX 26001 33837 32984 00306 10120 20038 30234 40286 52010 555 1/009=
33837,2025,09,26,03,00,AAXX 26031 33837 42984 00105 10102 20028 30244 40296 52010 333 55024==
33837,2025,09,26,06,00,AAXX 26061 33837 32980 00203 10120 20040 30255 40307 52011 333 20096 555 10017=
33837,2025,09,26,09,00,AAXX 26091 33837 42983 20706 10147 20035 30259 40310 51004 80001==
33837,2025,09,26,12,00,AAXX 26121 33837 32983 20504 10161 20002 30252 40303 58007 80001 555 1/037=
33837,2025,09,26,15,00,AAXX 26151 33837 42984 50604 10162 20003 30247 40298 57005 80001==
33837,2025,09,26,18,00,AAXX 26181 33837 32984 30506 10159 20023 30250 40301 53003 80001 333 10167 555 1/013=
33837,2025,09,26,21,00,AAXX 26211 33837 42983 00707 10147 20047 30250 40301 54000==
33837,2025,09,27,00,00,AAXX 27001 33837 32982 20406 10126 20043 30244 40296 58006 80001 555 1/010=
33837,2025,09,27,03,00,AAXX 27031 33837 42984 23601 10090 20034 30242 40294 57002 80001 333 55112==
33837,2025,09,27,06,00,AAXX 27061 33837 32981 03601 10109 20037 30244 40296 53002 333 20080 555 10017=
33837,2025,09,27,09,00,AAXX 27091 33837 42581 20502 10130 20028 30241 40292 58003 82100==
33837,2025,09,27,12,00,AAXX 27121 33837 32581 21002 10149 20011 30224 40275 58017 81130 555 1/039=
33837,2025,09,27,15,00,AAXX 27151 33837 42/84 21002 10141 20020 30210 40261 57014 82030==
33837,2025,09,27,18,00,AAXX 27181 33837 32982 00000 10104 20032 30203 40255 56007 333 10153 555 1/007=
33837,2025,09,27,21,00,AAXX 27211 33837 42981 02901 10094 20032 30196 40248 57007==
33837,2025,09,28,00,00,AAXX 28001 33837 32982 02902 10093 20043 30181 40233 58015 555 1/006=
33837,2025,09,28,03,00,AAXX 28031 33837 42983 03001 10083 20023 30172 40224 56009 333 55109==
33837,2025,09,28,06,00,AAXX 28061 33837 32969 13501 10132 20024 30174 40225 53002 80001 333 20080 555 10020=
33837,2025,09,28,09,00,AAXX 28091 33837 42582 20802 10160 20031 30166 40217 58008 82101==
33837,2025,09,28,12,00,AAXX 28121 33837 32983 01203 10162 20026 30154 40204 57012 555 1/031=
33837,2025,09,28,15,00,AAXX 28151 33837 42983 01501 10144 20017 30146 40197 57008==
33837,2025,09,28,18,00,AAXX 28181 33837 32983 00000 10103 20033 30143 40194 57003 333 10165 555 1/008=
33837,2025,09,28,21,00,AAXX 28211 33837 42984 00000 10113 20038 30136 40187 57007==
33837,2025,09,29,00,00,AAXX 29001 33837 32981 03501 10107 20042 30132 40183 57004 555 1/006=
33837,2025,09,29,03,00,AAXX 29031 33837 42982 00000 10095 20047 30129 40180 57003 333 55106==
33837,2025,09,29,06,00,AAXX 29061 33837 32974 53401 10121 20048 30127 40178 57002 82031 333 20090 555 10019=
33837,2025,09,29,09,00,AAXX 29091 33837 42569 60504 10160 20044 30122 40172 57005 82565==
33837,2025,09,29,12,00,AAXX 29121 33837 32584 80704 10170 20079 30116 40166 57006 83564 555 1/025=
33837,2025,09,29,15,00,AAXX 29151 33837 42582 60703 10172 20061 30115 40165 56001 82531==
33837,2025,09,29,18,00,AAXX 29181 33837 32980 73201 10156 20055 30114 40164 57001 85051 333 10177 555 1/014=
33837,2025,09,29,21,00,AAXX 29211 33837 42483 71005 10156 20110 30117 40167 53003 85531 333 85619==
33837,2025,09,30,00,00,AAXX 30001 33837 /1361 80707 10145 20105 30114 40164 58003 79598 889// 555 1/013 69901=
33837,2025,09,30,03,00,AAXX 30031 33837 41356 80605 10124 20103 30116 40167 53002 78198 883// 333 55053==
33837,2025,09,30,06,00,AAXX 30061 33837 11344 80609 10127 20114 30110 40161 58006 60212 78198 883// 333 20116 555 11012=
33837,2025,09,30,09,00,AAXX 30091 33837 41358 80910 10133 20119 30115 40166 53005 78188 883//==
33837,2025,09,30,12,00,AAXX 30121 33837 /1347 80705 10127 20118 30116 40167 52001 78288 883// 555 1/013 60471=
33837,2025,09,30,15,00,AAXX 30151 33837 41328 82507 10103 20089 30122 40173 53006 78188 883//==
33837,2025,09,30,18,00,AAXX 30181 33837 11460 80915 10130 20111 30106 40157 58016 60732 72582 883// 333 10139 88910 91022 91122 555 1/012=
33837,2025,09,30,21,00,AAXX 30211 33837 41580 80705 10126 20096 30107 40158 53001 70282 885// 333 88626==
33837,2025,10,01,00,00,AAXX 01001 33837 /1962 80702 10124 20110 30096 40147 58011 70282 8805/ 555 1/011 69911=
33837,2025,10,01,03,00,AAXX 01031 33837 42260 80901 10117 20106 30100 40151 53004 885// 333 55000 88704==
33837,2025,10,01,06,00,AAXX 01061 33837 12375 80702 10124 20106 30109 40160 53009 69912 885// 333 20113 88707 555 11012=
33837,2025,10,01,09,00,AAXX 01091 33837 41358 83102 10109 20098 30116 40167 52007 78082 883//==
33837,2025,10,01,12,00,AAXX 01121 33837 /1362 83104 10093 20074 30128 40179 53012 70282 885// 333 88707 555 1/011 60021=
33837,2025,10,01,15,00,AAXX 01151 33837 41360 83003 10088 20076 30140 40192 52012 78082 883//==
33837,2025,10,01,18,00,AAXX 01181 33837 11261 83002 10083 20072 30150 40202 52010 60032 72582 883// 333 10127 88706 555 1/009=
33837,2025,10,01,21,00,AAXX 01211 33837 41256 83103 10076 20064 30152 40204 51002 71022 886// 333 88705==
33837,2025,10,02,00,00,AAXX 02001 33837 31257 83001 10072 20060 30157 40209 52005 71022 886// 333 88704 555 1/008=
33837,2025,10,02,03,00,AAXX 02031 33837 41457 63102 10070 20050 30158 40210 52001 71022 86500 333 55000 86710==
33837,2025,10,02,06,00,AAXX 02061 33837 32482 83102 10069 20044 30167 40219 53009 8655/ 333 20068 86710 555 11009=
33837,2025,10,02,09,00,AAXX 02091 33837 42484 83102 10076 20046 30178 40230 52011 885// 333 88710==
33837,2025,10,02,12,00,AAXX 02121 33837 32484 83302 10088 20050 30172 40224 58006 885// 333 88713 555 1/012=
33837,2025,10,02,15,00,AAXX 02151 33837 42484 83501 10091 20055 30172 40224 54000 885// 333 88715==
33837,2025,10,02,18,00,AAXX 02181 33837 32481 83301 10086 20059 30168 40220 58004 87504 333 10095 86711 555 1/008=
33837,2025,10,02,21,00,AAXX 02211 33837 42467 83302 10084 20060 30161 40213 57007 885// 333 87710==
33837,2025,10,03,00,00,AAXX 03001 33837 31357 83401 10086 20071 30147 40199 58014 71022 886// 333 88707 555 1/008=
33837,2025,10,03,03,00,AAXX 03031 33837 41256 83401 10090 20074 30134 40186 57013 71022 886// 333 55000 88705==
33837,2025,10,03,06,00,AAXX 03061 33837 31356 80103 10101 20082 30126 40177 56008 71022 86531 333 20084 86707 555 11010=
33837,2025,10,03,09,00,AAXX 03091 33837 42478 80409 10133 20103 30112 40163 58014 87501 333 87712==
33837,2025,10,03,12,00,AAXX 03121 33837 32480 80708 10150 20104 30101 40151 57011 885// 333 88718 555 1/013=
33837,2025,10,03,15,00,AAXX 03151 33837 42683 70102 10166 20120 30087 40137 57014 83531 333 83640==
33837,2025,10,03,18,00,AAXX 03181 33837 32577 50808 10157 20100 30091 40141 53004 85500 333 10171 85623 555 1/012=
33837,2025,10,03,21,00,AAXX 03211 33837 42670 30805 10154 20100 30084 40134 58007 83500 333 83646==
33837,2025,10,04,00,00,AAXX 04001 33837 32674 20804 10148 20096 30075 40125 57009 82501 555 1/012=
33837,2025,10,04,03,00,AAXX 04031 33837 41473 80705 10139 20107 30077 40127 53002 72581 8635/ 333 55013 86913==
33837,2025,10,04,06,00,AAXX 04061 33837 11461 80405 10132 20118 30072 40122 58005 60032 78082 883// 333 20132 555 11013=
33837,2025,10,04,09,00,AAXX 04091 33837 41350 80706 10134 20125 30077 40127 53005 78188 883//==
33837,2025,10,04,12,00,AAXX 04121 33837 /1358 80904 10151 20141 30068 40118 58009 78082 87301 555 1/016 60141=
33837,2025,10,04,15,00,AAXX 04151 33837 41580 52101 10162 20135 30064 40114 56004 70282 82251==
33837,2025,10,04,18,00,AAXX 04181 33837 11482 82102 10147 20118 30067 40117 53003 60142 70282 85551 333 10170 85717 555 1/012=
33837,2025,10,04,21,00,AAXX 04211 33837 42373 72204 10126 20105 30067 40118 54000 87600 333 87708==
33837,2025,10,05,00,00,AAXX 05001 33837 32368 82402 10107 20088 30063 40114 58004 885// 333 87709 555 1/010=
33837,2025,10,05,03,00,AAXX 05031 33837 42370 62402 10097 20076 30061 40112 57002 86600 333 55013 86709==
33837,2025,10,05,06,00,AAXX 05061 33837 32981 22304 10111 20066 30065 40116 53004 80001 333 20094 555 11014=
33837,2025,10,05,09,00,AAXX 05091 33837 42/84 22403 10153 20055 30068 40118 52003 81031==
33837,2025,10,05,12,00,AAXX 05121 33837 32583 52401 10165 20072 30068 40118 54000 85100 555 1/021=
33837,2025,10,05,15,00,AAXX 05151 33837 42583 52401 10153 20078 30076 40126 53008 85400==
33837,2025,10,05,18,00,AAXX 05181 33837 32983 22301 10122 20079 30088 40139 52012 80001 333 10166 555 1/010=
33837,2025,10,05,21,00,AAXX 05211 33837 42/72 72501 10114 20088 30093 40144 51005 87050==
33837,2025,10,06,00,00,AAXX 06001 33837 32982 52701 10109 20078 30094 40145 52001 85030 555 1/009=
33837,2025,10,06,03,00,AAXX 06031 33837 42/68 60000 10110 20080 30089 40140 58005 86030 333 55099==
33837,2025,10,06,06,00,AAXX 06061 33837 32562 73401 10137 20112 30096 40146 53007 82551 333 20107 555 11015=
33837,2025,10,06,09,00,AAXX 06091 33837 42583 71301 10167 20099 30100 40150 52004 85861 333 85825==
33837,2025,10,06,12,00,AAXX 06121 33837 32583 81203 10168 20106 30095 40145 58005 85561 333 85626 555 1/018=
33837,2025,10,06,15,00,AAXX 06151 33837 41470 81003 10157 20105 30095 40145 54000 78082 8635/==
33837,2025,10,06,18,00,AAXX 06181 33837 11479 80506 10146 20110 30091 40141 58004 60012 78082 8635/ 333 10172 555 1/013=
33837,2025,10,06,21,00,AAXX 06211 33837 41482 80806 10145 20111 30092 40142 53001 78088 8635/==
33837,2025,10,07,00,00,AAXX 07001 33837 /1580 83501 10135 20105 30086 40136 58006 70282 8655/ 333 86627 555 1/012 69951=
33837,2025,10,07,03,00,AAXX 07031 33837 41340 80203 10122 20108 30077 40128 57009 78282 883// 333 55012==
33837,2025,10,07,06,00,AAXX 07061 33837 11364 80606 10141 20123 30078 40128 53001 60092 78082 883// 333 20120 555 11013=
33837,2025,10,07,09,00,AAXX 07091 33837 41366 80405 10145 20129 30083 40133 52005 72582 883// 333 88907==
33837,2025,10,07,12,00,AAXX 07121 33837 /1358 83601 10149 20134 30078 40128 58005 78082 883// 555 1/016 69901=
33837,2025,10,07,15,00,AAXX 07151 33837 41357 83401 10146 20133 30074 40124 57004 76186 8872/==
33837,2025,10,07,18,00,AAXX 07181 33837 11357 80104 10143 20130 30075 40125 53001 60032 76186 8872/ 333 10154 555 1/013=
33837,2025,10,07,21,00,AAXX 07211 33837 41366 80306 10152 20127 30067 40117 58008 78086 883//==
33837,2025,10,08,00,00,AAXX 08001 33837 /1362 80103 10140 20122 30056 40106 57011 78086 883// 555 1/013 60021=
33837,2025,10,08,03,00,AAXX 08031 33837 41460 80104 10138 20120 30044 40094 57012 78082 883// 333 55000==
33837,2025,10,08,06,00,AAXX 08061 33837 11456 80102 10135 20119 30038 40088 56006 60042 78182 883// 333 20134 555 11013=
33837,2025,10,08,09,00,AAXX 08091 33837 41459 80102 10133 20120 30024 40074 58014 78088 883//==
33837,2025,10,08,12,00,AAXX 08121 33837 /1356 83502 10137 20124 30024 40074 54000 76186 8872/ 555 1/015 60051=
33837,2025,10,08,15,00,AAXX 08151 33837 41460 83402 10137 20124 30019 40069 58005 78086 8635/==
33837,2025,10,08,18,00,AAXX 08181 33837 11664 83201 10139 20118 30024 40074 53005 60062 70282 8655/ 333 10142 86637 555 1/013=
33837,2025,10,08,21,00,AAXX 08211 33837 42664 83202 10136 20113 30022 40072 58002 8555/ 333 85637==
33837,2025,10,09,00,00,AAXX 09001 33837 32666 83202 10132 20111 30015 40065 58007 8555/ 333 85638 555 1/012=
33837,2025,10,09,03,00,AAXX 09031 33837 41570 83102 10128 20103 30014 40064 56001 78082 8635/ 333 55000==
33837,2025,10,09,06,00,AAXX 09061 33837 11663 83201 10129 20106 30023 40073 53009 69902 70282 8555/ 333 20124 85645 555 11015=
33837,2025,10,09,09,00,AAXX 09091 33837 42469 83203 10146 20106 30027 40077 52004 8555/ 333 85713==
33837,2025,10,09,12,00,AAXX 09121 33837 32584 63103 10153 20097 30030 40080 52003 86501 333 86023 555 1/018=
33837,2025,10,09,15,00,AAXX 09151 33837 41580 82801 10133 20099 30042 40092 53012 78082 8635/==
33837,2025,10,09,18,00,AAXX 09181 33837 11360 82802 10124 20111 30047 40097 51005 60022 72582 8635/ 333 10165 86908 555 1/012=
33837,2025,10,09,21,00,AAXX 09211 33837 41472 83002 10119 20105 30057 40108 52010 70282 8655/ 333 86714==
33837,2025,10,10,00,00,AAXX 10001 33837 /1359 83002 10119 20103 30071 40122 52014 76186 8872/ 555 1/011 69951=
33837,2025,10,10,03,00,AAXX 10031 33837 41583 82902 10114 20091 30082 40133 52011 78086 8635/ 333 55016==
33837,2025,10,10,06,00,AAXX 10061 33837 11580 82903 10116 20086 30092 40143 52010 60012 70282 85551 333 20110 555 11012=
33837,2025,10,10,09,00,AAXX 10091 33837 41473 83004 10140 20086 30106 40157 52014 70282 85551 333 85619==
33837,2025,10,10,12,00,AAXX 10121 33837 /1674 73003 10151 20083 30109 40159 51003 70282 86501 333 86636 555 1/017 69901=
33837,2025,10,10,15,00,AAXX 10151 33837 41484 72902 10142 20090 30111 40161 52002 72522 85301==
33837,2025,10,10,18,00,AAXX 10181 33837 11984 73001 10135 20084 30113 40164 52002 69902 70282 86051 333 10171 555 1/012=
33837,2025,10,10,21,00,AAXX 10211 33837 41465 82801 10111 20090 30106 40157 58007 78082 8635/==
33837,2025,10,11,00,00,AAXX 11001 33837 /1476 82802 10107 20095 30098 40149 57008 78082 883// 555 1/011 60011=
33837,2025,10,11,03,00,AAXX 11031 33837 41981 22902 10093 20076 30095 40146 56003 70281 80001 333 55025==
33837,2025,10,11,06,00,AAXX 11061 33837 11573 63007 10097 20070 30100 40151 53005 60012 70282 85501 333 20090 85625 555 11011=
33837,2025,10,11,09,00,AAXX 11091 33837 41482 83102 10114 20079 30102 40153 52002 72582 85571 333 85713==
33837,2025,10,11,12,00,AAXX 11121 33837 /1469 83103 10109 20085 30102 40153 54000 78082 8635/ 555 1/015 69911=
33837,2025,10,11,15,00,AAXX 11151 33837 41483 83103 10116 20079 30110 40161 53008 70282 85561 333 85619==
33837,2025,10,11,18,00,AAXX 11181 33837 11584 83105 10108 20062 30123 40174 52013 69912 70282 83531 333 10130 555 1/010=
33837,2025,10,11,21,00,AAXX 11211 33837 42584 83103 10107 20063 30126 40177 51003 8353/==
33837,2025,10,12,00,00,AAXX 12001 33837 32984 32902 10089 20053 30124 40176 58002 80001 555 1/006=
33837,2025,10,12,03,00,AAXX 12031 33837 42/84 62802 10075 20046 30124 40176 54000 86030 333 55021==
33837,2025,10,12,06,00,AAXX 12061 33837 32580 60000 10090 20056 30130 40182 53006 82862 333 20071 555 11010=
33837,2025,10,12,09,00,AAXX 12091 33837 42481 63201 10126 20091 30132 40183 52002 83501 333 83712==
33837,2025,10,12,12,00,AAXX 12121 33837 /1584 53202 10157 20087 30127 40177 58005 70282 83801 555 1/023 69901=
33837,2025,10,12,15,00,AAXX 12151 33837 42584 50000 10139 20077 30124 40175 57003 83401==
33837,2025,10,12,18,00,AAXX 12181 33837 12983 22601 10111 20076 30126 40177 53002 69902 80001 333 10166 555 1/009=
33837,2025,10,12,21,00,AAXX 12211 33837 42684 72701 10115 20070 30123 40174 58003 85550 333 85647==
33837,2025,10,13,00,00,AAXX 13001 33837 32584 82802 10125 20076 30112 40163 58011 8555/ 555 1/010=
33837,2025,10,13,03,00,AAXX 13031 33837 42568 82801 10119 20080 30106 40157 56006 8655/ 333 55038==
33837,2025,10,13,06,00,AAXX 13061 33837 11483 82802 10124 20083 30110 40161 53004 69902 72522 85351 333 20102 85919 555 11012=
33837,2025,10,13,09,00,AAXX 13091 33837 41584 83203 10115 20066 30125 40176 53015 72522 8635/ 333 86926==
33837,2025,10,13,12,00,AAXX 13121 33837 /1582 73203 10117 20032 30136 40187 52011 70282 83861 333 83827 555 1/016 69901=
33837,2025,10,13,15,00,AAXX 13151 33837 42584 62902 10110 20033 30144 40195 52008 82131==
33837,2025,10,13,18,00,AAXX 13181 33837 12983 32701 10079 20034 30156 40208 52012 69902 80001 333 10132 555 1/005=
33837,2025,10,13,21,00,AAXX 13211 33837 42984 02702 10071 20026 30158 40210 51002==
33837,2025,10,14,00,00,AAXX 14001 33837 32984 02702 10061 20022 30158 40210 54000 555 1/004=
33837,2025,10,14,03,00,AAXX 14031 33837 42984 32702 10059 20024 30155 40207 58003 80001 333 55010==
33837,2025,10,14,06,00,AAXX 14061 33837 32975 82701 10074 20031 30156 40208 53001 86031 333 20057 555 11007=
33837,2025,10,14,09,00,AAXX 14091 33837 42980 62802 10137 20017 30155 40206 58001 80009==
33837,2025,10,14,12,00,AAXX 14121 33837 /1584 72902 10136 20022 30145 40196 58010 78082 86361 555 1/016 69901=
33837,2025,10,14,15,00,AAXX 14151 33837 41475 83002 10085 20053 30156 40208 53011 78082 883//==
33837,2025,10,14,18,00,AAXX 14181 33837 11984 83002 10082 20044 30160 40212 51004 60012 70282 8805/ 333 10150 555 1/007=
33837,2025,10,14,21,00,AAXX 14211 33837 42981 02701 10066 20039 30166 40218 52006==
33837,2025,10,15,00,00,AAXX 15001 33837 32984 02802 10055 20030 30170 40222 52004 555 1/003=
33837,2025,10,15,03,00,AAXX 15031 33837 42984 03101 10055 20022 30176 40228 52006 333 55060 555 1/003=
33837,2025,10,15,06,00,AAXX 15061 33837 32983 00000 10075 20043 30187 40239 52011 333 20042 555 11008=
33837,2025,10,15,09,00,AAXX 15091 33837 42584 23401 10117 20011 30194 40245 52007 82100==
33837,2025,10,15,12,00,AAXX 15121 33837 32683 50201 10113 20026 30187 40238 58007 85400 333 85844 555 1/015=
33837,2025,10,15,15,00,AAXX 15151 33837 42684 60000 10109 20030 30189 40241 53002 86460 333 86843==
33837,2025,10,15,18,00,AAXX 15181 33837 32983 52501 10073 20034 30196 40248 53007 80001 333 10129 555 1/005=
33837,2025,10,15,21,00,AAXX 15211 33837 42984 02601 10074 20035 30199 40251 52003==
33837,2025,10,16,00,00,AAXX 16001 33837 32984 22701 10066 20038 30200 40252 52001 82030 555 1/003=
33837,2025,10,16,03,00,AAXX 16031 33837 42984 02702 10065 20029 30200 40252 54000 333 55087==
33837,2025,10,16,06,00,AAXX 16061 33837 32971 52701 10089 20039 30205 40257 53005 82031 333 20060 555 10009=
33837,2025,10,16,09,00,AAXX 16091 33837 42577 50202 10138 20018 30211 40262 52006 83101==
33837,2025,10,16,12,00,AAXX 16121 33837 32583 61502 10127 20005 30205 40256 58006 83451 555 1/016=
33837,2025,10,16,15,00,AAXX 16151 33837 42/70 62201 10124 20049 30202 40253 57003 86030==
33837,2025,10,16,18,00,AAXX 16181 33837 32984 62302 10117 20032 30204 40255 53002 85031 333 10145 555 1/009=
33837,2025,10,16,21,00,AAXX 16211 33837 42/84 32501 10104 20034 30206 40258 52002 82031==
33837,2025,10,17,00,00,AAXX 17001 33837 32984 80000 10104 20039 30202 40254 58004 8805/ 555 1/008=
33837,2025,10,17,03,00,AAXX 17031 33837 42/84 82101 10122 20051 30192 40243 58010 86051 333 55083==
33837,2025,10,17,06,00,AAXX 17061 33837 11478 82003 10131 20050 30197 40248 53005 69902 78082 85331 333 20090 555 11011=
33837,2025,10,17,09,00,AAXX 17091 33837 41584 82102 10145 20066 30195 40246 58002 70282 85531 333 85633==
33837,2025,10,17,12,00,AAXX 17121 33837 /1684 71903 10149 20075 30186 40237 58009 70282 82531 333 82637 555 1/019 69901=
33837,2025,10,17,15,00,AAXX 17151 33837 42683 82102 10141 20076 30181 40232 57005 85531 333 85640==
33837,2025,10,17,18,00,AAXX 17181 33837 12684 82002 10139 20070 30181 40232 54000 69902 82531 333 10163 555 1/011=
33837,2025,10,17,21,00,AAXX 17211 33837 42/84 52202 10132 20068 30181 40232 54000 85030==
33837,2025,10,18,00,00,AAXX 18001 33837 32984 32302 10126 20077 30174 40225 58007 83030 555 1/009=
33837,2025,10,18,03,00,AAXX 18031 33837 42684 52402 10122 20081 30169 40220 57005 83530 333 55023 83639==
33837,2025,10,18,06,00,AAXX 18061 33837 32583 72501 10136 20091 30169 40220 54000 82531 333 20118 555 10013=
33837,2025,10,18,09,00,AAXX 18091 33837 42583 81902 10155 20090 30165 40216 58004 8555/ 333 38/// 85627==
33837,2025,10,18,12,00,AAXX 18121 33837 32584 71703 10150 20089 30151 40202 58014 82550 555 1/019=
33837,2025,10,18,15,00,AAXX 18151 33837 42/84 61802 10138 20095 30139 40190 57012 84039==
33837,2025,10,18,18,00,AAXX 18181 33837 32584 62102 10138 20088 30132 40183 57007 84530 333 10157 84624 555 1/011=
33837,2025,10,18,21,00,AAXX 18211 33837 42/84 72202 10135 20086 30126 40177 57006 87050==
33837,2025,10,19,00,00,AAXX 19001 33837 /1466 83001 10122 20098 30111 40162 58015 78082 8635/ 555 1/011 69911=
33837,2025,10,19,03,00,AAXX 19031 33837 41465 83103 10103 20089 30108 40159 56003 78082 8635/ 333 55011==
33837,2025,10,19,06,00,AAXX 19061 33837 11569 63102 10083 20039 30124 40176 53016 60032 70282 82550 333 20080 555 11010=
33837,2025,10,19,09,00,AAXX 19091 33837 42581 53105 10105 20026 30126 40177 51002 82101==
33837,2025,10,19,12,00,AAXX 19121 33837 32584 63003 10098 20024 30124 40175 58002 85550 333 85631 555 1/012=
33837,2025,10,19,15,00,AAXX 19151 33837 42684 73102 10085 20016 30126 40178 53002 85860 333 85638==
33837,2025,10,19,18,00,AAXX 19181 33837 32583 62901 10071 20014 30133 40185 53007 84530 333 10110 84632 555 1/005=
33837,2025,10,19,21,00,AAXX 19211 33837 42984 32902 10057 20011 30128 40180 58005 80001==
33837,2025,10,20,00,00,AAXX 20001 33837 32984 02701 10050 21002 30126 40178 57002 555 1/002=
33837,2025,10,20,03,00,AAXX 20031 33837 42984 02902 10047 21007 30119 40171 58007 333 55039==
33837,2025,10,20,06,00,AAXX 20061 33837 32584 32702 10053 21003 30119 40171 54000 81530 333 20037 555 11008=
33837,2025,10,20,09,00,AAXX 20091 33837 42580 63102 10089 20018 30121 40173 53002 85401 333 85824==
33837,2025,10,20,12,00,AAXX 20121 33837 32584 72802 10108 20024 30118 40169 58003 86401 333 86628 555 1/019=
33837,2025,10,20,15,00,AAXX 20151 33837 42583 73102 10095 20030 30122 40173 53004 86401 333 86631==
33837,2025,10,20,18,00,AAXX 20181 33837 32580 70000 10074 20025 30130 40182 52008 83531 333 10114 555 1/007=
33837,2025,10,20,21,00,AAXX 20211 33837 42682 30000 10069 20028 30135 40187 52005 83500 333 83646==
33837,2025,10,21,00,00,AAXX 21001 33837 32981 22703 10051 20025 30134 40186 58001 80001 555 1/004=
33837,2025,10,21,03,00,AAXX 21031 33837 42980 22702 10039 20019 30132 40185 57002 80001 333 55078==
33837,2025,10,21,06,00,AAXX 21061 33837 32975 02801 10068 20038 30137 40189 53005 333 20037 555 11009=
33837,2025,10,21,09,00,AAXX 21091 33837 42982 00901 10101 20034 30143 40194 52006==
33837,2025,10,21,12,00,AAXX 21121 33837 32983 01503 10113 20038 30130 40181 58013 555 1/023=
33837,2025,10,21,15,00,AAXX 21151 33837 42984 02001 10104 20041 30123 40174 56007==
33837,2025,10,21,18,00,AAXX 21181 33837 32984 01903 10114 20063 30118 40169 57005 333 10117 555 1/008=
33837,2025,10,21,21,00,AAXX 21211 33837 42584 72003 10131 20084 30113 40164 57005 86530 333 86625==
33837,2025,10,22,00,00,AAXX 22001 33837 32584 82003 10134 20089 30104 40155 57009 8655/ 333 86628 555 1/011=
33837,2025,10,22,03,00,AAXX 22031 33837 42584 82003 10135 20084 30100 40151 56004 8655/ 333 55084 86624==
33837,2025,10,22,06,00,AAXX 22061 33837 32581 71803 10138 20076 30101 40152 53001 85530 333 20114 85632 555 10012=
33837,2025,10,22,09,00,AAXX 22091 33837 42581 71803 10138 20076 30101 40152 53001 85530 333 20114 30/// 85632==
33837,2025,10,22,12,00,AAXX 22121 33837 32984 61703 10147 20084 30099 40149 58007 86030 555 1/019=
33837,2025,10,22,15,00,AAXX 22151 33837 42984 01703 10135 20084 30097 40148 57002==
33837,2025,10,22,18,00,AAXX 22181 33837 32584 21503 10136 20095 30097 40148 54000 82500 333 10156 555 1/010=
33837,2025,10,22,21,00,AAXX 22211 33837 42984 01504 10133 20099 30098 40149 53001==
33837,2025,10,23,00,00,AAXX 23001 33837 32984 01503 10133 20095 30093 40144 58005 555 1/009=
33837,2025,10,23,03,00,AAXX 23031 33837 42984 01302 10129 20092 30088 40139 57005 333 55031==
33837,2025,10,23,06,00,AAXX 23061 33837 32981 51203 10137 20099 30089 40139 53001 82032 333 20128 555 10014=
33837,2025,10,23,09,00,AAXX 23091 33837 42381 61304 10141 20111 30089 40139 54000 86600 333 86708==
33837,2025,10,23,12,00,AAXX 23121 33837 32381 71404 10143 20116 30073 40123 58016 87500 333 87708 555 1/020=
33837,2025,10,23,15,00,AAXX 23151 33837 42382 81403 10141 20118 30064 40114 56009 8557/ 333 85708==
33837,2025,10,23,18,00,AAXX 23181 33837 32375 81503 10143 20127 30055 40105 57009 885// 333 10148 88707 555 1/013=
33837,2025,10,23,21,00,AAXX 23211 33837 42368 81405 10149 20133 30047 40097 57008 886// 333 88707==
33837,2025,10,24,00,00,AAXX 24001 33837 31131 81604 10153 20143 30031 40081 58016 71022 886// 333 88704 555 1/014=
33837,2025,10,24,03,00,AAXX 24031 33837 41127 81702 10151 20141 30017 40067 57014 71022 886// 333 55057 88702==
33837,2025,10,24,06,00,AAXX 24061 33837 31148 81606 10154 20144 30007 40057 57010 71022 886// 333 20143 88701 555 10015=
33837,2025,10,24,09,00,AAXX 24091 33837 41156 81607 10158 20147 39997 40047 57010 71022 886// 333 88703==
33837,2025,10,24,12,00,AAXX 24121 33837 31359 81607 10160 20145 39975 40024 58022 71022 886// 333 88707 555 1/018=
33837,2025,10,24,15,00,AAXX 24151 33837 41458 81705 10162 20144 39956 40005 57019 71022 885// 333 88711==
33837,2025,10,24,18,00,AAXX 24181 33837 11462 82302 10160 20142 39949 49998 56007 60012 78082 883// 333 10164 555 1/014=
33837,2025,10,24,21,00,AAXX 24211 33837 41669 52602 10136 20111 39967 40017 53018 70282 85500 333 85638==
33837,2025,10,25,00,00,AAXX 25001 33837 /1984 22803 10116 20069 39991 40041 53024 70281 80001 555 1/009 69931=
33837,2025,10,25,03,00,AAXX 25031 33837 42984 02902 10093 20051 30017 40068 52026 333 55000==
33837,2025,10,25,06,00,AAXX 25061 33837 12970 02702 10112 20049 30037 40088 52020 69932 333 20085 555 11011=
33837,2025,10,25,09,00,AAXX 25091 33837 42583 32701 10154 20045 30051 40101 51014 82430==
33837,2025,10,25,12,00,AAXX 25121 33837 32583 52902 10169 20001 30048 40098 58003 82430 555 1/026=
33837,2025,10,25,15,00,AAXX 25151 33837 42584 32201 10134 20008 30056 40106 53008 83400==
33837,2025,10,25,18,00,AAXX 25181 33837 32984 62401 10094 20029 30061 40112 52005 85031 333 10170 555 1/008=
33837,2025,10,25,21,00,AAXX 25211 33837 42984 22402 10091 20053 30064 40115 52003 80001==
33837,2025,10,26,00,00,AAXX 26001 33837 32984 02601 10082 20031 30062 40113 58002 555 1/005=
33837,2025,10,26,03,00,AAXX 26031 33837 42/84 52202 10110 20028 30053 40104 58009 83011 333 55079==
33837,2025,10,26,06,00,AAXX 26061 33837 32584 62102 10137 20090 30052 40102 56001 82531 333 20076 555 11013=
33837,2025,10,26,09,00,AAXX 26091 33837 42582 71703 10150 20110 30042 40092 58010 86550 333 86631==
33837,2025,10,26,12,00,AAXX 26121 33837 32473 82003 10158 20127 30022 40072 58020 8655/ 333 86710 555 1/019=
33837,2025,10,26,15,00,AAXX 26151 33837 42366 62005 10154 20131 30011 40061 56011 85531 333 85709==
33837,2025,10,26,18,00,AAXX 26181 33837 32361 62202 10153 20133 30008 40058 56003 85650 333 10162 85707 555 1/013=
33837,2025,10,26,21,00,AAXX 26211 33837 42563 82302 10147 20129 39998 40048 58010 8535/ 333 85922==
33837,2025,10,27,00,00,AAXX 27001 33837 /1148 82002 10148 20135 39985 40035 57013 71082 886// 333 88702 555 1/014 69901=
33837,2025,10,27,03,00,AAXX 27031 33837 41156 82201 10149 20136 39974 40024 57011 71022 886// 333 55027 88703==
33837,2025,10,27,06,00,AAXX 27061 33837 11257 72601 10151 20136 39963 40013 57011 69932 71082 85550 333 20144 85705 555 11014=
33837,2025,10,27,09,00,AAXX 27091 33837 41582 82601 10152 20098 39960 40010 56003 72582 82331==
33837,2025,10,27,12,00,AAXX 27121 33837 /1481 83101 10124 20094 39960 40010 54000 70282 8655/ 333 86711 555 1/016 69901=
33837,2025,10,27,15,00,AAXX 27151 33837 42484 73002 10113 20076 39975 40025 53015 83531 333 83715==
33837,2025,10,27,18,00,AAXX 27181 33837 12962 32801 10095 20076 39992 40043 52017 69902 82031 333 10158 555 1/008=
33837,2025,10,27,21,00,AAXX 27211 33837 42961 22701 10087 20072 30007 40058 52015 80001==
33837,2025,10,28,00,00,AAXX 28001 33837 32984 22502 10099 20066 30012 40063 51005 80001 555 1/006=
33837,2025,10,28,03,00,AAXX 28031 33837 42/84 62801 10077 20043 30018 40069 52006 85031 333 55002==
33837,2025,10,28,06,00,AAXX 28061 33837 32584 82702 10093 20041 30038 40089 53020 8257/ 333 20077 555 11009=
33837,2025,10,28,09,00,AAXX 28091 33837 41471 82701 10108 20056 30040 40091 51002 78082 883//==
33837,2025,10,28,12,00,AAXX 28121 33837 /1684 82502 10142 20045 30037 40087 58003 70282 82434 555 1/017 69931=
33837,2025,10,28,15,00,AAXX 28151 33837 42/84 82501 10122 20056 30050 40101 53013 85034==
33837,2025,10,28,18,00,AAXX 28181 33837 12984 02401 10106 20058 30058 40109 51008 69932 333 10142 555 1/009=
33837,2025,10,28,21,00,AAXX 28211 33837 42984 02701 10085 20041 30079 40130 53021==
33837,2025,10,29,00,00,AAXX 29001 33837 32984 02703 10075 20020 30087 40139 51008 555 1/004=
33837,2025,10,29,03,00,AAXX 29031 33837 42984 02701 10063 20012 30098 40150 52011 333 55010==
33837,2025,10,29,06,00,AAXX 29061 33837 32983 22602 10093 20026 30108 40159 52010 80001 333 20062 555 11007=
33837,2025,10,29,09,00,AAXX 29091 33837 42/84 22402 10144 20026 30111 40162 51003 81031==
33837,2025,10,29,12,00,AAXX 29121 33837 32976 32401 10167 20037 30106 40156 58005 81031 555 1/023=
33837,2025,10,29,15,00,AAXX 29151 33837 42584 62901 10144 20032 30116 40167 53010 82550==
33837,2025,10,29,18,00,AAXX 29181 33837 32980 22801 10112 20042 30135 40186 53019 80001 333 10180 555 1/008=
33837,2025,10,29,21,00,AAXX 29211 33837 42984 00000 10102 20044 30146 40197 53011==
33837,2025,10,30,00,00,AAXX 30001 33837 32970 00000 10089 20067 30150 40202 51004 555 1/005=
33837,2025,10,30,03,00,AAXX 30031 33837 41957 00301 10089 20075 30150 40202 54000 71000 333 55069==
33837,2025,10,30,06,00,AAXX 30061 33837 32976 01304 10140 20088 30152 40203 53002 333 20085 555 10010=
33837,2025,10,30,09,00,AAXX 30091 33837 42583 51603 10155 20123 30144 40194 58008 82104==
33837,2025,10,30,12,00,AAXX 30121 33837 32980 71903 10166 20107 30125 40175 58019 80004 555 1/025=
33837,2025,10,30,15,00,AAXX 30151 33837 42268 62002 10148 20132 30114 40164 56011 86600 333 86705 555 1/014=
33837,2025,10,30,18,00,AAXX 30181 33837 32967 62002 10145 20125 30114 40164 54000 86030 333 10173 555 1/012=
33837,2025,10,30,21,00,AAXX 30211 33837 42366 52002 10147 20127 30109 40159 58005 85600 333 85708==
33837,2025,10,31,00,00,AAXX 31001 33837 32971 62302 10148 20116 30102 40152 57007 86030 555 1/012=
33837,2025,10,31,03,00,AAXX 31031 33837 42/80 22603 10129 20106 30098 40149 57004 82030 333 55059==
33837,2025,10,31,06,00,AAXX 31061 33837 32975 62701 10135 20096 30109 40160 53011 86030 333 20115 555 10014=
33837,2025,10,31,09,00,AAXX 31091 33837 42678 83202 10170 20074 30118 40168 52009 8655/ 333 86648==
33837,2025,10,31,12,00,AAXX 31121 33837 32983 63302 10186 20029 30114 40164 58004 80004 555 1/028=
33837,2025,10,31,15,00,AAXX 31151 33837 42984 22901 10146 20043 30125 40176 53011 80001==
33837,2025,10,31,18,00,AAXX 31181 33837 32983 02901 10119 20029 30137 40188 52012 333 10191 555 1/006=
33837,2025,10,31,21,00,AAXX 31211 33837 42984 02702 10100 20021 30152 40204 52015==
33837,2025,11,01,00,00,AAXX 01001 33837 32984 02903 10101 20010 30160 40212 51008 555 1/005=
33837,2025,11,01,03,00,AAXX 01031 33837 42984 02701 10066 20011 30175 40227 53015 333 55067==
33837,2025,11,01,06,00,AAXX 01061 33837 32981 03002 10083 20023 30189 40241 52014 333 20061 555 10008=
33837,2025,11,01,09,00,AAXX 01091 33837 42984 33001 10122 20034 30197 40248 51008 80001==
33837,2025,11,01,12,00,AAXX 01121 33837 32983 63601 10140 20048 30191 40242 58006 80001 555 1/024=
33837,2025,11,01,15,00,AAXX 01151 33837 42984 81901 10112 20057 30193 40244 53002 80001==
33837,2025,11,01,18,00,AAXX 01181 33837 32970 00000 10081 20057 30200 40252 53007 333 10144 555 1/006=
33837,2025,11,01,21,00,AAXX 01211 33837 42967 02601 10073 20046 30204 40256 52004==
33837,2025,11,02,00,00,AAXX 02001 33837 32963 00000 10068 20050 30198 40250 58006 555 1/004=
33837,2025,11,02,03,00,AAXX 02031 33837 41950 00000 10070 20058 30198 40250 54000 71000 333 55067==
33837,2025,11,02,06,00,AAXX 02061 33837 32983 31503 10130 20079 30198 40249 54000 80001 333 20060 555 10011=
33837,2025,11,02,09,00,AAXX 02091 33837 42982 21605 10142 20082 30201 40252 53003 80001 555 1/024=
33837,2025,11,02,12,00,AAXX 02121 33837 32480 21605 10141 20089 30190 40241 58011 82600 555 1/022=
33837,2025,11,02,15,00,AAXX 02151 33837 42982 01605 10132 20098 30184 40235 57006==
33837,2025,11,02,18,00,AAXX 02181 33837 32984 01605 10134 20098 30182 40233 57002 333 10145 555 1/010=
33837,2025,11,02,21,00,AAXX 02211 33837 42470 71703 10136 20113 30179 40230 57003 87600 333 87712==
33837,2025,11,03,00,00,AAXX 03001 33837 32469 61703 10135 20116 30173 40224 57006 84630 333 84718 555 1/010=
33837,2025,11,03,03,00,AAXX 03031 33837 42479 61506 10138 20104 30167 40218 57006 84530 333 55066 84719==
33837,2025,11,03,06,00,AAXX 03061 33837 32570 71605 10140 20090 30165 40216 57002 87500 333 20133 87624 555 10012=
33837,2025,11,03,09,00,AAXX 03091 33837 42580 71605 10146 20094 30163 40214 57002 86531 333 86624==
33837,2025,11,03,12,00,AAXX 03121 33837 32570 81204 10135 20112 30151 40202 58012 86501 333 86623 555 1/017=
33837,2025,11,03,15,00,AAXX 03151 33837 42570 81304 10132 20102 30148 40199 56003 8553/ 333 85621==
33837,2025,11,03,18,00,AAXX 03181 33837 32582 81203 10135 20099 30144 40195 57004 8555/ 333 10152 85621 555 1/013=
33837,2025,11,03,21,00,AAXX 03211 33837 42470 81203 10136 20110 30134 40185 58010 885// 333 88712==
33837,2025,11,04,00,00,AAXX 04001 33837 32366 82301 10135 20119 30131 40182 56003 885// 333 88707 555 1/013=
33837,2025,11,04,03,00,AAXX 04031 33837 41156 80000 10138 20125 30128 40179 57003 71022 886// 333 55012 88702==
33837,2025,11,04,06,00,AAXX 04061 33837 11156 80202 10126 20115 30142 40193 53014 69902 72022 886// 333 20125 88702 555 11013=
33837,2025,11,04,09,00,AAXX 04091 33837 41157 80402 10120 20107 30153 40204 52011 71022 886// 333 88703==
33837,2025,11,04,12,00,AAXX 04121 33837 31359 80201 10122 20104 30154 40205 51001 71022 886// 333 88708 555 1/016=
33837,2025,11,04,15,00,AAXX 04151 33837 41358 83102 10127 20111 30166 40217 53012 72052 886// 333 88708==
33837,2025,11,04,18,00,AAXX 04181 33837 11582 83004 10123 20088 30177 40228 52011 69902 70252 885// 333 10132 88624 555 1/012=
33837,2025,11,04,21,00,AAXX 04211 33837 42584 83002 10116 20077 30185 40236 52008 885// 333 88624==
33837,2025,11,05,00,00,AAXX 05001 33837 32984 83002 10105 20079 30188 40240 51003 8805/ 555 1/010=
33837,2025,11,05,03,00,AAXX 05031 33837 41467 83002 10095 20079 30189 40241 52001 78082 883// 333 55000==
33837,2025,11,05,06,00,AAXX 05061 33837 11460 83001 10089 20077 30195 40247 53006 60022 78082 883// 333 20088 555 11009=
33837,2025,11,05,09,00,AAXX 05091 33837 41449 83001 10091 20080 30203 40255 52008 76186 8872/==
33837,2025,11,05,12,00,AAXX 05121 33837 /1466 73401 10106 20094 30191 40243 58012 70286 83551 555 1/016 60051=
33837,2025,11,05,15,00,AAXX 05151 33837 42570 60000 10095 20078 30195 40247 53004 85550 333 85623==
33837,2025,11,05,18,00,AAXX 05181 33837 11750 62701 10093 20081 30198 40250 52003 60052 71022 83550 333 10109 83655 555 1/009=
33837,2025,11,05,21,00,AAXX 05211 33837 41456 72901 10092 20081 30198 40250 54000 71022 87500 333 87719==
33837,2025,11,06,00,00,AAXX 06001 33837 31126 80604 10102 20091 30195 40247 58003 71022 886// 333 88703 555 1/010=
33837,2025,11,06,03,00,AAXX 06031 33837 41348 80503 10099 20082 30194 40246 57001 71022 886// 333 55000 88707==
33837,2025,11,06,06,00,AAXX 06061 33837 31957 50303 10097 20071 30193 40245 57001 71022 82031 333 20091 555 11009=
33837,2025,11,06,09,00,AAXX 06091 33837 42560 30403 10111 20072 30196 40248 53003 82504 333 82624==
33837,2025,11,06,12,00,AAXX 06121 33837 32460 80304 10110 20073 30186 40237 58010 8655/ 333 86715 555 1/012=
33837,2025,11,06,15,00,AAXX 06151 33837 42460 80205 10103 20072 30184 40236 56002 86504 333 86714==
33837,2025,11,06,18,00,AAXX 06181 33837 32475 80305 10087 20049 30185 40237 53001 87604 333 10118 87717 555 1/008=
33837,2025,11,06,21,00,AAXX 06211 33837 42468 80205 10086 20050 30181 40233 58004 886// 333 88715==
33837,2025,11,07,00,00,AAXX 07001 33837 32461 80204 10087 20058 30177 40229 57004 886// 333 88714 555 1/008=
33837,2025,11,07,03,00,AAXX 07031 33837 42460 80101 10087 20062 30168 40220 58009 886// 333 55031 88716==
33837,2025,11,07,06,00,AAXX 07061 33837 31457 80405 10094 20070 30172 40224 53004 71022 885// 333 20085 87716 555 11009=
33837,2025,11,07,09,00,AAXX 07091 33837 41558 80304 10101 20077 30174 40226 52002 71022 87501 333 87621==
33837,2025,11,07,12,00,AAXX 07121 33837 32461 80506 10102 20069 30163 40215 58011 886// 333 88714 555 1/010=
33837,2025,11,07,15,00,AAXX 07151 33837 42460 80406 10101 20070 30160 40212 56003 886// 333 88712==
33837,2025,11,07,18,00,AAXX 07181 33837 11450 80204 10096 20074 30168 40220 53008 69902 72052 886// 333 10105 88711 555 1/009=
33837,2025,11,07,21,00,AAXX 07211 33837 41350 60204 10096 20075 30170 40222 51002 71022 86500 333 86708==
33837,2025,11,08,00,00,AAXX 08001 33837 31457 60605 10103 20081 30163 40214 58007 71022 86500 333 86711 555 1/009=
33837,2025,11,08,03,00,AAXX 08031 33837 42460 70506 10103 20074 30165 40216 53002 87500 333 55000 87711==
33837,2025,11,08,06,00,AAXX 08061 33837 31456 60203 10097 20073 30168 40220 52003 71022 86500 333 20095 86715 555 11009=
33837,2025,11,08,09,00,AAXX 08091 33837 41458 80202 10098 20072 30173 40225 52005 71022 885// 333 88710==
33837,2025,11,08,12,00,AAXX 08121 33837 /1237 83601 10093 20074 30164 40216 58009 72052 886// 333 88705 555 1/010 69901=
33837,2025,11,08,15,00,AAXX 08151 33837 41462 80602 10097 20076 30162 40214 56002 70252 886// 333 88711==
33837,2025,11,08,18,00,AAXX 08181 33837 11471 80901 10104 20078 30162 40213 54000 69902 70252 885// 333 10104 88716 555 1/009=
33837,2025,11,08,21,00,AAXX 08211 33837 41458 80000 10095 20074 30163 40215 53001 71022 885// 333 88718==
33837,2025,11,09,00,00,AAXX 09001 33837 31458 80000 10098 20077 30159 40211 58004 71022 885// 333 88717 555 1/009=
33837,2025,11,09,03,00,AAXX 09031 33837 41557 80201 10092 20073 30156 40208 57003 71022 82551 333 55000==
33837,2025,11,09,06,00,AAXX 09061 33837 11460 80802 10106 20085 30154 40205 57002 69932 78082 8635/ 333 20090 555 11010=
33837,2025,11,09,09,00,AAXX 09091 33837 41356 81303 10121 20105 30155 40206 53001 76186 8872/ 555 1/012=
33837,2025,11,09,12,00,AAXX 09121 33837 /1463 81702 10130 20111 30146 40197 58009 70286 886// 333 88711 555 1/013 60011=
33837,2025,11,09,15,00,AAXX 09151 33837 41221 81403 10126 20115 30141 40192 57005 76162 8872/==
33837,2025,11,09,18,00,AAXX 09181 33837 11342 81302 10130 20121 30139 40190 57002 60062 76162 8872/ 333 10131 555 1/012=
33837,2025,11,09,21,00,AAXX 09211 33837 41/08 92001 10139 20139 30130 40181 58009 74764 89///==
33837,2025,11,10,00,00,AAXX 10001 33837 /1113 80000 10137 20129 30131 40182 53001 72864 886// 333 88703 555 1/013 69991=
33837,2025,11,10,03,00,AAXX 10031 33837 41/02 90000 10135 20135 30128 40179 58003 74542 89/// 333 55000==
33837,2025,11,10,06,00,AAXX 10061 33837 11/02 90000 10132 20132 30131 40182 53003 69992 74742 333 20130 555 11014=
33837,2025,11,10,09,00,AAXX 10091 33837 41459 81802 10128 20115 30133 40184 52002 71042 885// 333 88712==
33837,2025,11,10,12,00,AAXX 10121 33837 31462 81803 10135 20107 30121 40172 58012 70242 885// 333 88711 555 1/015=
33837,2025,11,10,15,00,AAXX 10151 33837 41356 81101 10127 20106 30108 40159 57013 71022 885// 333 88707==
33837,2025,11,10,18,00,AAXX 10181 33837 11/02 91503 10134 20134 30097 40147 57011 69902 74784 333 10138 555 1/013=
33837,2025,11,10,21,00,AAXX 10211 33837 41/03 91706 10136 20136 30086 40136 57011 74742 89///==
33837,2025,11,11,00,00,AAXX 11001 33837 31137 82004 10142 20132 30074 40124 57012 71042 886// 333 88703 555 1/013=
33837,2025,11,11,03,00,AAXX 11031 33837 41223 82002 10142 20131 30064 40114 57010 76162 8872/ 333 55000==
33837,2025,11,11,06,00,AAXX 11061 33837 11224 82003 10141 20131 30060 40110 56004 60022 76162 8872/ 333 20134 555 11013=
33837,2025,11,11,09,00,AAXX 11091 33837 41483 82801 10151 20138 30063 40113 53003 70262 885// 333 88710==
33837,2025,11,11,12,00,AAXX 11121 33837 /1483 83102 10140 20112 30062 40112 58001 72586 885// 333 88714 555 1/017 69971=
33837,2025,11,11,15,00,AAXX 11151 33837 41484 83202 10130 20102 30076 40127 53014 70282 885// 333 88715==
33837,2025,11,11,18,00,AAXX 11181 33837 11580 73002 10114 20091 30089 40140 52013 69972 70282 85530 333 10155 85627 555 1/010=
33837,2025,11,11,21,00,AAXX 11211 33837 42/83 63102 10106 20080 30097 40148 51008 86030==
33837,2025,11,12,00,00,AAXX 12001 33837 32967 03003 10087 20062 30108 40160 52011 555 1/006=
33837,2025,11,12,03,00,AAXX 12031 33837 42961 03002 10068 20045 30116 40168 52008 333 55000==
33837,2025,11,12,06,00,AAXX 12061 33837 32963 03002 10064 20037 30131 40183 53015 333 20058 555 11006=
33837,2025,11,12,09,00,AAXX 12091 33837 42973 53103 10106 20039 30141 40192 52010 80004==
33837,2025,11,12,12,00,AAXX 12121 33837 32581 63301 10110 20042 30135 40186 58006 82539 555 1/015=
33837,2025,11,12,15,00,AAXX 12151 33837 42580 63001 10094 20056 30152 40204 53017 86500 333 86627==
33837,2025,11,12,18,00,AAXX 12181 33837 32666 70000 10086 20057 30161 40213 51009 87500 333 10116 87633 555 1/008=
33837,2025,11,12,21,00,AAXX 12211 33837 42562 52701 10079 20055 30167 40219 52006 82530==
33837,2025,11,13,00,00,AAXX 13001 33837 31956 30000 10069 20052 30169 40221 52002 71011 83030 555 1/004=
33837,2025,11,13,03,00,AAXX 13031 33837 41/56 22701 10062 20048 30171 40223 52002 71000 82030 333 55039==
33837,2025,11,13,06,00,AAXX 13061 33837 32561 72901 10068 20053 30176 40228 52005 82504 333 20060 555 11006=
33837,2025,11,13,09,00,AAXX 13091 33837 42565 73001 10100 20060 30179 40231 52003 82550==
33837,2025,11,13,12,00,AAXX 13121 33837 32584 73301 10106 20032 30171 40223 58008 87500 333 87629 555 1/012=
33837,2025,11,13,15,00,AAXX 13151 33837 41481 80000 10095 20041 30172 40224 53001 72522 883//==
33837,2025,11,13,18,00,AAXX 13181 33837 11681 70000 10090 20026 30173 40225 52001 69902 70282 87500 333 10112 87644 555 1/007=
33837,2025,11,13,21,00,AAXX 13211 33837 42965 22701 10061 20031 30176 40228 52003 81031 555 1/004=
33837,2025,11,14,00,00,AAXX 14001 33837 32963 02601 10048 20025 30176 40229 54000 555 1/003=
33837,2025,11,14,03,00,AAXX 14031 33837 41950 20000 10048 20031 30171 40224 58005 71000 80001 333 55013==
33837,2025,11,14,06,00,AAXX 14061 33837 32561 20000 10057 20035 30173 40225 53002 81101 333 20039 555 11005=
33837,2025,11,14,09,00,AAXX 14091 33837 42564 30502 10103 20066 30181 40233 53008 83800==
33837,2025,11,14,12,00,AAXX 14121 33837 32580 31201 10117 20064 30164 40215 58017 82501 555 1/018=
33837,2025,11,14,15,00,AAXX 14151 33837 42684 31801 10099 20051 30164 40216 54000 82501 555 1/006=
33837,2025,11,14,18,00,AAXX 14181 33837 32984 22101 10097 20049 30167 40219 53003 80001 333 10118 555 1/005=
33837,2025,11,14,21,00,AAXX 14211 33837 42584 32101 10109 20063 30161 40212 58006 83500 333 83623==
33837,2025,11,15,00,00,AAXX 15001 33837 32584 22402 10100 20060 30147 40198 58014 82500 333 82623 555 1/005=
33837,2025,11,15,03,00,AAXX 15031 33837 42980 02503 10089 20060 30135 40187 57012 333 55050==
33837,2025,11,15,06,00,AAXX 15061 33837 32263 62401 10081 20062 30126 40178 57009 82601 333 20078 82705 555 11007=
33837,2025,11,15,09,00,AAXX 15091 33837 41471 62203 10127 20086 30116 40167 57010 70242 85101 333 85813==
33837,2025,11,15,12,00,AAXX 15121 33837 31582 72404 10143 20080 30094 40144 58022 70242 86501 333 86622 555 1/015=
33837,2025,11,15,15,00,AAXX 15151 33837 42/72 82301 10118 20083 30095 40146 53001 82034==
33837,2025,11,15,18,00,AAXX 15181 33837 31958 82601 10093 20077 30100 40151 52005 71022 80004 333 10144 555 1/006=
33837,2025,11,15,21,00,AAXX 15211 33837 42962 33401 10092 20066 30108 40159 52008 80001==
33837,2025,11,16,00,00,AAXX 16001 33837 31958 23202 10078 20056 30113 40165 52005 71000 80001 555 1/004=
33837,2025,11,16,03,00,AAXX 16031 33837 41245 73601 10063 20048 30117 40169 52004 71011 82601 333 55038 82706==
33837,2025,11,16,06,00,AAXX 16061 33837 31113 80604 10075 20063 30125 40177 52008 71011 886// 333 20063 88702 555 11007=
33837,2025,11,16,09,00,AAXX 16091 33837 41133 80302 10079 20070 30120 40172 58005 72842 886// 333 88702==
33837,2025,11,16,12,00,AAXX 16121 33837 31147 80502 10088 20077 30112 40163 57008 71042 886// 333 88703 555 1/011=
33837,2025,11,16,15,00,AAXX 16151 33837 41250 80702 10103 20089 30105 40156 57007 71022 886// 333 88704==
33837,2025,11,16,18,00,AAXX 16181 33837 31144 81101 10111 20099 30104 40155 56001 71022 886// 333 10111 88703 555 1/010=
33837,2025,11,16,21,00,AAXX 16211 33837 41557 32402 10092 20070 30097 40148 58007 71011 83500 333 83625==
33837,2025,11,17,00,00,AAXX 17001 33837 31239 82302 10080 20066 30093 40145 57004 71011 885// 333 88706 555 1/008=
33837,2025,11,17,03,00,AAXX 17031 33837 41256 82301 10088 20071 30084 40135 58009 71022 886// 333 55000 88705==
33837,2025,11,17,06,00,AAXX 17061 33837 31128 82301 10103 20091 30083 40134 56001 71022 886// 333 20078 88703 555 11010=
33837,2025,11,17,09,00,AAXX 17091 33837 41358 82101 10123 20100 30080 40131 57003 71022 83671 333 83708 555 1/013=
33837,2025,11,17,12,00,AAXX 17121 33837 32261 82003 10136 20111 30069 40119 58011 85671 333 85706 555 1/014=
33837,2025,11,17,15,00,AAXX 17151 33837 41257 82003 10135 20122 30058 40108 57011 71022 886// 333 88704==
33837,2025,11,17,18,00,AAXX 17181 33837 31257 82102 10137 20123 30044 40094 57014 71022 886// 333 10148 88704 555 1/012=
33837,2025,11,17,21,00,AAXX 17211 33837 41258 72002 10139 20125 30031 40081 57013 71022 86601 333 86706==
33837,2025,11,18,00,00,AAXX 18001 33837 32964 32203 10143 20115 30027 40077 56004 80001 555 1/010=
33837,2025,11,18,03,00,AAXX 18031 33837 42/81 62203 10146 20094 30029 40079 53002 83031 333 55009==
33837,2025,11,18,06,00,AAXX 18061 33837 32969 82603 10125 20082 30044 40094 53015 83034 333 20123 555 11010=
33837,2025,11,18,09,00,AAXX 18091 33837 42/80 72602 10137 20075 30063 40113 52019 87070==
33837,2025,11,18,12,00,AAXX 18121 33837 /1578 73001 10135 20081 30077 40127 51014 70282 82570 555 1/014 69901=
33837,2025,11,18,15,00,AAXX 18151 33837 42/84 83203 10092 20050 30104 40155 53027 8805/==
33837,2025,11,18,18,00,AAXX 18181 33837 11483 83303 10070 20032 30124 40176 51020 69932 78082 883// 333 10142 555 1/007=
33837,2025,11,18,21,00,AAXX 18211 33837 41682 83604 10068 20025 30134 40186 51010 70282 885// 333 88648==
33837,2025,11,19,00,00,AAXX 19001 33837 /1450 80306 10064 20032 30122 40174 58012 78082 883// 555 1/006 69981=
33837,2025,11,19,03,00,AAXX 19031 33837 41445 80106 10057 20040 30116 40168 56006 78088 883// 333 55000==
33837,2025,11,19,06,00,AAXX 19061 33837 11439 80105 10052 20040 30120 40172 53004 60082 76186 8872/ 333 20050 555 11006=
33837,2025,11,19,09,00,AAXX 19091 33837 41382 80103 10053 20040 30131 40183 53011 70262 8655/ 333 86708==
33837,2025,11,19,12,00,AAXX 19121 33837 /1481 73602 10063 20035 30132 40184 51001 70262 87500 333 87711 555 1/011 69951=
33837,2025,11,19,15,00,AAXX 19151 33837 42484 80103 10062 20032 30144 40196 53012 885// 333 88714==
33837,2025,11,19,18,00,AAXX 19181 33837 12483 80604 10067 20037 30145 40197 51001 69952 885// 333 10067 88714 555 1/006=
33837,2025,11,19,21,00,AAXX 19211 33837 42482 80604 10070 20047 30146 40198 52001 885// 333 88711==
33837,2025,11,20,00,00,AAXX 20001 33837 /1465 81204 10076 20056 30139 40191 58007 76162 8872/ 555 1/007 60011=
33837,2025,11,20,03,00,AAXX 20031 33837 41358 80908 10077 20063 30120 40172 58019 76166 8872/ 333 55000==
33837,2025,11,20,06,00,AAXX 20061 33837 11357 81008 10085 20073 30113 40165 56007 60082 76166 8872/ 333 20065 555 11008=
33837,2025,11,20,09,00,AAXX 20091 33837 41118 80704 10099 20090 30106 40157 57007 76166 8872/==
33837,2025,11,20,12,00,AAXX 20121 33837 /1/04 90000 10133 20133 30090 40140 58016 74764 555 1/013 69971=
33837,2025,11,20,15,00,AAXX 20151 33837 41156 82002 10126 20117 30100 40151 53010 71042 885// 333 87703==
33837,2025,11,20,18,00,AAXX 20181 33837 11126 82201 10124 20115 30105 40156 52005 69972 71042 886// 333 10136 88702 555 1/011=
33837,2025,11,20,21,00,AAXX 20211 33837 41/09 92001 10129 20129 30110 40161 52005 74542 89///==
33837,2025,11,21,00,00,AAXX 21001 33837 31/04 91602 10133 20133 30105 40156 58005 74542 555 1/012=
33837,2025,11,21,03,00,AAXX 21031 33837 41350 61902 10134 20126 30096 40147 57009 71042 85650 333 55000 85709==
33837,2025,11,21,06,00,AAXX 21061 33837 31561 32004 10142 20128 30101 40151 53005 70241 82501 333 20123 555 11012=
33837,2025,11,21,09,00,AAXX 21091 33837 42963 51902 10162 20126 30103 40153 52002 80001==
33837,2025,11,21,12,00,AAXX 21121 33837 32461 62003 10163 20125 30092 40142 58011 82601 333 82713 555 1/018=
33837,2025,11,21,15,00,AAXX 21151 33837 42/60 82103 10156 20122 30098 40148 53006 85031 333 85301==
33837,2025,11,21,18,00,AAXX 21181 33837 32960 32202 10148 20121 30105 40155 52007 80001 333 10172 555 1/012=
33837,2025,11,21,21,00,AAXX 21211 33837 42/61 22102 10148 20118 30110 40160 52005 82030==
33837,2025,11,22,00,00,AAXX 22001 33837 32960 02101 10143 20120 30106 40156 58004 555 1/011=
33837,2025,11,22,03,00,AAXX 22031 33837 41958 22003 10141 20123 30110 40160 53004 71000 80001 333 55037==
33837,2025,11,22,06,00,AAXX 22061 33837 32961 31902 10148 20116 30116 40166 52006 80001 333 20136 555 11011=
33837,2025,11,22,09,00,AAXX 22091 33837 42970 61703 10156 20120 30114 40164 58002 80001==
33837,2025,11,22,12,00,AAXX 22121 33837 32963 22002 10155 20117 30099 40149 58015 80001 555 1/018=
33837,2025,11,22,15,00,AAXX 22151 33837 42/63 62102 10150 20116 30100 40150 53001 85031==
33837,2025,11,22,18,00,AAXX 22181 33837 31245 52901 10132 20113 30104 40155 52004 71011 83601 333 10165 83704 555 1/011=
33837,2025,11,22,21,00,AAXX 22211 33837 41/07 93101 10116 20116 30109 40160 52005 74742 89///==
33837,2025,11,23,00,00,AAXX 23001 33837 31/02 90201 10115 20115 30109 40160 54000 74542 555 1/012=
33837,2025,11,23,03,00,AAXX 23031 33837 41/02 90000 10104 20104 30102 40153 58007 74544 89/// 333 55038==
33837,2025,11,23,06,00,AAXX 23061 33837 31/01 90000 10111 20111 30095 40146 57007 74544 333 20104 555 11012=
33837,2025,11,23,09,00,AAXX 23091 33837 41462 82002 10154 20122 30087 40137 57008 70242 8261/==
33837,2025,11,23,12,00,AAXX 23121 33837 31969 82002 10150 20118 30065 40115 58022 70242 8807/ 555 1/017=
33837,2025,11,23,15,00,AAXX 23151 33837 41/57 81702 10141 20116 30056 40106 56009 71022 8805/==
33837,2025,11,23,18,00,AAXX 23181 33837 31236 61701 10140 20122 30048 40098 57008 71022 84630 333 10161 84704 555 1/012=
33837,2025,11,23,21,00,AAXX 23211 33837 41357 82601 10124 20111 30046 40096 56002 78082 883//==
33837,2025,11,24,00,00,AAXX 24001 33837 /1372 82802 10084 20070 30062 40113 53016 70282 885// 333 88708 555 1/009 69901=
33837,2025,11,24,03,00,AAXX 24031 33837 42380 82801 10074 20054 30076 40128 52014 885// 333 55000 88709==
33837,2025,11,24,06,00,AAXX 24061 33837 11381 83002 10065 20047 30094 40146 52018 69902 72052 886// 333 20064 88709 555 11008=
33837,2025,11,24,09,00,AAXX 24091 33837 42482 82501 10069 20039 30108 40160 52014 886// 333 88711==
33837,2025,11,24,12,00,AAXX 24121 33837 32484 82301 10067 20038 30103 40155 58005 886// 333 88711 555 1/010=
33837,2025,11,24,15,00,AAXX 24151 33837 42483 82201 10068 20038 30113 40165 53010 885// 333 88715==
33837,2025,11,24,18,00,AAXX 24181 33837 32569 72501 10063 20035 30122 40174 52009 86530 333 10072 86625 555 1/006=
33837,2025,11,24,21,00,AAXX 24211 33837 42981 32401 10060 20021 30125 40177 51003 80001==
33837,2025,11,25,00,00,AAXX 25001 33837 32981 00000 10054 20008 30124 40176 58001 555 1/002=
33837,2025,11,25,03,00,AAXX 25031 33837 42984 02201 10092 20056 30121 40172 57003 333 55000==
33837,2025,11,25,06,00,AAXX 25061 33837 32582 62004 10119 20078 30121 40172 54000 85501 333 20052 85625 555 11008=
33837,2025,11,25,09,00,AAXX 25091 33837 42980 51905 10133 20086 30121 40172 54000 80001==
33837,2025,11,25,12,00,AAXX 25121 33837 32470 81705 10127 20097 30107 40158 58014 86501 333 86715 555 1/013=
33837,2025,11,25,15,00,AAXX 25151 33837 42472 81706 10126 20105 30095 40146 57012 83501==
33837,2025,11,25,18,00,AAXX 25181 33837 11465 81707 10127 20108 30095 40146 54000 69902 70282 86601 333 10139 86714 555 1/011=
33837,2025,11,25,21,00,AAXX 25211 33837 42465 61707 10128 20107 30093 40144 58002 83530 333 83713==
33837,2025,11,26,00,00,AAXX 26001 33837 32461 81605 10128 20114 30085 40136 58008 885// 333 88711 555 1/012=
33837,2025,11,26,03,00,AAXX 26031 33837 42460 61506 10128 20114 30077 40128 57008 86500 333 55032 86712 555 1/012=
33837,2025,11,26,06,00,AAXX 26061 33837 32471 61607 10130 20105 30079 40130 53002 85501 333 20125 85718 555 11011=
33837,2025,11,26,09,00,AAXX 26091 33837 42460 61704 10137 20116 30083 40133 52004 85530 333 85711==
33837,2025,11,26,12,00,AAXX 26121 33837 32460 71708 10137 20116 30073 40123 58010 82609 555 1/016=
33837,2025,11,26,15,00,AAXX 26151 33837 42960 51705 10133 20114 30077 40127 53004 80001==
33837,2025,11,26,18,00,AAXX 26181 33837 32960 31903 10134 20115 30086 40136 52009 80001 333 10143 555 1/011=
33837,2025,11,26,21,00,AAXX 26211 33837 41659 61903 10135 20116 30093 40143 52007 71011 86500 333 86644==
33837,2025,11,27,00,00,AAXX 27001 33837 31659 51804 10134 20118 30096 40147 52003 71011 85500 333 85640 555 1/011=
33837,2025,11,27,03,00,AAXX 27031 33837 41959 02003 10135 20119 30095 40145 58001 71000 333 55027==
33837,2025,11,27,06,00,AAXX 27061 33837 31259 72003 10136 20118 30110 40161 53015 71011 86601 333 20131 86706 555 10012=
33837,2025,11,27,09,00,AAXX 27091 33837 42561 81903 10143 20120 30121 40171 52011 83505 333 83633==
33837,2025,11,27,12,00,AAXX 27121 33837 32960 81803 10151 20113 30122 40172 51001 83075 555 1/016=
33837,2025,11,27,15,00,AAXX 27151 33837 41557 82001 10134 20116 30130 40181 53008 71022 83505==
33837,2025,11,27,18,00,AAXX 27181 33837 31139 81901 10131 20120 30136 40187 52006 71022 886// 333 10162 88702 555 1/012=
33837,2025,11,27,21,00,AAXX 27211 33837 41/09 91603 10130 20130 30146 40197 52010 74742 89///==
33837,2025,11,28,00,00,AAXX 28001 33837 31/08 90000 10127 20127 30145 40196 58001 74742 555 1/013=
33837,2025,11,28,03,00,AAXX 28031 33837 41212 81701 10125 20114 30149 40200 53004 71042 886// 333 55017 88704==
33837,2025,11,28,06,00,AAXX 28061 33837 31/02 91203 10115 20115 30154 40205 52005 74542 333 20114 555 10012=
33837,2025,11,28,09,00,AAXX 28091 33837 41131 80802 10113 20105 30160 40211 52006 71042 886// 333 88702==
33837,2025,11,28,12,00,AAXX 28121 33837 31145 80603 10113 20105 30156 40207 58004 71042 886// 333 88702 555 1/013=
33837,2025,11,28,15,00,AAXX 28151 33837 41142 80703 10112 20103 30152 40203 57004 71022 886// 333 88702==
33837,2025,11,28,18,00,AAXX 28181 33837 31257 80803 10111 20100 30161 40212 53009 71022 886// 333 10116 88705 555 1/011=
33837,2025,11,28,21,00,AAXX 28211 33837 41456 80803 10113 20094 30152 40203 58009 71022 886// 333 88711==
33837,2025,11,29,00,00,AAXX 29001 33837 31456 80703 10103 20081 30148 40199 56004 71022 886// 333 88711 555 1/010=
33837,2025,11,29,03,00,AAXX 29031 33837 41350 80803 10101 20079 30138 40189 58010 71022 886// 333 55000 88708==
33837,2025,11,29,06,00,AAXX 29061 33837 31258 80804 10092 20076 30133 40185 56005 71022 886// 333 20090 88706 555 10009=
33837,2025,11,29,09,00,AAXX 29091 33837 41158 80705 10083 20071 30128 40180 57005 71022 885// 333 87702==
33837,2025,11,29,12,00,AAXX 29121 33837 31258 80704 10077 20063 30110 40162 58018 71022 886// 333 88704 555 1/009=
33837,2025,11,29,15,00,AAXX 29151 33837 42369 80704 10079 20062 30100 40152 56010 886// 333 88707==
33837,2025,11,29,18,00,AAXX 29181 33837 32260 80706 10078 20061 30098 40150 56002 886// 333 10092 88706 555 1/008=
33837,2025,11,29,21,00,AAXX 29211 33837 41121 80608 10072 20063 30091 40143 57007 71022 886// 333 88702==
33837,2025,11,30,00,00,AAXX 30001 33837 31123 80607 10075 20068 30082 40134 57009 71022 886// 333 88702 555 1/008=
33837,2025,11,30,03,00,AAXX 30031 33837 41/07 90706 10068 20068 30076 40128 57006 74342 89/// 333 55000==
33837,2025,11,30,06,00,AAXX 30061 33837 31/07 90608 10066 20066 30075 40127 56001 74542 333 20064 555 10007=
33837,2025,11,30,09,00,AAXX 30091 33837 41235 80707 10072 20065 30075 40127 54000 71054 886// 333 88705==
33837,2025,11,30,12,00,AAXX 30121 33837 /1249 80408 10063 20056 30065 40117 58010 76165 8872/ 555 1/007 69971=
33837,2025,11,30,15,00,AAXX 30151 33837 41356 80510 10066 20051 30063 40115 56002 76166 8872/==
33837,2025,11,30,18,00,AAXX 30181 33837 11226 80508 10069 20058 30067 40119 53004 60042 76166 8872/ 333 10074 555 1/007=
33837,2025,11,30,21,00,AAXX 30211 33837 41334 80507 10076 20067 30066 40117 58001 76166 8872/==
33837,2025,12,01,00,00,AAXX 01001 33837 /1350 80306 10072 20063 30069 40121 53003 76166 8872/ 555 1/008 60031=
33837,2025,12,01,03,00,AAXX 01031 33837 41239 80204 10067 20058 30076 40128 52007 76166 8872/ 333 55000==
33837,2025,12,01,06,00,AAXX 01061 33837 11224 80102 10067 20058 30088 40140 52012 60032 75365 886// 333 20065 555 11007=
33837,2025,12,01,09,00,AAXX 01091 33837 41229 83501 10070 20061 30101 40153 52013 76165 8872/==
33837,2025,12,01,12,00,AAXX 01121 33837 /1245 83201 10072 20063 30105 40157 51004 75165 886// 555 1/010 60041=
33837,2025,12,01,15,00,AAXX 01151 33837 41232 83202 10071 20060 30123 40175 53018 71052 886// 333 88704==
33837,2025,12,01,18,00,AAXX 01181 33837 11350 83201 10071 20059 30138 40190 52015 60042 71052 886// 333 10073 88707 555 1/008=
33837,2025,12,01,21,00,AAXX 01211 33837 41456 83001 10068 20054 30147 40199 53009 71022 885// 333 88711==
33837,2025,12,02,00,00,AAXX 02001 33837 31358 83101 10063 20049 30153 40205 52006 71022 886// 555 1/007=
33837,2025,12,02,03,00,AAXX 02031 33837 41357 83101 10063 20048 30158 40210 52005 71022 886// 333 55000 88707==
33837,2025,12,02,06,00,AAXX 02061 33837 31356 80000 10064 20049 30169 40221 53011 71022 885// 333 20061 88708 555 11008=
33837,2025,12,02,09,00,AAXX 02091 33837 42461 80101 10075 20048 30176 40228 52007 885// 333 88711==
33837,2025,12,02,12,00,AAXX 02121 33837 32461 83101 10073 20049 30173 40225 58003 885// 333 88712 555 1/009=
33837,2025,12,02,15,00,AAXX 02151 33837 42464 80000 10069 20047 30180 40232 53007 8555/ 333 85714==
33837,2025,12,02,18,00,AAXX 02181 33837 32462 83401 10071 20049 30188 40240 52008 8365/ 333 10077 83711 555 1/007=
33837,2025,12,02,21,00,AAXX 02211 33837 42470 80301 10077 20057 30191 40243 51003 885// 333 88711==
33837,2025,12,03,00,00,AAXX 03001 33837 32368 80403 10077 20055 30194 40246 52003 885// 333 88709 555 1/007=
33837,2025,12,03,03,00,AAXX 03031 33837 42581 80402 10079 20054 30193 40245 58001 885// 333 55000 88626==
33837,2025,12,03,06,00,AAXX 03061 33837 32366 60704 10081 20059 30195 40247 53002 86500 333 20071 86709 555 11007=
33837,2025,12,03,09,00,AAXX 03091 33837 41350 80303 10081 20067 30198 40250 52003 75152 886//==
33837,2025,12,03,12,00,AAXX 03121 33837 /1257 80803 10097 20088 30187 40239 58011 72165 885// 333 88705 555 1/010 60011=
33837,2025,12,03,15,00,AAXX 03151 33837 42263 71003 10106 20092 30189 40241 53002 86501 333 86705==
33837,2025,12,03,18,00,AAXX 03181 33837 11347 81004 10104 20090 30190 40242 52001 60022 76162 8872/ 333 10107 555 1/010=
33837,2025,12,03,21,00,AAXX 03211 33837 41358 82601 10101 20090 30191 40243 52001 76166 8872/==
33837,2025,12,04,00,00,AAXX 04001 33837 /1632 62001 10082 20070 30192 40244 52001 71062 85501 333 85635 555 1/006 60091=
33837,2025,12,04,03,00,AAXX 04031 33837 41412 80000 10079 20070 30189 40241 58003 71022 886// 333 55000==
33837,2025,12,04,06,00,AAXX 04061 33837 11357 71205 10106 20094 30191 40243 53002 60092 71042 85551 333 20075 85707 555 11009=
33837,2025,12,04,09,00,AAXX 04091 33837 42365 81205 10106 20090 30194 40246 52003 87509 333 87707==
33837,2025,12,04,12,00,AAXX 04121 33837 /1371 81204 10101 20080 30184 40236 58010 72582 883// 333 88909 555 1/011 69901=
33837,2025,12,04,15,00,AAXX 04151 33837 42370 71107 10092 20070 30183 40235 56001 87500 333 86709==
33837,2025,12,04,18,00,AAXX 04181 33837 12466 80908 10086 20061 30188 40240 53005 69902 886// 333 10120 88711 555 1/008=
33837,2025,12,04,21,00,AAXX 04211 33837 42470 80910 10084 20057 30183 40235 58005 886// 333 88713==
33837,2025,12,05,00,00,AAXX 05001 33837 32464 80906 10079 20052 30175 40227 57008 886// 333 88713 555 1/007=
33837,2025,12,05,03,00,AAXX 05031 33837 42462 81009 10080 20048 30169 40221 57006 886// 333 55000 88715==
33837,2025,12,05,06,00,AAXX 05061 33837 32461 80909 10072 20045 30173 40225 53004 885// 333 20070 88711 555 11007=
33837,2025,12,05,09,00,AAXX 05091 33837 41465 80805 10063 20040 30172 40224 58001 72522 883// 333 88911==
33837,2025,12,05,12,00,AAXX 05121 33837 /1463 80705 10055 20033 30163 40215 58009 70282 885// 333 88711 555 1/006 69901=
33837,2025,12,05,15,00,AAXX 05151 33837 41363 80710 10049 20031 30169 40222 53006 72582 883// 333 88908==
33837,2025,12,05,18,00,AAXX 05181 33837 11359 80710 10044 20029 30165 40218 58004 69902 71082 886// 333 10073 88707 555 1/005=
33837,2025,12,05,21,00,AAXX 05211 33837 42460 80709 10045 20022 30167 40220 53002 886// 333 88711==
33837,2025,12,06,00,00,AAXX 06001 33837 32460 80608 10040 20014 30163 40216 58004 886// 333 88711 555 1/004=
33837,2025,12,06,03,00,AAXX 06031 33837 42461 80610 10038 20017 30156 40209 57007 886// 333 55000 88711==
33837,2025,12,06,06,00,AAXX 06061 33837 32464 80608 10036 20013 30158 40211 53002 886// 333 20033 88711 555 11004=
33837,2025,12,06,09,00,AAXX 06091 33837 42463 80608 10037 20016 30167 40220 53009 885// 333 88710==
33837,2025,12,06,12,00,AAXX 06121 33837 32466 80606 10040 20015 30155 40208 58012 885// 333 88712 555 1/004=
33837,2025,12,06,15,00,AAXX 06151 33837 42468 80508 10039 20014 30152 40205 56003 885// 333 88711==
33837,2025,12,06,18,00,AAXX 06181 33837 32464 80510 10047 20024 30145 40197 57007 885// 333 10048 88710 555 1/004=
33837,2025,12,06,21,00,AAXX 06211 33837 42461 80607 10062 20037 30141 40193 57004 886// 333 88710==
33837,2025,12,07,00,00,AAXX 07001 33837 32461 80609 10068 20039 30130 40182 58011 886// 333 88710 555 1/006=
33837,2025,12,07,03,00,AAXX 07031 33837 42469 80610 10063 20035 30120 40172 57010 886// 333 55000 88712==
33837,2025,12,07,06,00,AAXX 07061 33837 32470 80610 10063 20036 30119 40171 56001 885// 333 20047 88713 555 11006=
33837,2025,12,07,09,00,AAXX 07091 33837 42474 80610 10062 20035 30112 40164 58007 885// 333 88715==
33837,2025,12,07,12,00,AAXX 07121 33837 32467 80510 10056 20028 30108 40160 57004 885// 333 88713 555 1/006=
33837,2025,12,07,15,00,AAXX 07151 33837 42469 80608 10050 20020 30111 40163 53003 885// 333 88714==
33837,2025,12,07,18,00,AAXX 07181 33837 32469 80509 10048 20020 30107 40159 58002 885// 333 10068 88715 555 1/005=
33837,2025,12,07,21,00,AAXX 07211 33837 42460 80309 10047 20024 30105 40157 57002 885// 333 88711==
33837,2025,12,08,00,00,AAXX 08001 33837 31458 80410 10046 20029 30105 40157 54000 71022 886// 333 88710 555 1/005=
33837,2025,12,08,03,00,AAXX 08031 33837 41456 80309 10039 20023 30110 40162 53005 78082 883// 333 55000 555 1/004=
33837,2025,12,08,06,00,AAXX 08061 33837 11359 80307 10037 20022 30122 40175 53012 69992 76186 8872/ 333 20037 555 11004=
33837,2025,12,08,09,00,AAXX 08091 33837 41356 80207 10037 20024 30140 40193 53018 72065 886// 333 88708==
33837,2025,12,08,12,00,AAXX 08121 33837 /1362 80203 10040 20022 30147 40200 51007 70265 885// 333 88709 555 1/005 69941=
33837,2025,12,08,15,00,AAXX 08151 33837 42461 80103 10037 20016 30163 40216 53016 885// 333 88711==
33837,2025,12,08,18,00,AAXX 08181 33837 12468 60305 10038 20008 30176 40229 52013 69942 85501 333 10043 85714 555 1/004=
33837,2025,12,08,21,00,AAXX 08211 33837 42362 80103 10028 20010 30186 40239 52010 886// 333 88707==
33837,2025,12,09,00,00,AAXX 09001 33837 32462 83301 10026 20000 30188 40241 51002 885// 333 88715 555 1/003=
33837,2025,12,09,03,00,AAXX 09031 33837 42466 83301 10023 21011 30196 40249 53008 885// 333 55000 88715==
33837,2025,12,09,06,00,AAXX 09061 33837 32483 80000 10021 21019 30198 40251 51002 885// 333 20020 88718 555 11003=
33837,2025,12,09,09,00,AAXX 09091 33837 42483 83301 10029 21016 30199 40252 52001 885// 333 88719==
33837,2025,12,09,12,00,AAXX 09121 33837 32471 82801 10023 21013 30187 40240 58012 885// 333 88715 555 1/004=
33837,2025,12,09,15,00,AAXX 09151 33837 42469 82701 10018 21014 30184 40237 56003 885// 333 88714==
33837,2025,12,09,18,00,AAXX 09181 33837 32465 82201 10019 21012 30173 40226 58011 886// 333 10031 88713 555 1/003=
33837,2025,12,09,21,00,AAXX 09211 33837 42470 82302 10019 21008 30160 40213 57013 886// 333 88711==
33837,2025,12,10,00,00,AAXX 10001 33837 31256 82501 10024 20006 30146 40199 57014 71022 886// 333 88706 555 1/003=
33837,2025,12,10,03,00,AAXX 10031 33837 41332 82702 10032 20020 30129 40182 57017 76162 8872/ 333 55000==
33837,2025,12,10,06,00,AAXX 10061 33837 11233 82701 10041 20032 30137 40190 53008 60012 71062 8655/ 333 20018 86706 555 11004=
33837,2025,12,10,09,00,AAXX 10091 33837 42361 83502 10050 20038 30146 40198 52009 886// 333 88707==
33837,2025,12,10,12,00,AAXX 10121 33837 31250 83102 10049 20036 30145 40197 58001 71022 886// 333 88703 555 1/008=
33837,2025,12,10,15,00,AAXX 10151 33837 41359 83001 10056 20044 30160 40212 53015 76162 8872/==
33837,2025,12,10,18,00,AAXX 10181 33837 11358 83201 10061 20049 30170 40222 51010 69912 71062 885// 333 10062 88709 555 1/006=
33837,2025,12,10,21,00,AAXX 10211 33837 41450 82701 10058 20048 30179 40231 52009 71022 885// 333 88713==
33837,2025,12,11,00,00,AAXX 11001 33837 31457 82701 10058 20048 30180 40232 51001 71022 885// 333 88712 555 1/006=
33837,2025,12,11,03,00,AAXX 11031 33837 41450 80000 10054 20044 30175 40227 58005 71022 885// 333 55000 88713 555 1/005=
33837,2025,12,11,06,00,AAXX 11061 33837 31657 70000 10052 20042 30172 40225 57003 71022 86530 333 20047 86647 555 11005=
33837,2025,12,11,09,00,AAXX 11091 33837 42461 82401 10075 20050 30171 40223 57001 86509 333 86716==
33837,2025,12,11,12,00,AAXX 11121 33837 32483 82402 10082 20053 30149 40201 58022 885// 333 87710 555 1/010=
33837,2025,12,11,15,00,AAXX 11151 33837 41258 82401 10072 20058 30144 40196 56005 72582 883// 333 88905==
33837,2025,12,11,18,00,AAXX 11181 33837 11156 82402 10074 20063 30137 40189 57007 69942 71082 886// 333 10083 88703 555 1/007=
33837,2025,12,11,21,00,AAXX 11211 33837 41356 82604 10075 20060 30131 40183 57006 71022 885// 333 85707==
33837,2025,12,12,00,00,AAXX 12001 33837 /1433 82802 10073 20061 30124 40176 57007 72522 883// 333 88910 555 1/007 69901=
33837,2025,12,12,03,00,AAXX 12031 33837 41456 82902 10079 20067 30122 40174 56002 71022 885// 333 55002 88710==
33837,2025,12,12,06,00,AAXX 12061 33837 11557 52902 10074 20060 30125 40177 53003 69902 71082 82532 333 20072 555 11005=
33837,2025,12,12,09,00,AAXX 12091 33837 42461 72902 10089 20063 30132 40184 52007 82631 333 82711==
33837,2025,12,12,12,00,AAXX 12121 33837 32567 83101 10091 20051 30125 40177 58007 83531 333 83625 555 1/009=
33837,2025,12,12,15,00,AAXX 12151 33837 42766 62801 10081 20052 30131 40183 53006 85501 333 85650==
33837,2025,12,12,18,00,AAXX 12181 33837 32662 62802 10070 20045 30132 40184 51001 82501 333 10104 82648 555 1/005=
33837,2025,12,12,21,00,AAXX 12211 33837 42671 72802 10076 20049 30135 40187 52003 87500 333 87640==
33837,2025,12,13,00,00,AAXX 13001 33837 /1471 72904 10073 20046 30143 40195 53008 72522 85301 333 85912 555 1/005 69901=
33837,2025,12,13,03,00,AAXX 13031 33837 41682 82902 10073 20044 30148 40200 52005 70282 86501 333 55014 86642==
33837,2025,12,13,06,00,AAXX 13061 33837 11569 63002 10071 20042 30171 40223 53023 69902 70282 83531 333 20067 83628 555 11106=
33837,2025,12,13,09,00,AAXX 13091 33837 42581 53303 10057 21044 30207 40260 53036 84801 333 84831==
33837,2025,12,13,12,00,AAXX 13121 33837 32984 23505 10041 21059 30213 40266 51006 81031 555 1/007=
33837,2025,12,13,15,00,AAXX 13151 33837 42/84 23302 10018 21051 30230 40284 53017 80030==
33837,2025,12,13,18,00,AAXX 13181 33837 32982 33101 10009 21053 30236 40290 51006 80001 333 10076 555 1/101=
33837,2025,12,13,21,00,AAXX 13211 33837 42/84 30402 10005 21043 30233 40287 58003 82051==
33837,2025,12,14,00,00,AAXX 14001 33837 32984 21002 10025 21043 30230 40283 57003 80001 555 1/102=
33837,2025,12,14,03,00,AAXX 14031 33837 42976 00000 10005 21038 30210 40264 58020 333 55030==
33837,2025,12,14,06,00,AAXX 14061 33837 32684 70000 10036 21022 30194 40247 57016 87500 333 21005 87634 555 10000=
33837,2025,12,14,09,00,AAXX 14091 33837 42483 82101 10056 21005 30177 40230 57017 885// 333 88717==
33837,2025,12,14,12,00,AAXX 14121 33837 32468 82801 10048 20015 30158 40211 57019 886// 333 88712 555 1/005=
33837,2025,12,14,15,00,AAXX 14151 33837 41564 62902 10034 20008 30158 40211 54000 70282 8555/ 333 85720==
33837,2025,12,14,18,00,AAXX 14181 33837 11565 53002 10047 20021 30162 40215 53004 69932 72582 82301 333 10068 555 1/002=
33837,2025,12,14,21,00,AAXX 14211 33837 42569 83002 10051 20023 30169 40222 52007 86501 333 86627==
33837,2025,12,15,00,00,AAXX 15001 33837 32581 73002 10054 20019 30179 40232 52010 87500 333 87631 555 1/003=
33837,2025,12,15,03,00,AAXX 15031 33837 NIL=
33837,2025,12,15,06,00,AAXX 15061 33837 32580 62601 10037 20008 30197 40250 52011 83531 333 20037 555 11002=
33837,2025,12,15,09,00,AAXX 15091 33837 42565 52802 10072 20021 30194 40246 58003 82531==
33837,2025,12,15,12,00,AAXX 15121 33837 32580 63002 10079 20011 30187 40239 57007 82531 555 1/010=
33837,2025,12,15,15,00,AAXX 15151 33837 42581 62702 10059 20005 30185 40237 56002 82531==
33837,2025,12,15,18,00,AAXX 15181 33837 32982 82702 10052 20002 30179 40232 57006 85031 333 10081 555 1/004=
33837,2025,12,15,21,00,AAXX 15211 33837 42/81 82702 10055 21003 30178 40231 56001 8805/==
33837,2025,12,16,00,00,AAXX 16001 33837 32984 82802 10061 21008 30177 40229 57001 8805/ 555 1/004=
33837,2025,12,16,03,00,AAXX 16031 33837 42983 22902 10045 21007 30186 40239 53009 80001 333 55025==
33837,2025,12,16,06,00,AAXX 16061 33837 32978 53101 10035 20000 30198 40251 52012 82031 333 20033 555 11001=
33837,2025,12,16,09,00,AAXX 16091 33837 42470 60101 10067 20024 30215 40267 53017 83601 333 83710==
33837,2025,12,16,12,00,AAXX 16121 33837 32460 70903 10061 20026 30219 40272 51004 87400 333 87719 555 1/008=
33837,2025,12,16,15,00,AAXX 16151 33837 42475 61004 10058 20023 30227 40280 52008 86400 333 86716==
33837,2025,12,16,18,00,AAXX 16181 33837 32483 81004 10048 20023 30236 40289 52009 885// 333 10070 88710 555 1/005=
33837,2025,12,16,21,00,AAXX 16211 33837 42470 81404 10051 20026 30245 40298 52009 885// 333 88711==
33837,2025,12,17,00,00,AAXX 17001 33837 32467 82601 10066 20038 30239 40292 58006 885// 333 88713 555 1/006=
33837,2025,12,17,03,00,AAXX 17031 33837 42461 83301 10060 20037 30237 40290 57002 885// 333 55019 88715==
33837,2025,12,17,06,00,AAXX 17061 33837 32562 82301 10069 20044 30247 40300 53010 885// 333 20047 88623 555 11006=
33837,2025,12,17,09,00,AAXX 17091 33837 42480 61704 10086 20050 30237 40289 58010 86500 333 86715==
33837,2025,12,17,12,00,AAXX 17121 33837 32569 71803 10097 20059 30235 40287 56002 87500 333 87626 555 1/011=
33837,2025,12,17,15,00,AAXX 17151 33837 42584 72102 10088 20050 30231 40283 57004 86530 333 86623==
33837,2025,12,17,18,00,AAXX 17181 33837 32583 32002 10092 20065 30225 40277 57006 83500 333 10100 555 1/005=
33837,2025,12,17,21,00,AAXX 17211 33837 42969 02302 10089 20067 30222 40274 57003==
33837,2025,12,18,00,00,AAXX 18001 33837 31450 62402 10074 20062 30222 40274 54000 71011 86500 333 86717 555 1/005=
33837,2025,12,18,03,00,AAXX 18031 33837 41458 62302 10086 20072 30214 40266 58008 71022 86500 333 55025 86711==
33837,2025,12,18,06,00,AAXX 18061 33837 31146 82402 10071 20060 30216 40268 53002 71022 886// 333 20070 88703 555 11007=
33837,2025,12,18,09,00,AAXX 18091 33837 42260 82701 10050 20032 30221 40274 52005 8655/ 333 86705==
33837,2025,12,18,12,00,AAXX 18121 33837 32360 82801 10046 20023 30215 40268 58006 885// 333 88708 555 1/008=
33837,2025,12,18,15,00,AAXX 18151 33837 41250 80000 10029 20013 30218 40271 53003 71022 886// 333 88705==
33837,2025,12,18,18,00,AAXX 18181 33837 31129 80000 10025 20012 30222 40275 52004 71022 886// 333 10071 88703 555 1/003=
33837,2025,12,18,21,00,AAXX 18211 33837 41118 82601 10017 20007 30226 40279 52004 71022 86651 333 86702==
33837,2025,12,19,00,00,AAXX 19001 33837 31958 62601 10025 20013 30227 40280 51001 71022 86050 555 1/003=
33837,2025,12,19,03,00,AAXX 19031 33837 41/58 62701 10039 20021 30222 40275 58005 71022 85051 333 55000==
33837,2025,12,19,06,00,AAXX 19061 33837 31557 72701 10045 20025 30227 40280 53005 71022 82550 333 20014 555 11004=
33837,2025,12,19,09,00,AAXX 19091 33837 42/71 83601 10080 20031 30226 40278 58001 86031==
33837,2025,12,19,12,00,AAXX 19121 33837 32967 33501 10090 20040 30220 40272 58006 83030 555 1/010=
33837,2025,12,19,15,00,AAXX 19151 33837 42/60 33302 10069 20035 30222 40274 53002 82031==
33837,2025,12,19,18,00,AAXX 19181 33837 31244 63202 10029 20013 30224 40277 52002 71011 86600 333 10091 86705 555 1/003=
33837,2025,12,19,21,00,AAXX 19211 33837 41456 33302 10021 21003 30222 40275 58002 71011 83600 333 83711==
33837,2025,12,20,00,00,AAXX 20001 33837 31356 63202 10017 21004 30217 40270 57005 71011 86600 333 86709 555 1/001=
33837,2025,12,20,03,00,AAXX 20031 33837 41350 83602 10026 20003 30207 40260 58010 71022 886// 333 55004 88709==
33837,2025,12,20,06,00,AAXX 20061 33837 31357 83601 10022 21001 30206 40259 56001 71022 886// 333 20016 88709 555 11003=
33837,2025,12,20,09,00,AAXX 20091 33837 41350 83501 10025 20002 30200 40253 58006 71022 886// 333 88708==
33837,2025,12,20,12,00,AAXX 20121 33837 31350 83401 10030 20007 30189 40242 58011 71022 885// 333 88708 555 1/006=
33837,2025,12,20,15,00,AAXX 20151 33837 41347 83401 10031 20010 30182 40235 57007 71022 886// 333 88707 555 1/004=
33837,2025,12,20,18,00,AAXX 20181 33837 31/07 93302 10040 20040 30175 40228 57007 74342 333 10042 555 1/005=
33837,2025,12,20,21,00,AAXX 20211 33837 41112 80803 10057 20048 30168 40220 57007 71042 886// 333 88702==
33837,2025,12,21,00,00,AAXX 21001 33837 31/02 90903 10053 20053 30161 40213 57007 74742 555 1/005=
33837,2025,12,21,03,00,AAXX 21031 33837 41111 80903 10045 20038 30155 40208 57006 72842 886// 333 55000 88702==
33837,2025,12,21,06,00,AAXX 21061 33837 31133 81003 10046 20039 30158 40211 53003 71042 886// 333 20040 88702 555 11005=
33837,2025,12,21,09,00,AAXX 21091 33837 41122 81002 10051 20044 30154 40206 58004 71022 886// 333 88702==
33837,2025,12,21,12,00,AAXX 21121 33837 31121 81001 10054 20047 30146 40198 57008 71022 886// 333 88702 555 1/007=
33837,2025,12,21,15,00,AAXX 21151 33837 41225 80000 10057 20050 30149 40201 53003 75152 886//==
33837,2025,12,21,18,00,AAXX 21181 33837 11118 80401 10057 20050 30149 40201 54000 69902 71052 886// 333 10060 88702 555 1/006=
33837,2025,12,21,21,00,AAXX 21211 33837 41/08 93101 10057 20057 30155 40207 53006 74742 89///==
33837,2025,12,22,00,00,AAXX 22001 33837 /1136 83101 10040 20033 30154 40207 58001 71064 886// 333 88702 555 1/005 69931=
33837,2025,12,22,03,00,AAXX 22031 33837 41156 83102 10021 20012 30155 40208 53001 71022 885// 333 55000 88703==
33837,2025,12,22,06,00,AAXX 22061 33837 11244 83302 10023 20014 30164 40217 53009 69932 75152 886// 333 20018 555 11004=
33837,2025,12,22,09,00,AAXX 22091 33837 41483 83502 10038 20022 30171 40224 52007 70252 886// 333 88710==
33837,2025,12,22,12,00,AAXX 22121 33837 /1482 80103 10042 20016 30167 40220 58004 70252 886// 333 88713 555 1/006 69901=
33837,2025,12,22,15,00,AAXX 22151 33837 42472 83301 10042 20012 30174 40227 53007 885// 333 88714==
33837,2025,12,22,18,00,AAXX 22181 33837 12584 83402 10031 21016 30182 40235 52008 69902 885// 333 10044 88625 555 1/003=
33837,2025,12,22,21,00,AAXX 22211 33837 42584 73502 10029 21022 30184 40237 51002 87500 333 87626==
33837,2025,12,23,00,00,AAXX 23001 33837 32584 70000 10029 21026 30180 40233 58004 87500 333 87627 555 1/003=
33837,2025,12,23,03,00,AAXX 23031 33837 42584 83101 10029 21028 30172 40225 57008 885// 333 55000 88630==
33837,2025,12,23,06,00,AAXX 23061 33837 32584 83501 10029 21028 30173 40226 53001 885// 333 20027 88630 555 10003=
33837,2025,12,23,09,00,AAXX 23091 33837 42681 80302 10037 21021 30172 40225 58001 885// 333 88643==
33837,2025,12,23,12,00,AAXX 23121 33837 32684 80402 10035 21022 30166 40219 58006 8655/ 333 86646 555 1/006=
33837,2025,12,23,15,00,AAXX 23151 33837 42684 80404 10033 21024 30168 40221 53002 885// 333 88641==
33837,2025,12,23,18,00,AAXX 23181 33837 32684 80404 10033 21029 30173 40226 52005 885// 333 10040 88644 555 1/003=
33837,2025,12,23,21,00,AAXX 23211 33837 42684 80504 10034 21028 30180 40233 52007 885// 333 88644==
33837,2025,12,24,00,00,AAXX 24001 33837 32683 80303 10029 21013 30190 40243 52010 885// 333 88647 555 1/002=
33837,2025,12,24,03,00,AAXX 24031 33837 42469 80303 10025 21003 30196 40249 52006 8555/ 333 55000 85712==
33837,2025,12,24,06,00,AAXX 24061 33837 32470 80606 10024 21004 30211 40264 53015 8655/ 333 20024 86713 555 10002=
33837,2025,12,24,09,00,AAXX 24091 33837 42481 80605 10021 21015 30232 40285 53021 8655/ 333 86715==
33837,2025,12,24,12,00,AAXX 24121 33837 /1584 80405 10019 21028 30245 40299 51013 72682 8635/ 555 1/003 69901=
33837,2025,12,24,15,00,AAXX 24151 33837 42583 80106 10008 21031 30261 40315 52016 8655/ 333 86620==
33837,2025,12,24,18,00,AAXX 24181 33837 12483 80307 11002 21034 30280 40334 52019 69902 8555/ 333 10028 85712 555 1/100=
33837,2025,12,24,21,00,AAXX 24211 33837 42469 80307 11010 21042 30295 40349 52015 885// 333 88714==
33837,2025,12,25,00,00,AAXX 25001 33837 32480 80308 11039 21065 30311 40366 52016 886// 333 88711 555 1/102=
33837,2025,12,25,03,00,AAXX 25031 33837 42480 60306 11058 21082 30311 40367 54000 86600 333 55000 86711==
33837,2025,12,25,06,00,AAXX 25061 33837 32480 60203 11072 21093 30323 40379 53012 86300 333 21072 86910 555 14105=
33837,2025,12,25,09,00,AAXX 25091 33837 41479 70205 11070 21095 30319 40375 58004 78582 87300==
33837,2025,12,25,12,00,AAXX 25121 33837 /1480 53503 11045 21088 30301 40356 58018 70282 85500 333 84713 555 1/000 69901=
33837,2025,12,25,15,00,AAXX 25151 33837 42967 23101 11055 21101 30288 40343 56013 82031 555 1/105=
33837,2025,12,25,18,00,AAXX 25181 33837 12984 23302 11055 21110 30277 40332 57011 69902 80001 333 11044 555 1/105=
33837,2025,12,25,21,00,AAXX 25211 33837 42981 03001 11060 21123 30258 40313 58019==
33837,2025,12,26,00,00,AAXX 26001 33837 32974 02801 11078 21115 30233 40289 58025 555 1/107=
33837,2025,12,26,03,00,AAXX 26031 33837 42980 02802 11091 21125 30202 40258 58031 333 55016==
33837,2025,12,26,06,00,AAXX 26061 33837 32576 30000 11084 21138 30170 40225 57032 82501 333 21093 555 14107=
33837,2025,12,26,09,00,AAXX 26091 33837 42684 82704 11055 21140 30132 40187 58038 8255/==
33837,2025,12,26,12,00,AAXX 26121 33837 /1206 82901 11046 21078 30104 40158 56028 78681 883// 555 1/102 69951=
33837,2025,12,26,15,00,AAXX 26151 33837 41466 83005 11027 21057 30094 40148 56010 78582 8635/==
33837,2025,12,26,18,00,AAXX 26181 33837 11574 83005 11009 21044 30099 40152 53005 60012 78582 8635/ 333 11008 555 1/102=
33837,2025,12,26,21,00,AAXX 26211 33837 41780 83006 10001 21034 30100 40153 51001 70282 8655/ 333 86650==
33837,2025,12,27,00,00,AAXX 27001 33837 /1576 83005 10006 21026 30101 40154 52001 72682 8635/ 555 1/101 69901=
33837,2025,12,27,03,00,AAXX 27031 33837 41567 83002 10012 21022 30096 40149 58005 78582 8635/ 333 55000==
33837,2025,12,27,06,00,AAXX 27061 33837 11664 82801 10006 21018 30103 40156 53007 69902 78582 8635/ 333 21009 43002 555 13100=
33837,2025,12,27,09,00,AAXX 27091 33837 41584 83003 10018 21018 30105 40158 51002 78582 883//==
33837,2025,12,27,12,00,AAXX 27121 33837 /1584 83202 10023 21028 30095 40148 58010 70282 885// 333 88721 555 1/001 69901=
33837,2025,12,27,15,00,AAXX 27151 33837 42684 83001 10016 21039 30089 40142 57006 885// 333 88640==
33837,2025,12,27,18,00,AAXX 27181 33837 12484 82501 10011 21028 30067 40120 58022 69902 885// 333 10025 88716 555 1/000=
33837,2025,12,27,21,00,AAXX 27211 33837 42472 82402 10009 21018 30018 40071 58049 86301 333 86919==
33837,2025,12,28,00,00,AAXX 28001 33837 /1580 82502 10009 21027 39966 40018 57052 70282 885// 333 88625 555 1/000 69901=
33837,2025,12,28,03,00,AAXX 28031 33837 41473 82906 10012 21007 39938 49990 56028 78382 883// 333 55000==
33837,2025,12,28,06,00,AAXX 28061 33837 11683 63106 10021 21022 39946 49998 53008 69972 70282 86500 333 21001 43003 86635 555 13100=
33837,2025,12,28,09,00,AAXX 28091 33837 42582 63105 10030 21021 39942 49994 58004 82531==
33837,2025,12,28,12,00,AAXX 28121 33837 /1584 83007 10034 21023 39939 49991 57003 72682 8635/ 333 86920 555 1/002 69901=
33837,2025,12,28,15,00,AAXX 28151 33837 41584 72906 10022 21016 39949 40001 53010 70282 86530 333 86723==
33837,2025,12,28,18,00,AAXX 28181 33837 11684 72905 10011 21011 39959 40011 52010 69932 70282 87500 333 10036 87641 555 1/000=
33837,2025,12,28,21,00,AAXX 28211 33837 41434 82906 10005 21014 39963 40015 51004 78582 883//==
33837,2025,12,29,00,00,AAXX 29001 33837 /1456 83007 10005 21024 39959 40011 58004 77187 8872/ 555 1/101 69951=
33837,2025,12,29,03,00,AAXX 29031 33837 41482 82907 10000 21044 39973 40026 53014 70272 885// 333 55019 88713==
33837,2025,12,29,06,00,AAXX 29061 33837 11684 62905 11003 21044 39989 40042 52016 69962 70272 85531 333 21005 46001 85645 555 16102=
33837,2025,12,29,09,00,AAXX 29091 33837 42684 83107 10007 21083 30001 40054 52012 85501 333 85636==
33837,2025,12,29,12,00,AAXX 29121 33837 32684 83109 10027 21075 39999 40051 58002 85501 333 85642 91018 91118 555 1/002=
33837,2025,12,29,15,00,AAXX 29151 33837 42584 62806 10017 21040 30018 40070 53019 82531==
33837,2025,12,29,18,00,AAXX 29181 33837 32984 22602 10000 21054 30030 40083 53012 80001 333 10030 555 1/101=
33837,2025,12,29,21,00,AAXX 29211 33837 42984 02602 11013 21061 30023 40076 58007==
33837,2025,12,30,00,00,AAXX 30001 33837 32684 62502 11018 21062 30014 40067 57009 85530 333 85645 555 1/101=
33837,2025,12,30,03,00,AAXX 30031 33837 42584 72701 11001 21055 39995 40048 58019 85530 333 55024 85631==
33837,2025,12,30,06,00,AAXX 30061 33837 32583 62702 11007 21057 39988 40041 56007 82531 333 21021 555 14101=
33837,2025,12,30,09,00,AAXX 30091 33837 42982 82801 10011 21052 39988 40040 54000 8805/ 555 1/001=
33837,2025,12,30,12,00,AAXX 30121 33837 /1483 83002 10010 21035 39988 40040 54000 78382 883// 555 1/001 69901=
33837,2025,12,30,15,00,AAXX 30151 33837 41/84 22901 11008 21068 30005 40058 53017 70281 82030==
33837,2025,12,30,18,00,AAXX 30181 33837 11984 02701 11022 21083 30016 40069 51011 69902 70281 333 10016 555 1/102=
33837,2025,12,30,21,00,AAXX 30211 33837 42984 02602 11035 21089 30017 40070 51001==
33837,2025,12,31,00,00,AAXX 31001 33837 32984 02702 11037 21087 30012 40065 58005 555 1/104=
33837,2025,12,31,03,00,AAXX 31031 33837 42984 02604 11035 21084 39998 40051 58014 333 55002==
33837,2025,12,31,06,00,AAXX 31061 33837 32984 82706 11037 21101 30002 40055 53004 83034 333 21042 555 14104=
33837,2025,12,31,09,00,AAXX 31091 33837 42583 62807 11006 21081 30004 40057 52002 83501==
33837,2025,12,31,12,00,AAXX 31121 33837 32581 62905 11003 21080 30004 40057 54000 83801 555 1/001=
33837,2025,12,31,15,00,AAXX 31151 33837 41581 72706 11017 21070 30023 40076 53019 72682 86301==
33837,2025,12,31,18,00,AAXX 31181 33837 11584 32805 11028 21085 30036 40089 51013 69902 70281 82501 333 10007 555 1/103=
33837,2025,12,31,21,00,AAXX 31211 33837 42984 02702 11043 21088 30057 40111 53021==
